{
"type": "FeatureCollection",
"features": [
{
  "type": "Feature",
  "id": "way/38105240",
  "properties": {
    "addr:city": "Druskininkai",
    "addr:housenumber": "9A",
    "addr:postcode": "66119",
    "addr:street": "Vilniaus al.",
    "amenity": "toilets",
    "building": "yes",
    "fee": "yes",
    "name": "WC",
    "unisex": "yes",
    "id": "way/38105240"
  },
  "geometry": {
    "type": "Polygon",
    "coordinates": [
      [
        [
          23.9746563,
          54.0216065
        ],
        [
          23.9749342,
          54.0216607
        ],
        [
          23.9748784,
          54.0217594
        ],
        [
          23.9746005,
          54.0217052
        ],
        [
          23.9746563,
          54.0216065
        ]
      ]
    ]
  }
},
{
  "type": "Feature",
  "id": "way/117708852",
  "properties": {
    "amenity": "toilets",
    "building": "yes",
    "fee": "no",
    "id": "way/117708852"
  },
  "geometry": {
    "type": "Polygon",
    "coordinates": [
      [
        [
          25.7606791,
          54.9743964
        ],
        [
          25.7607549,
          54.9744292
        ],
        [
          25.7607021,
          54.9744694
        ],
        [
          25.7606263,
          54.9744366
        ],
        [
          25.7606791,
          54.9743964
        ]
      ]
    ]
  }
},
{
  "type": "Feature",
  "id": "way/126109790",
  "properties": {
    "addr:city": "Klaipėda",
    "addr:country": "LT",
    "addr:housenumber": "14A",
    "addr:street": "Smiltynės g.",
    "amenity": "toilets",
    "building": "yes",
    "name": "WC",
    "source": "Bing+local info",
    "id": "way/126109790"
  },
  "geometry": {
    "type": "Polygon",
    "coordinates": [
      [
        [
          21.1002309,
          55.7067403
        ],
        [
          21.1003054,
          55.7067336
        ],
        [
          21.1003249,
          55.7068029
        ],
        [
          21.1002504,
          55.7068096
        ],
        [
          21.1002309,
          55.7067403
        ]
      ]
    ]
  }
},
{
  "type": "Feature",
  "id": "way/126109791",
  "properties": {
    "addr:city": "Klaipėda",
    "addr:country": "LT",
    "addr:housenumber": "14B",
    "addr:street": "Smiltynės g.",
    "amenity": "toilets",
    "building": "yes",
    "name": "WC",
    "source": "Bing+local info",
    "id": "way/126109791"
  },
  "geometry": {
    "type": "Polygon",
    "coordinates": [
      [
        [
          21.1007242,
          55.7038197
        ],
        [
          21.1007456,
          55.7037396
        ],
        [
          21.1008305,
          55.7037468
        ],
        [
          21.1008091,
          55.7038269
        ],
        [
          21.1007242,
          55.7038197
        ]
      ]
    ]
  }
},
{
  "type": "Feature",
  "id": "way/126109792",
  "properties": {
    "addr:city": "Klaipėda",
    "addr:country": "LT",
    "addr:housenumber": "14C",
    "addr:street": "Smiltynės g.",
    "amenity": "toilets",
    "building": "yes",
    "name": "WC",
    "source": "Bing+local info",
    "id": "way/126109792"
  },
  "geometry": {
    "type": "Polygon",
    "coordinates": [
      [
        [
          21.101192,
          55.6997364
        ],
        [
          21.101125,
          55.6997341
        ],
        [
          21.1011346,
          55.6996425
        ],
        [
          21.1012016,
          55.6996447
        ],
        [
          21.101192,
          55.6997364
        ]
      ]
    ]
  }
},
{
  "type": "Feature",
  "id": "way/126109797",
  "properties": {
    "addr:city": "Klaipėda",
    "addr:country": "LT",
    "addr:housenumber": "15D",
    "addr:street": "Smiltynės g.",
    "amenity": "toilets",
    "building": "yes",
    "name": "WC",
    "source": "Bing+local info",
    "id": "way/126109797"
  },
  "geometry": {
    "type": "Polygon",
    "coordinates": [
      [
        [
          21.1026762,
          55.6976246
        ],
        [
          21.1025811,
          55.6976218
        ],
        [
          21.1025846,
          55.6975847
        ],
        [
          21.1025359,
          55.6975832
        ],
        [
          21.1025386,
          55.6975549
        ],
        [
          21.1025419,
          55.6975204
        ],
        [
          21.1026312,
          55.6975231
        ],
        [
          21.1026271,
          55.6975663
        ],
        [
          21.1026816,
          55.697568
        ],
        [
          21.1026762,
          55.6976246
        ]
      ]
    ]
  }
},
{
  "type": "Feature",
  "id": "way/126111081",
  "properties": {
    "addr:city": "Klaipėda",
    "addr:country": "LT",
    "addr:housenumber": "30",
    "addr:postcode": "93100",
    "addr:street": "Smiltynės g.",
    "amenity": "toilets",
    "building": "yes",
    "name": "WC",
    "source": "Bing+local info",
    "id": "way/126111081"
  },
  "geometry": {
    "type": "Polygon",
    "coordinates": [
      [
        [
          21.1044691,
          55.6803609
        ],
        [
          21.1044668,
          55.6803046
        ],
        [
          21.104515,
          55.680304
        ],
        [
          21.1045158,
          55.6803226
        ],
        [
          21.1045589,
          55.680322
        ],
        [
          21.104561,
          55.6803755
        ],
        [
          21.1045138,
          55.6803761
        ],
        [
          21.1045132,
          55.6803603
        ],
        [
          21.1044691,
          55.6803609
        ]
      ]
    ]
  }
},
{
  "type": "Feature",
  "id": "way/126111082",
  "properties": {
    "addr:city": "Klaipėda",
    "addr:country": "LT",
    "addr:housenumber": "31",
    "addr:postcode": "93100",
    "addr:street": "Smiltynės g.",
    "amenity": "toilets",
    "building": "yes",
    "name": "WC",
    "source": "Bing+local info",
    "id": "way/126111082"
  },
  "geometry": {
    "type": "Polygon",
    "coordinates": [
      [
        [
          21.1050492,
          55.6789178
        ],
        [
          21.1049714,
          55.6788666
        ],
        [
          21.1050539,
          55.6788267
        ],
        [
          21.1051318,
          55.6788779
        ],
        [
          21.1050492,
          55.6789178
        ]
      ]
    ]
  }
},
{
  "type": "Feature",
  "id": "way/126111084",
  "properties": {
    "addr:city": "Klaipėda",
    "addr:country": "LT",
    "addr:housenumber": "33",
    "addr:postcode": "93100",
    "addr:street": "Smiltynės g.",
    "amenity": "toilets",
    "building": "yes",
    "name": "WC",
    "source": "Bing+local info",
    "id": "way/126111084"
  },
  "geometry": {
    "type": "Polygon",
    "coordinates": [
      [
        [
          21.1056024,
          55.6769741
        ],
        [
          21.1054951,
          55.6769717
        ],
        [
          21.1055021,
          55.6768744
        ],
        [
          21.1056094,
          55.6768768
        ],
        [
          21.1056024,
          55.6769741
        ]
      ]
    ]
  }
},
{
  "type": "Feature",
  "id": "way/134274490",
  "properties": {
    "amenity": "toilets",
    "building": "yes",
    "id": "way/134274490"
  },
  "geometry": {
    "type": "Polygon",
    "coordinates": [
      [
        [
          24.1916741,
          54.866859
        ],
        [
          24.1917897,
          54.8668961
        ],
        [
          24.1917459,
          54.8669413
        ],
        [
          24.1916303,
          54.8669043
        ],
        [
          24.1916741,
          54.866859
        ]
      ]
    ]
  }
},
{
  "type": "Feature",
  "id": "way/148397230",
  "properties": {
    "addr:city": "Kaunas",
    "addr:housenumber": "87B",
    "addr:street": "Taikos pr.",
    "amenity": "toilets",
    "building": "yes",
    "id": "way/148397230"
  },
  "geometry": {
    "type": "Polygon",
    "coordinates": [
      [
        [
          23.9695061,
          54.9147133
        ],
        [
          23.9696643,
          54.9147128
        ],
        [
          23.9696708,
          54.9147976
        ],
        [
          23.9695125,
          54.9147992
        ],
        [
          23.9695061,
          54.9147133
        ]
      ]
    ]
  }
},
{
  "type": "Feature",
  "id": "way/179266592",
  "properties": {
    "addr:city": "Palanga",
    "addr:housenumber": "2B",
    "addr:street": "Jūratės g.",
    "amenity": "toilets",
    "building": "yes",
    "id": "way/179266592"
  },
  "geometry": {
    "type": "Polygon",
    "coordinates": [
      [
        [
          21.056528,
          55.9223831
        ],
        [
          21.056713,
          55.9223467
        ],
        [
          21.0567514,
          55.9224078
        ],
        [
          21.0565663,
          55.9224443
        ],
        [
          21.056528,
          55.9223831
        ]
      ]
    ]
  }
},
{
  "type": "Feature",
  "id": "way/182139970",
  "properties": {
    "amenity": "toilets",
    "building": "yes",
    "female": "yes",
    "image": "https://kvr.kpd.lt/KvrWcf/LabbisServiceKvr.svc/GetImage/0854477E-9A42-4D64-86DC-FD55ED648600",
    "male": "yes",
    "name": "Balandinė",
    "official_name": "Burbiškio dvaro sodybos balandinė",
    "ref:lt:kpd": "23342",
    "id": "way/182139970"
  },
  "geometry": {
    "type": "Polygon",
    "coordinates": [
      [
        [
          23.8962597,
          55.7825678
        ],
        [
          23.896327,
          55.782571
        ],
        [
          23.8963188,
          55.7826257
        ],
        [
          23.8962514,
          55.7826225
        ],
        [
          23.8962597,
          55.7825678
        ]
      ]
    ]
  }
},
{
  "type": "Feature",
  "id": "way/212034755",
  "properties": {
    "addr:city": "Kuodaičiai",
    "addr:housenumber": "4",
    "addr:nostreet": "yes",
    "addr:place": "Kuodaičiai",
    "amenity": "toilets",
    "building": "yes",
    "fee": "yes",
    "id": "way/212034755"
  },
  "geometry": {
    "type": "Polygon",
    "coordinates": [
      [
        [
          22.1782647,
          55.5682858
        ],
        [
          22.1781906,
          55.5682097
        ],
        [
          22.1783955,
          55.5681458
        ],
        [
          22.1784697,
          55.5682218
        ],
        [
          22.1782647,
          55.5682858
        ]
      ]
    ]
  }
},
{
  "type": "Feature",
  "id": "way/213896380",
  "properties": {
    "access": "yes",
    "amenity": "toilets",
    "building": "yes",
    "changing_table": "no",
    "fee": "no",
    "unisex": "yes",
    "wheelchair": "no",
    "id": "way/213896380"
  },
  "geometry": {
    "type": "Polygon",
    "coordinates": [
      [
        [
          23.8969224,
          55.7837064
        ],
        [
          23.8969053,
          55.7837783
        ],
        [
          23.8968598,
          55.7837749
        ],
        [
          23.8968769,
          55.783703
        ],
        [
          23.8969224,
          55.7837064
        ]
      ]
    ]
  }
},
{
  "type": "Feature",
  "id": "way/221955522",
  "properties": {
    "amenity": "toilets",
    "building": "yes",
    "id": "way/221955522"
  },
  "geometry": {
    "type": "Polygon",
    "coordinates": [
      [
        [
          21.2303481,
          55.8861894
        ],
        [
          21.2303274,
          55.8861444
        ],
        [
          21.2304381,
          55.8861284
        ],
        [
          21.2304589,
          55.8861733
        ],
        [
          21.2303481,
          55.8861894
        ]
      ]
    ]
  }
},
{
  "type": "Feature",
  "id": "way/224843051",
  "properties": {
    "access": "public",
    "amenity": "toilets",
    "building": "yes",
    "description": "Autobusų stoties tualetas",
    "drinking_water": "no",
    "fee": "no",
    "source": "ORT10LT",
    "toilets:disposal": "chemical",
    "id": "way/224843051"
  },
  "geometry": {
    "type": "Polygon",
    "coordinates": [
      [
        [
          22.9291621,
          55.634615
        ],
        [
          22.9292133,
          55.6346352
        ],
        [
          22.9291629,
          55.6346759
        ],
        [
          22.9291283,
          55.6346623
        ],
        [
          22.9291034,
          55.6346823
        ],
        [
          22.9290506,
          55.6346615
        ],
        [
          22.9291102,
          55.6346134
        ],
        [
          22.9291463,
          55.6346277
        ],
        [
          22.9291621,
          55.634615
        ]
      ]
    ]
  }
},
{
  "type": "Feature",
  "id": "way/229199024",
  "properties": {
    "amenity": "toilets",
    "building": "yes",
    "id": "way/229199024"
  },
  "geometry": {
    "type": "Polygon",
    "coordinates": [
      [
        [
          21.100607,
          55.5457196
        ],
        [
          21.1006256,
          55.5457822
        ],
        [
          21.1005791,
          55.5457866
        ],
        [
          21.1005605,
          55.545724
        ],
        [
          21.100607,
          55.5457196
        ]
      ]
    ]
  }
},
{
  "type": "Feature",
  "id": "way/230490127",
  "properties": {
    "amenity": "toilets",
    "building": "yes",
    "id": "way/230490127"
  },
  "geometry": {
    "type": "Polygon",
    "coordinates": [
      [
        [
          25.4946691,
          55.0476246
        ],
        [
          25.4947493,
          55.0476015
        ],
        [
          25.4948148,
          55.0476763
        ],
        [
          25.4947346,
          55.0476994
        ],
        [
          25.4946691,
          55.0476246
        ]
      ]
    ]
  }
},
{
  "type": "Feature",
  "id": "way/235891881",
  "properties": {
    "addr:city": "Aukštupėnai",
    "addr:housenumber": "10",
    "addr:street": "Marių g.",
    "amenity": "toilets",
    "building": "yes",
    "id": "way/235891881"
  },
  "geometry": {
    "type": "Polygon",
    "coordinates": [
      [
        [
          24.9766927,
          55.8495112
        ],
        [
          24.9766056,
          55.8495217
        ],
        [
          24.9765791,
          55.8494518
        ],
        [
          24.9766663,
          55.8494414
        ],
        [
          24.9766927,
          55.8495112
        ]
      ]
    ]
  }
},
{
  "type": "Feature",
  "id": "way/243648392",
  "properties": {
    "amenity": "toilets",
    "building": "yes",
    "id": "way/243648392"
  },
  "geometry": {
    "type": "Polygon",
    "coordinates": [
      [
        [
          24.0493673,
          54.6560548
        ],
        [
          24.0494123,
          54.6560056
        ],
        [
          24.049449,
          54.6560168
        ],
        [
          24.049404,
          54.656066
        ],
        [
          24.0493673,
          54.6560548
        ]
      ]
    ]
  }
},
{
  "type": "Feature",
  "id": "way/244597846",
  "properties": {
    "amenity": "toilets",
    "building": "yes",
    "toilets:disposal": "flush",
    "wheelchair": "yes",
    "id": "way/244597846"
  },
  "geometry": {
    "type": "Polygon",
    "coordinates": [
      [
        [
          22.4498181,
          55.5040624
        ],
        [
          22.4498246,
          55.5040214
        ],
        [
          22.4499189,
          55.5040262
        ],
        [
          22.4500019,
          55.5040304
        ],
        [
          22.4499954,
          55.5040714
        ],
        [
          22.4498181,
          55.5040624
        ]
      ]
    ]
  }
},
{
  "type": "Feature",
  "id": "way/261198254",
  "properties": {
    "amenity": "toilets",
    "building": "yes",
    "id": "way/261198254"
  },
  "geometry": {
    "type": "Polygon",
    "coordinates": [
      [
        [
          23.9096916,
          54.8697514
        ],
        [
          23.9096768,
          54.8697301
        ],
        [
          23.909771,
          54.8697083
        ],
        [
          23.9097858,
          54.8697296
        ],
        [
          23.9096916,
          54.8697514
        ]
      ]
    ]
  }
},
{
  "type": "Feature",
  "id": "way/264958161",
  "properties": {
    "amenity": "toilets",
    "building": "yes",
    "id": "way/264958161"
  },
  "geometry": {
    "type": "Polygon",
    "coordinates": [
      [
        [
          23.9524939,
          54.9019479
        ],
        [
          23.9525727,
          54.901886
        ],
        [
          23.9527029,
          54.9019409
        ],
        [
          23.9526241,
          54.9020027
        ],
        [
          23.9524939,
          54.9019479
        ]
      ]
    ]
  }
},
{
  "type": "Feature",
  "id": "way/277652624",
  "properties": {
    "amenity": "toilets",
    "building": "yes",
    "wheelchair": "yes",
    "id": "way/277652624"
  },
  "geometry": {
    "type": "Polygon",
    "coordinates": [
      [
        [
          21.468942,
          55.9088878
        ],
        [
          21.4688807,
          55.9088906
        ],
        [
          21.4688761,
          55.9088585
        ],
        [
          21.4689076,
          55.9088571
        ],
        [
          21.4689374,
          55.9088557
        ],
        [
          21.468942,
          55.9088878
        ]
      ]
    ]
  }
},
{
  "type": "Feature",
  "id": "way/277652626",
  "properties": {
    "amenity": "toilets",
    "building": "yes",
    "id": "way/277652626"
  },
  "geometry": {
    "type": "Polygon",
    "coordinates": [
      [
        [
          21.4735077,
          55.9123805
        ],
        [
          21.4734466,
          55.9123705
        ],
        [
          21.4734594,
          55.9123461
        ],
        [
          21.4735205,
          55.9123562
        ],
        [
          21.4735077,
          55.9123805
        ]
      ]
    ]
  }
},
{
  "type": "Feature",
  "id": "way/279536689",
  "properties": {
    "amenity": "toilets",
    "building": "yes",
    "id": "way/279536689"
  },
  "geometry": {
    "type": "Polygon",
    "coordinates": [
      [
        [
          20.9835988,
          55.3113438
        ],
        [
          20.9836387,
          55.3113258
        ],
        [
          20.9837049,
          55.3113734
        ],
        [
          20.983665,
          55.3113914
        ],
        [
          20.9835988,
          55.3113438
        ]
      ]
    ]
  }
},
{
  "type": "Feature",
  "id": "way/315322481",
  "properties": {
    "access": "yes",
    "addr:city": "Radviliškis",
    "addr:housenumber": "4A",
    "addr:street": "Maironio g.",
    "amenity": "toilets",
    "building": "yes",
    "fee": "yes",
    "opening_hours": "Mo-Su 07:30-18:30",
    "id": "way/315322481"
  },
  "geometry": {
    "type": "Polygon",
    "coordinates": [
      [
        [
          23.5417009,
          55.8069064
        ],
        [
          23.5417643,
          55.8068572
        ],
        [
          23.5418484,
          55.8068914
        ],
        [
          23.541785,
          55.8069405
        ],
        [
          23.5417009,
          55.8069064
        ]
      ]
    ]
  }
},
{
  "type": "Feature",
  "id": "way/338370995",
  "properties": {
    "amenity": "toilets",
    "building": "yes",
    "id": "way/338370995"
  },
  "geometry": {
    "type": "Polygon",
    "coordinates": [
      [
        [
          22.2914795,
          55.191073
        ],
        [
          22.2914346,
          55.1910224
        ],
        [
          22.2915037,
          55.1910024
        ],
        [
          22.2915487,
          55.1910531
        ],
        [
          22.2914795,
          55.191073
        ]
      ]
    ]
  }
},
{
  "type": "Feature",
  "id": "way/344287039",
  "properties": {
    "amenity": "toilets",
    "building": "yes",
    "id": "way/344287039"
  },
  "geometry": {
    "type": "Polygon",
    "coordinates": [
      [
        [
          25.4941729,
          55.0457546
        ],
        [
          25.4943716,
          55.0457484
        ],
        [
          25.4943808,
          55.0458455
        ],
        [
          25.4941821,
          55.0458517
        ],
        [
          25.4941729,
          55.0457546
        ]
      ]
    ]
  }
},
{
  "type": "Feature",
  "id": "way/351265618",
  "properties": {
    "amenity": "toilets",
    "building": "yes",
    "fee": "no",
    "id": "way/351265618"
  },
  "geometry": {
    "type": "Polygon",
    "coordinates": [
      [
        [
          25.5869375,
          55.9633116
        ],
        [
          25.5869537,
          55.9632381
        ],
        [
          25.5870139,
          55.9632423
        ],
        [
          25.5869977,
          55.9633158
        ],
        [
          25.5869375,
          55.9633116
        ]
      ]
    ]
  }
},
{
  "type": "Feature",
  "id": "way/352650265",
  "properties": {
    "access": "yes",
    "amenity": "toilets",
    "building": "yes",
    "id": "way/352650265"
  },
  "geometry": {
    "type": "Polygon",
    "coordinates": [
      [
        [
          21.0725376,
          56.0307014
        ],
        [
          21.0725368,
          56.0306255
        ],
        [
          21.0726579,
          56.0306251
        ],
        [
          21.0726587,
          56.030701
        ],
        [
          21.0725376,
          56.0307014
        ]
      ]
    ]
  }
},
{
  "type": "Feature",
  "id": "way/354703152",
  "properties": {
    "addr:city": "Palanga",
    "addr:housenumber": "2A",
    "addr:street": "Jūros g.",
    "amenity": "toilets",
    "building": "yes",
    "opening_hours": "Mo-Su 08:00-22:00",
    "id": "way/354703152"
  },
  "geometry": {
    "type": "Polygon",
    "coordinates": [
      [
        [
          21.0804875,
          56.0295934
        ],
        [
          21.0804939,
          56.0295226
        ],
        [
          21.0806971,
          56.0295283
        ],
        [
          21.0806907,
          56.0295991
        ],
        [
          21.0804875,
          56.0295934
        ]
      ]
    ]
  }
},
{
  "type": "Feature",
  "id": "way/356904923",
  "properties": {
    "amenity": "toilets",
    "building": "yes",
    "id": "way/356904923"
  },
  "geometry": {
    "type": "Polygon",
    "coordinates": [
      [
        [
          21.0323224,
          55.3774528
        ],
        [
          21.0322928,
          55.3774329
        ],
        [
          21.0323643,
          55.3773986
        ],
        [
          21.0323939,
          55.3774186
        ],
        [
          21.0323224,
          55.3774528
        ]
      ]
    ]
  }
},
{
  "type": "Feature",
  "id": "way/357803797",
  "properties": {
    "amenity": "toilets",
    "building": "yes",
    "id": "way/357803797"
  },
  "geometry": {
    "type": "Polygon",
    "coordinates": [
      [
        [
          21.0619565,
          55.909791
        ],
        [
          21.0619467,
          55.9097319
        ],
        [
          21.0620537,
          55.9097263
        ],
        [
          21.0620635,
          55.9097855
        ],
        [
          21.0619565,
          55.909791
        ]
      ]
    ]
  }
},
{
  "type": "Feature",
  "id": "way/363156175",
  "properties": {
    "access": "yes",
    "amenity": "toilets",
    "building": "yes",
    "fee": "no",
    "id": "way/363156175"
  },
  "geometry": {
    "type": "Polygon",
    "coordinates": [
      [
        [
          21.0628852,
          55.9291024
        ],
        [
          21.0630033,
          55.9290895
        ],
        [
          21.063014,
          55.9291201
        ],
        [
          21.0628959,
          55.9291331
        ],
        [
          21.0628852,
          55.9291024
        ]
      ]
    ]
  }
},
{
  "type": "Feature",
  "id": "way/371153106",
  "properties": {
    "access": "public",
    "amenity": "toilets",
    "building": "yes",
    "fee": "no",
    "name": "Lauko tualetas",
    "operator": "Vilniaus profesinė sąjunga\"Solidarumas\"",
    "toilets:disposal": "bucket",
    "unisex": "yes",
    "id": "way/371153106"
  },
  "geometry": {
    "type": "Polygon",
    "coordinates": [
      [
        [
          26.030869,
          55.3434654
        ],
        [
          26.0308625,
          55.3434158
        ],
        [
          26.0309507,
          55.343412
        ],
        [
          26.0309572,
          55.3434616
        ],
        [
          26.030869,
          55.3434654
        ]
      ]
    ]
  }
},
{
  "type": "Feature",
  "id": "way/375232961",
  "properties": {
    "amenity": "toilets",
    "building": "yes",
    "id": "way/375232961"
  },
  "geometry": {
    "type": "Polygon",
    "coordinates": [
      [
        [
          23.9500205,
          54.9271034
        ],
        [
          23.9500211,
          54.927032
        ],
        [
          23.9500213,
          54.9270152
        ],
        [
          23.9502794,
          54.927016
        ],
        [
          23.9502786,
          54.9271042
        ],
        [
          23.9500205,
          54.9271034
        ]
      ]
    ]
  }
},
{
  "type": "Feature",
  "id": "way/402960263",
  "properties": {
    "amenity": "toilets",
    "building": "yes",
    "id": "way/402960263"
  },
  "geometry": {
    "type": "Polygon",
    "coordinates": [
      [
        [
          24.6495479,
          55.4740357
        ],
        [
          24.6495555,
          55.4740502
        ],
        [
          24.6495173,
          55.4740566
        ],
        [
          24.6495097,
          55.4740421
        ],
        [
          24.6495479,
          55.4740357
        ]
      ]
    ]
  }
},
{
  "type": "Feature",
  "id": "way/421850325",
  "properties": {
    "addr:city": "Vilnius",
    "addr:housenumber": "110B",
    "addr:street": "M. K. Čiurlionio g.",
    "amenity": "toilets",
    "building": "yes",
    "id": "way/421850325"
  },
  "geometry": {
    "type": "Polygon",
    "coordinates": [
      [
        [
          25.2334489,
          54.6834242
        ],
        [
          25.2334618,
          54.6832893
        ],
        [
          25.2336186,
          54.6832943
        ],
        [
          25.2336058,
          54.6834292
        ],
        [
          25.2334489,
          54.6834242
        ]
      ]
    ]
  }
},
{
  "type": "Feature",
  "id": "way/427192543",
  "properties": {
    "amenity": "toilets",
    "building": "yes",
    "id": "way/427192543"
  },
  "geometry": {
    "type": "Polygon",
    "coordinates": [
      [
        [
          24.2977292,
          55.6815397
        ],
        [
          24.2976942,
          55.6815474
        ],
        [
          24.2976821,
          55.68153
        ],
        [
          24.2977171,
          55.6815223
        ],
        [
          24.2977292,
          55.6815397
        ]
      ]
    ]
  }
},
{
  "type": "Feature",
  "id": "way/427800414",
  "properties": {
    "amenity": "toilets",
    "building": "yes",
    "wheelchair": "no",
    "id": "way/427800414"
  },
  "geometry": {
    "type": "Polygon",
    "coordinates": [
      [
        [
          23.2940686,
          55.9368192
        ],
        [
          23.2939065,
          55.936886
        ],
        [
          23.2938422,
          55.936837
        ],
        [
          23.2940043,
          55.9367702
        ],
        [
          23.2940686,
          55.9368192
        ]
      ]
    ]
  }
},
{
  "type": "Feature",
  "id": "way/427800418",
  "properties": {
    "amenity": "toilets",
    "building": "yes",
    "wheelchair": "no",
    "id": "way/427800418"
  },
  "geometry": {
    "type": "Polygon",
    "coordinates": [
      [
        [
          23.2958192,
          55.9361232
        ],
        [
          23.2956482,
          55.9361847
        ],
        [
          23.2955945,
          55.9361378
        ],
        [
          23.2957655,
          55.9360763
        ],
        [
          23.2958192,
          55.9361232
        ]
      ]
    ]
  }
},
{
  "type": "Feature",
  "id": "way/428448983",
  "properties": {
    "addr:postcode": "20373",
    "amenity": "toilets",
    "building": "yes",
    "name": "WC",
    "id": "way/428448983"
  },
  "geometry": {
    "type": "Polygon",
    "coordinates": [
      [
        [
          24.99917,
          55.2712564
        ],
        [
          24.9991552,
          55.2712415
        ],
        [
          24.999177,
          55.2712344
        ],
        [
          24.9991918,
          55.2712494
        ],
        [
          24.99917,
          55.2712564
        ]
      ]
    ]
  }
},
{
  "type": "Feature",
  "id": "way/432598702",
  "properties": {
    "amenity": "toilets",
    "building": "yes",
    "id": "way/432598702"
  },
  "geometry": {
    "type": "Polygon",
    "coordinates": [
      [
        [
          24.1249508,
          55.7528324
        ],
        [
          24.1249592,
          55.7528506
        ],
        [
          24.124923,
          55.7528559
        ],
        [
          24.1249146,
          55.7528376
        ],
        [
          24.1249508,
          55.7528324
        ]
      ]
    ]
  }
},
{
  "type": "Feature",
  "id": "way/438182411",
  "properties": {
    "addr:city": "Vilnius",
    "addr:housenumber": "2",
    "addr:street": "Barboros Radvilaitės g.",
    "amenity": "toilets",
    "building": "yes",
    "fee": "0.3€",
    "opening_hours": "Mo-Su 08:00-22:00",
    "toilets:disposal": "chemical",
    "wheelchair": "no",
    "id": "way/438182411"
  },
  "geometry": {
    "type": "Polygon",
    "coordinates": [
      [
        [
          25.2903545,
          54.6849143
        ],
        [
          25.29037,
          54.6849301
        ],
        [
          25.2903556,
          54.6849651
        ],
        [
          25.2903279,
          54.6849742
        ],
        [
          25.290268,
          54.684966
        ],
        [
          25.290252,
          54.6849497
        ],
        [
          25.2902662,
          54.6849151
        ],
        [
          25.2902938,
          54.684906
        ],
        [
          25.2903545,
          54.6849143
        ]
      ]
    ]
  }
},
{
  "type": "Feature",
  "id": "way/448026255",
  "properties": {
    "addr:city": "Meteliai",
    "addr:housenumber": "47A",
    "addr:street": "Ežero g.",
    "amenity": "toilets",
    "building": "toilets",
    "id": "way/448026255"
  },
  "geometry": {
    "type": "Polygon",
    "coordinates": [
      [
        [
          23.7476071,
          54.3043951
        ],
        [
          23.7476508,
          54.3043637
        ],
        [
          23.7477064,
          54.3043901
        ],
        [
          23.7476627,
          54.3044215
        ],
        [
          23.7476071,
          54.3043951
        ]
      ]
    ]
  }
},
{
  "type": "Feature",
  "id": "way/448810548",
  "properties": {
    "amenity": "toilets",
    "building": "yes",
    "id": "way/448810548"
  },
  "geometry": {
    "type": "Polygon",
    "coordinates": [
      [
        [
          22.2558636,
          55.9779963
        ],
        [
          22.2558089,
          55.9779877
        ],
        [
          22.2558391,
          55.9779276
        ],
        [
          22.2558938,
          55.9779362
        ],
        [
          22.2558636,
          55.9779963
        ]
      ]
    ]
  }
},
{
  "type": "Feature",
  "id": "way/449062218",
  "properties": {
    "amenity": "toilets",
    "building": "yes",
    "id": "way/449062218"
  },
  "geometry": {
    "type": "Polygon",
    "coordinates": [
      [
        [
          24.8437029,
          55.1204721
        ],
        [
          24.8436968,
          55.1204867
        ],
        [
          24.8436712,
          55.1204832
        ],
        [
          24.8436774,
          55.1204686
        ],
        [
          24.8437029,
          55.1204721
        ]
      ]
    ]
  }
},
{
  "type": "Feature",
  "id": "way/451427010",
  "properties": {
    "access": "yes",
    "amenity": "toilets",
    "fee": "no",
    "id": "way/451427010"
  },
  "geometry": {
    "type": "Polygon",
    "coordinates": [
      [
        [
          21.0524341,
          55.9127849
        ],
        [
          21.0524613,
          55.9127439
        ],
        [
          21.0526061,
          55.9127741
        ],
        [
          21.0525788,
          55.9128151
        ],
        [
          21.0524341,
          55.9127849
        ]
      ]
    ]
  }
},
{
  "type": "Feature",
  "id": "way/474779557",
  "properties": {
    "addr:city": "Vilnius",
    "addr:housenumber": "77",
    "addr:postcode": "10100",
    "addr:street": "Vaidilutės g.",
    "amenity": "toilets",
    "building": "yes",
    "unisex": "yes",
    "id": "way/474779557"
  },
  "geometry": {
    "type": "Polygon",
    "coordinates": [
      [
        [
          25.2941664,
          54.7432158
        ],
        [
          25.2940206,
          54.7431719
        ],
        [
          25.2940946,
          54.7430915
        ],
        [
          25.2942382,
          54.7431367
        ],
        [
          25.2941664,
          54.7432158
        ]
      ]
    ]
  }
},
{
  "type": "Feature",
  "id": "way/478543476",
  "properties": {
    "amenity": "toilets",
    "building": "yes",
    "id": "way/478543476"
  },
  "geometry": {
    "type": "Polygon",
    "coordinates": [
      [
        [
          23.4746656,
          54.1650851
        ],
        [
          23.4746666,
          54.1651523
        ],
        [
          23.4745499,
          54.1651529
        ],
        [
          23.4745489,
          54.1650857
        ],
        [
          23.4746656,
          54.1650851
        ]
      ]
    ]
  }
},
{
  "type": "Feature",
  "id": "way/504541942",
  "properties": {
    "amenity": "toilets",
    "building": "yes",
    "opening_hours": "Mo-Su 09:00-22:00",
    "id": "way/504541942"
  },
  "geometry": {
    "type": "Polygon",
    "coordinates": [
      [
        [
          21.0741475,
          56.0255898
        ],
        [
          21.074163,
          56.0255683
        ],
        [
          21.0742545,
          56.0255888
        ],
        [
          21.074239,
          56.0256103
        ],
        [
          21.0741475,
          56.0255898
        ]
      ]
    ]
  }
},
{
  "type": "Feature",
  "id": "way/504541943",
  "properties": {
    "addr:city": "Palanga",
    "addr:housenumber": "3",
    "addr:postcode": "00305",
    "addr:street": "Prieplaukos g.",
    "amenity": "toilets",
    "building": "yes",
    "id": "way/504541943"
  },
  "geometry": {
    "type": "Polygon",
    "coordinates": [
      [
        [
          21.073952,
          56.0254289
        ],
        [
          21.0739435,
          56.0253556
        ],
        [
          21.0740235,
          56.0253527
        ],
        [
          21.0740319,
          56.0254261
        ],
        [
          21.073952,
          56.0254289
        ]
      ]
    ]
  }
},
{
  "type": "Feature",
  "id": "way/504837102",
  "properties": {
    "amenity": "toilets",
    "building": "yes",
    "id": "way/504837102"
  },
  "geometry": {
    "type": "Polygon",
    "coordinates": [
      [
        [
          24.3524569,
          55.8477732
        ],
        [
          24.3524288,
          55.8477837
        ],
        [
          24.3524125,
          55.84777
        ],
        [
          24.3524406,
          55.8477595
        ],
        [
          24.3524569,
          55.8477732
        ]
      ]
    ]
  }
},
{
  "type": "Feature",
  "id": "way/505356970",
  "properties": {
    "amenity": "toilets",
    "building": "yes",
    "id": "way/505356970"
  },
  "geometry": {
    "type": "Polygon",
    "coordinates": [
      [
        [
          24.6910858,
          56.2477278
        ],
        [
          24.6910885,
          56.2477486
        ],
        [
          24.6910664,
          56.2477495
        ],
        [
          24.6910637,
          56.2477287
        ],
        [
          24.6910858,
          56.2477278
        ]
      ]
    ]
  }
},
{
  "type": "Feature",
  "id": "way/505376817",
  "properties": {
    "amenity": "toilets",
    "building": "yes",
    "id": "way/505376817"
  },
  "geometry": {
    "type": "Polygon",
    "coordinates": [
      [
        [
          24.6926729,
          56.2056464
        ],
        [
          24.6926711,
          56.2056624
        ],
        [
          24.6926466,
          56.2056616
        ],
        [
          24.6926483,
          56.2056455
        ],
        [
          24.6926729,
          56.2056464
        ]
      ]
    ]
  }
},
{
  "type": "Feature",
  "id": "way/579356235",
  "properties": {
    "amenity": "toilets",
    "building": "yes",
    "id": "way/579356235"
  },
  "geometry": {
    "type": "Polygon",
    "coordinates": [
      [
        [
          24.009834,
          54.3667057
        ],
        [
          24.0097729,
          54.3667587
        ],
        [
          24.009682,
          54.3667231
        ],
        [
          24.009743,
          54.3666702
        ],
        [
          24.009834,
          54.3667057
        ]
      ]
    ]
  }
},
{
  "type": "Feature",
  "id": "way/585340300",
  "properties": {
    "amenity": "toilets",
    "building": "yes",
    "id": "way/585340300"
  },
  "geometry": {
    "type": "Polygon",
    "coordinates": [
      [
        [
          23.2102426,
          56.344388
        ],
        [
          23.2102056,
          56.344398
        ],
        [
          23.2101794,
          56.3443684
        ],
        [
          23.2102165,
          56.3443584
        ],
        [
          23.2102426,
          56.344388
        ]
      ]
    ]
  }
},
{
  "type": "Feature",
  "id": "way/589652122",
  "properties": {
    "addr:city": "Stripeikiai",
    "addr:housenumber": "5A",
    "addr:street": "Pušyno g.",
    "amenity": "toilets",
    "building": "yes",
    "id": "way/589652122"
  },
  "geometry": {
    "type": "Polygon",
    "coordinates": [
      [
        [
          25.9438818,
          55.4085332
        ],
        [
          25.943819,
          55.4085138
        ],
        [
          25.9438556,
          55.4084755
        ],
        [
          25.9439184,
          55.4084948
        ],
        [
          25.9438818,
          55.4085332
        ]
      ]
    ]
  }
},
{
  "type": "Feature",
  "id": "way/592071773",
  "properties": {
    "amenity": "toilets",
    "building": "yes",
    "name": "Tualetai, prausykla",
    "id": "way/592071773"
  },
  "geometry": {
    "type": "Polygon",
    "coordinates": [
      [
        [
          22.582406,
          56.0944272
        ],
        [
          22.5824298,
          56.0944474
        ],
        [
          22.5825895,
          56.0943887
        ],
        [
          22.5826571,
          56.0944459
        ],
        [
          22.582511,
          56.0944996
        ],
        [
          22.5824892,
          56.0944811
        ],
        [
          22.5823338,
          56.0945382
        ],
        [
          22.5823025,
          56.0945117
        ],
        [
          22.5822656,
          56.0945253
        ],
        [
          22.5822273,
          56.0944928
        ],
        [
          22.582406,
          56.0944272
        ]
      ]
    ]
  }
},
{
  "type": "Feature",
  "id": "way/593019611",
  "properties": {
    "amenity": "toilets",
    "building": "yes",
    "id": "way/593019611"
  },
  "geometry": {
    "type": "Polygon",
    "coordinates": [
      [
        [
          21.4559627,
          55.5265991
        ],
        [
          21.4558331,
          55.5265297
        ],
        [
          21.4559135,
          55.5264816
        ],
        [
          21.4559789,
          55.5265165
        ],
        [
          21.4559518,
          55.5265328
        ],
        [
          21.456016,
          55.5265672
        ],
        [
          21.4559627,
          55.5265991
        ]
      ]
    ]
  }
},
{
  "type": "Feature",
  "id": "way/602327622",
  "properties": {
    "amenity": "toilets",
    "building": "yes",
    "id": "way/602327622"
  },
  "geometry": {
    "type": "Polygon",
    "coordinates": [
      [
        [
          21.087151,
          55.7312307
        ],
        [
          21.087131,
          55.7312038
        ],
        [
          21.0872562,
          55.7311743
        ],
        [
          21.0872762,
          55.7312012
        ],
        [
          21.087151,
          55.7312307
        ]
      ]
    ]
  }
},
{
  "type": "Feature",
  "id": "way/603986248",
  "properties": {
    "amenity": "toilets",
    "building": "yes",
    "toilets:disposal": "pitlatrine",
    "id": "way/603986248"
  },
  "geometry": {
    "type": "Polygon",
    "coordinates": [
      [
        [
          21.8275424,
          56.0227361
        ],
        [
          21.8276256,
          56.0226397
        ],
        [
          21.8277148,
          56.0226638
        ],
        [
          21.8276316,
          56.0227601
        ],
        [
          21.8275424,
          56.0227361
        ]
      ]
    ]
  }
},
{
  "type": "Feature",
  "id": "way/606373911",
  "properties": {
    "amenity": "toilets",
    "building": "yes",
    "id": "way/606373911"
  },
  "geometry": {
    "type": "Polygon",
    "coordinates": [
      [
        [
          24.1131601,
          55.5604996
        ],
        [
          24.1131316,
          55.5604722
        ],
        [
          24.1131869,
          55.5604532
        ],
        [
          24.113217,
          55.5604816
        ],
        [
          24.1131601,
          55.5604996
        ]
      ]
    ]
  }
},
{
  "type": "Feature",
  "id": "way/606380673",
  "properties": {
    "amenity": "toilets",
    "building": "yes",
    "id": "way/606380673"
  },
  "geometry": {
    "type": "Polygon",
    "coordinates": [
      [
        [
          25.3041672,
          55.5110155
        ],
        [
          25.3041881,
          55.5109956
        ],
        [
          25.304235,
          55.5110089
        ],
        [
          25.3042158,
          55.5110292
        ],
        [
          25.3041672,
          55.5110155
        ]
      ]
    ]
  }
},
{
  "type": "Feature",
  "id": "way/609933611",
  "properties": {
    "amenity": "toilets",
    "building": "yes",
    "id": "way/609933611"
  },
  "geometry": {
    "type": "Polygon",
    "coordinates": [
      [
        [
          21.0640456,
          55.3732562
        ],
        [
          21.0640999,
          55.3732562
        ],
        [
          21.0640999,
          55.3732787
        ],
        [
          21.0640456,
          55.3732787
        ],
        [
          21.0640456,
          55.3732562
        ]
      ]
    ]
  }
},
{
  "type": "Feature",
  "id": "way/610173903",
  "properties": {
    "addr:city": "Aržuolupiai",
    "addr:housenumber": "17C",
    "addr:nostreet": "yes",
    "addr:place": "Aržuolupiai",
    "addr:postcode": "71140",
    "amenity": "toilets",
    "building": "yes",
    "changing_table": "no",
    "fee": "no",
    "unisex": "yes",
    "id": "way/610173903"
  },
  "geometry": {
    "type": "Polygon",
    "coordinates": [
      [
        [
          23.085444,
          54.946196
        ],
        [
          23.0854357,
          54.946133
        ],
        [
          23.0855365,
          54.9461286
        ],
        [
          23.0855448,
          54.9461917
        ],
        [
          23.085444,
          54.946196
        ]
      ]
    ]
  }
},
{
  "type": "Feature",
  "id": "way/610173904",
  "properties": {
    "amenity": "toilets",
    "building": "yes",
    "fee": "no",
    "unisex": "yes",
    "id": "way/610173904"
  },
  "geometry": {
    "type": "Polygon",
    "coordinates": [
      [
        [
          23.0870124,
          54.946749
        ],
        [
          23.0870051,
          54.9467114
        ],
        [
          23.087083,
          54.9467064
        ],
        [
          23.0870903,
          54.946744
        ],
        [
          23.0870124,
          54.946749
        ]
      ]
    ]
  }
},
{
  "type": "Feature",
  "id": "way/610274308",
  "properties": {
    "amenity": "toilets",
    "building": "yes",
    "id": "way/610274308"
  },
  "geometry": {
    "type": "Polygon",
    "coordinates": [
      [
        [
          24.8046198,
          56.0185094
        ],
        [
          24.8046191,
          56.0185203
        ],
        [
          24.8045995,
          56.0185199
        ],
        [
          24.8046003,
          56.018509
        ],
        [
          24.8046198,
          56.0185094
        ]
      ]
    ]
  }
},
{
  "type": "Feature",
  "id": "way/615603365",
  "properties": {
    "amenity": "toilets",
    "building": "yes",
    "id": "way/615603365"
  },
  "geometry": {
    "type": "Polygon",
    "coordinates": [
      [
        [
          24.8750411,
          55.9401509
        ],
        [
          24.8750421,
          55.940185
        ],
        [
          24.8749616,
          55.9401858
        ],
        [
          24.8749606,
          55.9401517
        ],
        [
          24.8750411,
          55.9401509
        ]
      ]
    ]
  }
},
{
  "type": "Feature",
  "id": "way/616338260",
  "properties": {
    "amenity": "toilets",
    "building": "yes",
    "id": "way/616338260"
  },
  "geometry": {
    "type": "Polygon",
    "coordinates": [
      [
        [
          24.6662942,
          55.9747595
        ],
        [
          24.6662965,
          55.9747706
        ],
        [
          24.6662768,
          55.9747719
        ],
        [
          24.6662745,
          55.9747608
        ],
        [
          24.6662942,
          55.9747595
        ]
      ]
    ]
  }
},
{
  "type": "Feature",
  "id": "way/616741121",
  "properties": {
    "amenity": "toilets",
    "building": "yes",
    "id": "way/616741121"
  },
  "geometry": {
    "type": "Polygon",
    "coordinates": [
      [
        [
          24.9509837,
          56.1523815
        ],
        [
          24.9509697,
          56.1523934
        ],
        [
          24.9509484,
          56.1523856
        ],
        [
          24.9509624,
          56.1523737
        ],
        [
          24.9509837,
          56.1523815
        ]
      ]
    ]
  }
},
{
  "type": "Feature",
  "id": "way/618319618",
  "properties": {
    "amenity": "toilets",
    "building": "yes",
    "id": "way/618319618"
  },
  "geometry": {
    "type": "Polygon",
    "coordinates": [
      [
        [
          24.771,
          56.3975184
        ],
        [
          24.7709992,
          56.3974968
        ],
        [
          24.7710438,
          56.3974963
        ],
        [
          24.7710447,
          56.3975179
        ],
        [
          24.771,
          56.3975184
        ]
      ]
    ]
  }
},
{
  "type": "Feature",
  "id": "way/619254021",
  "properties": {
    "amenity": "toilets",
    "building": "yes",
    "id": "way/619254021"
  },
  "geometry": {
    "type": "Polygon",
    "coordinates": [
      [
        [
          24.6483153,
          56.3745185
        ],
        [
          24.6483319,
          56.3745231
        ],
        [
          24.6483212,
          56.3745349
        ],
        [
          24.6483046,
          56.3745303
        ],
        [
          24.6483153,
          56.3745185
        ]
      ]
    ]
  }
},
{
  "type": "Feature",
  "id": "way/620224539",
  "properties": {
    "amenity": "toilets",
    "building": "yes",
    "name": "WC",
    "id": "way/620224539"
  },
  "geometry": {
    "type": "Polygon",
    "coordinates": [
      [
        [
          24.99873,
          55.2708403
        ],
        [
          24.9987152,
          55.2708254
        ],
        [
          24.998737,
          55.2708183
        ],
        [
          24.9987518,
          55.2708333
        ],
        [
          24.99873,
          55.2708403
        ]
      ]
    ]
  }
},
{
  "type": "Feature",
  "id": "way/620437771",
  "properties": {
    "amenity": "toilets",
    "building": "yes",
    "unisex": "yes",
    "id": "way/620437771"
  },
  "geometry": {
    "type": "Polygon",
    "coordinates": [
      [
        [
          23.1731263,
          54.8507088
        ],
        [
          23.1731167,
          54.8506947
        ],
        [
          23.1731418,
          54.8506891
        ],
        [
          23.1731514,
          54.8507031
        ],
        [
          23.1731263,
          54.8507088
        ]
      ]
    ]
  }
},
{
  "type": "Feature",
  "id": "way/627401599",
  "properties": {
    "amenity": "toilets",
    "building": "cabin",
    "building:levels": "1",
    "female": "yes",
    "height": "3",
    "male": "yes",
    "wheelchair": "limited",
    "id": "way/627401599"
  },
  "geometry": {
    "type": "Polygon",
    "coordinates": [
      [
        [
          25.437438,
          55.9022444
        ],
        [
          25.4374722,
          55.9022019
        ],
        [
          25.437524,
          55.902215
        ],
        [
          25.4374898,
          55.9022575
        ],
        [
          25.437438,
          55.9022444
        ]
      ]
    ]
  }
},
{
  "type": "Feature",
  "id": "way/643157230",
  "properties": {
    "amenity": "toilets",
    "building": "yes",
    "id": "way/643157230"
  },
  "geometry": {
    "type": "Polygon",
    "coordinates": [
      [
        [
          21.4558722,
          55.5242476
        ],
        [
          21.4558349,
          55.5242312
        ],
        [
          21.4558552,
          55.5242164
        ],
        [
          21.4558925,
          55.5242328
        ],
        [
          21.4558722,
          55.5242476
        ]
      ]
    ]
  }
},
{
  "type": "Feature",
  "id": "way/667604222",
  "properties": {
    "amenity": "toilets",
    "building": "yes",
    "id": "way/667604222"
  },
  "geometry": {
    "type": "Polygon",
    "coordinates": [
      [
        [
          24.3596283,
          55.7381822
        ],
        [
          24.3595732,
          55.7381592
        ],
        [
          24.3595902,
          55.7381463
        ],
        [
          24.3596452,
          55.7381693
        ],
        [
          24.3596283,
          55.7381822
        ]
      ]
    ]
  }
},
{
  "type": "Feature",
  "id": "way/682500374",
  "properties": {
    "access": "yes",
    "amenity": "toilets",
    "id": "way/682500374"
  },
  "geometry": {
    "type": "Polygon",
    "coordinates": [
      [
        [
          25.8695794,
          55.8327348
        ],
        [
          25.8696808,
          55.8327043
        ],
        [
          25.8697149,
          55.83274
        ],
        [
          25.8696135,
          55.8327705
        ],
        [
          25.8695794,
          55.8327348
        ]
      ]
    ]
  }
},
{
  "type": "Feature",
  "id": "way/688016578",
  "properties": {
    "amenity": "toilets",
    "building": "yes",
    "id": "way/688016578"
  },
  "geometry": {
    "type": "Polygon",
    "coordinates": [
      [
        [
          22.3324386,
          56.2956856
        ],
        [
          22.3322774,
          56.2956632
        ],
        [
          22.3323168,
          56.2955759
        ],
        [
          22.332478,
          56.2955983
        ],
        [
          22.3324386,
          56.2956856
        ]
      ]
    ]
  }
},
{
  "type": "Feature",
  "id": "way/701792732",
  "properties": {
    "amenity": "toilets",
    "building": "yes",
    "id": "way/701792732"
  },
  "geometry": {
    "type": "Polygon",
    "coordinates": [
      [
        [
          24.2227263,
          55.6544273
        ],
        [
          24.2227327,
          55.6544059
        ],
        [
          24.2227797,
          55.6544104
        ],
        [
          24.2227733,
          55.6544318
        ],
        [
          24.2227263,
          55.6544273
        ]
      ]
    ]
  }
},
{
  "type": "Feature",
  "id": "way/807862089",
  "properties": {
    "amenity": "toilets",
    "building": "yes",
    "id": "way/807862089"
  },
  "geometry": {
    "type": "Polygon",
    "coordinates": [
      [
        [
          21.1196015,
          55.726107
        ],
        [
          21.1196,
          55.725988
        ],
        [
          21.1197503,
          55.7259873
        ],
        [
          21.1197519,
          55.7261064
        ],
        [
          21.1196015,
          55.726107
        ]
      ]
    ]
  }
},
{
  "type": "Feature",
  "id": "way/818857290",
  "properties": {
    "amenity": "toilets",
    "building": "yes",
    "id": "way/818857290"
  },
  "geometry": {
    "type": "Polygon",
    "coordinates": [
      [
        [
          25.6624038,
          54.1794342
        ],
        [
          25.662404,
          54.1794189
        ],
        [
          25.6624372,
          54.179419
        ],
        [
          25.662437,
          54.1794343
        ],
        [
          25.6624038,
          54.1794342
        ]
      ]
    ]
  }
},
{
  "type": "Feature",
  "id": "way/825973950",
  "properties": {
    "access": "yes",
    "addr:city": "Vilnius",
    "addr:housenumber": "88A",
    "addr:street": "M. K. Čiurlionio g.",
    "amenity": "toilets",
    "building": "yes",
    "changing_table": "no",
    "fee": "no",
    "source": "local knowledge",
    "toilets:disposal": "flush",
    "unisex": "yes",
    "wheelchair": "no",
    "id": "way/825973950"
  },
  "geometry": {
    "type": "Polygon",
    "coordinates": [
      [
        [
          25.2478635,
          54.6822222
        ],
        [
          25.2478625,
          54.6821856
        ],
        [
          25.247693,
          54.6821872
        ],
        [
          25.2476941,
          54.6822258
        ],
        [
          25.2476343,
          54.6822263
        ],
        [
          25.2476326,
          54.6821605
        ],
        [
          25.2479076,
          54.682158
        ],
        [
          25.2479093,
          54.6822218
        ],
        [
          25.2478635,
          54.6822222
        ]
      ]
    ]
  }
},
{
  "type": "Feature",
  "id": "way/831148617",
  "properties": {
    "amenity": "toilets",
    "level": "1",
    "id": "way/831148617"
  },
  "geometry": {
    "type": "Polygon",
    "coordinates": [
      [
        [
          23.3083454,
          55.9282164
        ],
        [
          23.3083507,
          55.9281871
        ],
        [
          23.3084833,
          55.9281076
        ],
        [
          23.3085322,
          55.9281336
        ],
        [
          23.3085542,
          55.9281452
        ],
        [
          23.3084124,
          55.9282307
        ],
        [
          23.3083454,
          55.9282164
        ]
      ]
    ]
  }
},
{
  "type": "Feature",
  "id": "way/833742565",
  "properties": {
    "amenity": "toilets",
    "building": "yes",
    "id": "way/833742565"
  },
  "geometry": {
    "type": "Polygon",
    "coordinates": [
      [
        [
          26.4277914,
          55.5958394
        ],
        [
          26.4276681,
          55.5958339
        ],
        [
          26.427684,
          55.5957216
        ],
        [
          26.4278072,
          55.5957272
        ],
        [
          26.4277914,
          55.5958394
        ]
      ]
    ]
  }
},
{
  "type": "Feature",
  "id": "way/836056419",
  "properties": {
    "amenity": "toilets",
    "building": "toilets",
    "toilets:paper_supplied": "no",
    "unisex": "yes",
    "id": "way/836056419"
  },
  "geometry": {
    "type": "Polygon",
    "coordinates": [
      [
        [
          23.1920106,
          55.688538
        ],
        [
          23.1920061,
          55.6885177
        ],
        [
          23.192049,
          55.6885147
        ],
        [
          23.1920535,
          55.688535
        ],
        [
          23.1920106,
          55.688538
        ]
      ]
    ]
  }
},
{
  "type": "Feature",
  "id": "way/838281564",
  "properties": {
    "amenity": "toilets",
    "building": "yes",
    "fee": "no",
    "unisex": "yes",
    "id": "way/838281564"
  },
  "geometry": {
    "type": "Polygon",
    "coordinates": [
      [
        [
          24.0261058,
          54.4057973
        ],
        [
          24.0260267,
          54.4058184
        ],
        [
          24.0260081,
          54.4057947
        ],
        [
          24.0260873,
          54.4057737
        ],
        [
          24.0261058,
          54.4057973
        ]
      ]
    ]
  }
},
{
  "type": "Feature",
  "id": "way/838905953",
  "properties": {
    "addr:city": "Palanga",
    "addr:housenumber": "24",
    "addr:postcode": "00171",
    "addr:street": "Kontininkų g.",
    "amenity": "toilets",
    "building": "yes",
    "id": "way/838905953"
  },
  "geometry": {
    "type": "Polygon",
    "coordinates": [
      [
        [
          21.0674295,
          55.9489513
        ],
        [
          21.0674552,
          55.949007
        ],
        [
          21.0673358,
          55.9490242
        ],
        [
          21.0673101,
          55.9489685
        ],
        [
          21.0674295,
          55.9489513
        ]
      ]
    ]
  }
},
{
  "type": "Feature",
  "id": "way/864849144",
  "properties": {
    "amenity": "toilets",
    "building": "yes",
    "unisex": "yes",
    "id": "way/864849144"
  },
  "geometry": {
    "type": "Polygon",
    "coordinates": [
      [
        [
          23.045103,
          54.953124
        ],
        [
          23.045073,
          54.9530004
        ],
        [
          23.0451904,
          54.952991
        ],
        [
          23.0452016,
          54.9530375
        ],
        [
          23.0452382,
          54.9530346
        ],
        [
          23.0452569,
          54.9531117
        ],
        [
          23.045103,
          54.953124
        ]
      ]
    ]
  }
},
{
  "type": "Feature",
  "id": "way/870804307",
  "properties": {
    "amenity": "toilets",
    "indoor": "room",
    "male": "yes",
    "id": "way/870804307"
  },
  "geometry": {
    "type": "Polygon",
    "coordinates": [
      [
        [
          23.6100452,
          56.2390842
        ],
        [
          23.6100625,
          56.2390678
        ],
        [
          23.6101186,
          56.2390852
        ],
        [
          23.6101098,
          56.2390935
        ],
        [
          23.6101006,
          56.2391022
        ],
        [
          23.6100452,
          56.2390842
        ]
      ]
    ]
  }
},
{
  "type": "Feature",
  "id": "way/870804308",
  "properties": {
    "amenity": "toilets",
    "female": "yes",
    "indoor": "room",
    "id": "way/870804308"
  },
  "geometry": {
    "type": "Polygon",
    "coordinates": [
      [
        [
          23.6100625,
          56.2390678
        ],
        [
          23.6100803,
          56.2390509
        ],
        [
          23.6101357,
          56.239069
        ],
        [
          23.610127,
          56.2390772
        ],
        [
          23.6101186,
          56.2390852
        ],
        [
          23.6100625,
          56.2390678
        ]
      ]
    ]
  }
},
{
  "type": "Feature",
  "id": "way/877786255",
  "properties": {
    "amenity": "toilets",
    "building": "yes",
    "id": "way/877786255"
  },
  "geometry": {
    "type": "Polygon",
    "coordinates": [
      [
        [
          23.9783408,
          55.3082009
        ],
        [
          23.9784334,
          55.3082199
        ],
        [
          23.978393,
          55.3082839
        ],
        [
          23.9783003,
          55.308265
        ],
        [
          23.9783408,
          55.3082009
        ]
      ]
    ]
  }
},
{
  "type": "Feature",
  "id": "way/877986603",
  "properties": {
    "amenity": "toilets",
    "building": "yes",
    "id": "way/877986603"
  },
  "geometry": {
    "type": "Polygon",
    "coordinates": [
      [
        [
          23.9715787,
          55.2881607
        ],
        [
          23.9715444,
          55.2881139
        ],
        [
          23.9715875,
          55.2881036
        ],
        [
          23.9716218,
          55.2881505
        ],
        [
          23.9715787,
          55.2881607
        ]
      ]
    ]
  }
},
{
  "type": "Feature",
  "id": "way/907780801",
  "properties": {
    "amenity": "toilets",
    "building": "yes",
    "female": "yes",
    "male": "yes",
    "id": "way/907780801"
  },
  "geometry": {
    "type": "Polygon",
    "coordinates": [
      [
        [
          24.3525922,
          56.0346367
        ],
        [
          24.3525991,
          56.0346815
        ],
        [
          24.3525485,
          56.0346839
        ],
        [
          24.3525417,
          56.0346391
        ],
        [
          24.3525922,
          56.0346367
        ]
      ]
    ]
  }
},
{
  "type": "Feature",
  "id": "node/302846939",
  "properties": {
    "amenity": "toilets",
    "fee": "no",
    "id": "node/302846939"
  },
  "geometry": {
    "type": "Point",
    "coordinates": [
      23.2750883,
      55.078929
    ]
  }
},
{
  "type": "Feature",
  "id": "node/302846979",
  "properties": {
    "amenity": "toilets",
    "fee": "no",
    "id": "node/302846979"
  },
  "geometry": {
    "type": "Point",
    "coordinates": [
      23.2730435,
      55.0786543
    ]
  }
},
{
  "type": "Feature",
  "id": "node/325113057",
  "properties": {
    "addr:city": "Vilnius",
    "addr:housenumber": "18",
    "addr:street": "Lukiškių a.",
    "amenity": "toilets",
    "description": "Price 0,30 €",
    "fee": "yes",
    "wheelchair": "no",
    "id": "node/325113057"
  },
  "geometry": {
    "type": "Point",
    "coordinates": [
      25.2720224,
      54.6888562
    ]
  }
},
{
  "type": "Feature",
  "id": "node/429557692",
  "properties": {
    "amenity": "toilets",
    "fee": "no",
    "id": "node/429557692"
  },
  "geometry": {
    "type": "Point",
    "coordinates": [
      25.1233269,
      55.5142637
    ]
  }
},
{
  "type": "Feature",
  "id": "node/429566449",
  "properties": {
    "amenity": "toilets",
    "fee": "no",
    "id": "node/429566449"
  },
  "geometry": {
    "type": "Point",
    "coordinates": [
      25.13978,
      55.54504
    ]
  }
},
{
  "type": "Feature",
  "id": "node/440186444",
  "properties": {
    "amenity": "toilets",
    "fee": "yes",
    "id": "node/440186444"
  },
  "geometry": {
    "type": "Point",
    "coordinates": [
      24.6651063,
      55.6555226
    ]
  }
},
{
  "type": "Feature",
  "id": "node/461105063",
  "properties": {
    "amenity": "toilets",
    "note": "Dixi",
    "id": "node/461105063"
  },
  "geometry": {
    "type": "Point",
    "coordinates": [
      21.0687982,
      55.8441698
    ]
  }
},
{
  "type": "Feature",
  "id": "node/475280119",
  "properties": {
    "amenity": "toilets",
    "fee": "yes",
    "id": "node/475280119"
  },
  "geometry": {
    "type": "Point",
    "coordinates": [
      20.9806429,
      55.3011934
    ]
  }
},
{
  "type": "Feature",
  "id": "node/475310038",
  "properties": {
    "amenity": "toilets",
    "fee": "no",
    "id": "node/475310038"
  },
  "geometry": {
    "type": "Point",
    "coordinates": [
      21.0520718,
      55.9190001
    ]
  }
},
{
  "type": "Feature",
  "id": "node/477400411",
  "properties": {
    "amenity": "toilets",
    "id": "node/477400411"
  },
  "geometry": {
    "type": "Point",
    "coordinates": [
      25.3043465,
      54.6927294
    ]
  }
},
{
  "type": "Feature",
  "id": "node/512545563",
  "properties": {
    "amenity": "toilets",
    "fee": "yes",
    "id": "node/512545563"
  },
  "geometry": {
    "type": "Point",
    "coordinates": [
      21.0550001,
      55.9073629
    ]
  }
},
{
  "type": "Feature",
  "id": "node/664111832",
  "properties": {
    "amenity": "toilets",
    "id": "node/664111832"
  },
  "geometry": {
    "type": "Point",
    "coordinates": [
      23.9285822,
      54.8933174
    ]
  }
},
{
  "type": "Feature",
  "id": "node/752656353",
  "properties": {
    "amenity": "toilets",
    "fee": "no",
    "id": "node/752656353"
  },
  "geometry": {
    "type": "Point",
    "coordinates": [
      21.6103401,
      56.0508418
    ]
  }
},
{
  "type": "Feature",
  "id": "node/765634322",
  "properties": {
    "amenity": "toilets",
    "fee": "no",
    "id": "node/765634322"
  },
  "geometry": {
    "type": "Point",
    "coordinates": [
      21.0108678,
      55.3133564
    ]
  }
},
{
  "type": "Feature",
  "id": "node/766149023",
  "properties": {
    "amenity": "toilets",
    "fee": "no",
    "name": "Nemokamas tualetas",
    "name:de": "Behinderten-Toilette",
    "name:lt": "Nemokamas tualetas",
    "toilets:wheelchair": "yes",
    "wheelchair": "yes",
    "wheelchair:description": "Papier sollte man selbst mitbringen",
    "id": "node/766149023"
  },
  "geometry": {
    "type": "Point",
    "coordinates": [
      21.0655205,
      55.917206
    ]
  }
},
{
  "type": "Feature",
  "id": "node/772780925",
  "properties": {
    "amenity": "toilets",
    "fee": "no",
    "id": "node/772780925"
  },
  "geometry": {
    "type": "Point",
    "coordinates": [
      23.3132267,
      55.9233882
    ]
  }
},
{
  "type": "Feature",
  "id": "node/802900863",
  "properties": {
    "amenity": "toilets",
    "id": "node/802900863"
  },
  "geometry": {
    "type": "Point",
    "coordinates": [
      25.2900903,
      55.63911
    ]
  }
},
{
  "type": "Feature",
  "id": "node/802958247",
  "properties": {
    "amenity": "toilets",
    "id": "node/802958247"
  },
  "geometry": {
    "type": "Point",
    "coordinates": [
      23.9677156,
      54.8772648
    ]
  }
},
{
  "type": "Feature",
  "id": "node/805114527",
  "properties": {
    "amenity": "toilets",
    "fee": "yes",
    "id": "node/805114527"
  },
  "geometry": {
    "type": "Point",
    "coordinates": [
      23.4095839,
      56.0144671
    ]
  }
},
{
  "type": "Feature",
  "id": "node/821374297",
  "properties": {
    "amenity": "toilets",
    "id": "node/821374297"
  },
  "geometry": {
    "type": "Point",
    "coordinates": [
      21.1013705,
      55.5486867
    ]
  }
},
{
  "type": "Feature",
  "id": "node/821374329",
  "properties": {
    "amenity": "toilets",
    "id": "node/821374329"
  },
  "geometry": {
    "type": "Point",
    "coordinates": [
      21.0720272,
      55.4414657
    ]
  }
},
{
  "type": "Feature",
  "id": "node/844462592",
  "properties": {
    "amenity": "toilets",
    "id": "node/844462592"
  },
  "geometry": {
    "type": "Point",
    "coordinates": [
      25.6028278,
      55.5020928
    ]
  }
},
{
  "type": "Feature",
  "id": "node/845148722",
  "properties": {
    "amenity": "toilets",
    "fee": "no",
    "wheelchair": "no",
    "id": "node/845148722"
  },
  "geometry": {
    "type": "Point",
    "coordinates": [
      23.1946022,
      55.6564427
    ]
  }
},
{
  "type": "Feature",
  "id": "node/845148734",
  "properties": {
    "amenity": "toilets",
    "fee": "no",
    "wheelchair": "no",
    "id": "node/845148734"
  },
  "geometry": {
    "type": "Point",
    "coordinates": [
      23.1951661,
      55.6555203
    ]
  }
},
{
  "type": "Feature",
  "id": "node/864433038",
  "properties": {
    "amenity": "toilets",
    "fee": "no",
    "wheelchair": "yes",
    "id": "node/864433038"
  },
  "geometry": {
    "type": "Point",
    "coordinates": [
      25.2841338,
      54.6702028
    ]
  }
},
{
  "type": "Feature",
  "id": "node/864433056",
  "properties": {
    "amenity": "toilets",
    "fee": "yes",
    "wheelchair": "no",
    "id": "node/864433056"
  },
  "geometry": {
    "type": "Point",
    "coordinates": [
      25.2817333,
      54.6708504
    ]
  }
},
{
  "type": "Feature",
  "id": "node/874052773",
  "properties": {
    "amenity": "toilets",
    "id": "node/874052773"
  },
  "geometry": {
    "type": "Point",
    "coordinates": [
      24.5143236,
      54.6106723
    ]
  }
},
{
  "type": "Feature",
  "id": "node/886394356",
  "properties": {
    "amenity": "toilets",
    "id": "node/886394356"
  },
  "geometry": {
    "type": "Point",
    "coordinates": [
      21.0559264,
      55.9235233
    ]
  }
},
{
  "type": "Feature",
  "id": "node/886394359",
  "properties": {
    "amenity": "toilets",
    "opening_hours": "08:00-18:30",
    "id": "node/886394359"
  },
  "geometry": {
    "type": "Point",
    "coordinates": [
      21.0632008,
      55.9355437
    ]
  }
},
{
  "type": "Feature",
  "id": "node/886394423",
  "properties": {
    "amenity": "toilets",
    "id": "node/886394423"
  },
  "geometry": {
    "type": "Point",
    "coordinates": [
      21.0530595,
      55.9208742
    ]
  }
},
{
  "type": "Feature",
  "id": "node/890204866",
  "properties": {
    "amenity": "toilets",
    "fee": "no",
    "note": "Neprižiūrimas",
    "wheelchair": "no",
    "id": "node/890204866"
  },
  "geometry": {
    "type": "Point",
    "coordinates": [
      23.1342023,
      55.8659283
    ]
  }
},
{
  "type": "Feature",
  "id": "node/897175692",
  "properties": {
    "amenity": "toilets",
    "fee": "no",
    "wheelchair": "no",
    "id": "node/897175692"
  },
  "geometry": {
    "type": "Point",
    "coordinates": [
      23.1713546,
      55.8651409
    ]
  }
},
{
  "type": "Feature",
  "id": "node/976164602",
  "properties": {
    "amenity": "toilets",
    "id": "node/976164602"
  },
  "geometry": {
    "type": "Point",
    "coordinates": [
      21.1942635,
      55.3449274
    ]
  }
},
{
  "type": "Feature",
  "id": "node/979517597",
  "properties": {
    "amenity": "toilets",
    "fee": "no",
    "wheelchair": "yes",
    "id": "node/979517597"
  },
  "geometry": {
    "type": "Point",
    "coordinates": [
      25.2846275,
      54.6703833
    ]
  }
},
{
  "type": "Feature",
  "id": "node/1102958550",
  "properties": {
    "access": "yes",
    "amenity": "toilets",
    "changing_table": "no",
    "ele": "1",
    "fee": "no",
    "operator": "Rimi",
    "toilets:access": "public",
    "toilets:disposal": "flush",
    "toilets:wheelchair": "yes",
    "unisex": "yes",
    "wheelchair": "yes",
    "id": "node/1102958550"
  },
  "geometry": {
    "type": "Point",
    "coordinates": [
      25.2580581,
      54.6756249
    ]
  }
},
{
  "type": "Feature",
  "id": "node/1108388253",
  "properties": {
    "amenity": "toilets",
    "fee": "no",
    "id": "node/1108388253"
  },
  "geometry": {
    "type": "Point",
    "coordinates": [
      25.228705,
      54.7408759
    ]
  }
},
{
  "type": "Feature",
  "id": "node/1239256805",
  "properties": {
    "amenity": "toilets",
    "source": "GPS",
    "id": "node/1239256805"
  },
  "geometry": {
    "type": "Point",
    "coordinates": [
      24.2448591,
      54.8246384
    ]
  }
},
{
  "type": "Feature",
  "id": "node/1286543999",
  "properties": {
    "amenity": "toilets",
    "fee": "no",
    "id": "node/1286543999"
  },
  "geometry": {
    "type": "Point",
    "coordinates": [
      24.9624891,
      54.6474068
    ]
  }
},
{
  "type": "Feature",
  "id": "node/1309524684",
  "properties": {
    "amenity": "toilets",
    "fee": "yes",
    "id": "node/1309524684"
  },
  "geometry": {
    "type": "Point",
    "coordinates": [
      23.3314186,
      55.9093218
    ]
  }
},
{
  "type": "Feature",
  "id": "node/1329502614",
  "properties": {
    "amenity": "toilets",
    "fee": "no",
    "wheelchair": "no",
    "id": "node/1329502614"
  },
  "geometry": {
    "type": "Point",
    "coordinates": [
      23.9142457,
      55.3373125
    ]
  }
},
{
  "type": "Feature",
  "id": "node/1333738593",
  "properties": {
    "amenity": "toilets",
    "id": "node/1333738593"
  },
  "geometry": {
    "type": "Point",
    "coordinates": [
      25.2204238,
      54.7353266
    ]
  }
},
{
  "type": "Feature",
  "id": "node/1365495472",
  "properties": {
    "amenity": "toilets",
    "id": "node/1365495472"
  },
  "geometry": {
    "type": "Point",
    "coordinates": [
      23.3451371,
      55.8760631
    ]
  }
},
{
  "type": "Feature",
  "id": "node/1388225693",
  "properties": {
    "amenity": "toilets",
    "id": "node/1388225693"
  },
  "geometry": {
    "type": "Point",
    "coordinates": [
      21.052269,
      55.9074324
    ]
  }
},
{
  "type": "Feature",
  "id": "node/1388907205",
  "properties": {
    "amenity": "toilets",
    "id": "node/1388907205"
  },
  "geometry": {
    "type": "Point",
    "coordinates": [
      24.9302561,
      54.6492557
    ]
  }
},
{
  "type": "Feature",
  "id": "node/1403336837",
  "properties": {
    "amenity": "toilets",
    "id": "node/1403336837"
  },
  "geometry": {
    "type": "Point",
    "coordinates": [
      25.280183,
      54.6867479
    ]
  }
},
{
  "type": "Feature",
  "id": "node/1403336867",
  "properties": {
    "amenity": "toilets",
    "fee": "no",
    "id": "node/1403336867"
  },
  "geometry": {
    "type": "Point",
    "coordinates": [
      25.2815462,
      54.6875387
    ]
  }
},
{
  "type": "Feature",
  "id": "node/1422113864",
  "properties": {
    "amenity": "toilets",
    "id": "node/1422113864"
  },
  "geometry": {
    "type": "Point",
    "coordinates": [
      26.0637307,
      55.3117998
    ]
  }
},
{
  "type": "Feature",
  "id": "node/1422404175",
  "properties": {
    "amenity": "toilets",
    "id": "node/1422404175"
  },
  "geometry": {
    "type": "Point",
    "coordinates": [
      26.1061297,
      55.3315977
    ]
  }
},
{
  "type": "Feature",
  "id": "node/1428733299",
  "properties": {
    "amenity": "toilets",
    "source": "paid toilet, 1Lt",
    "id": "node/1428733299"
  },
  "geometry": {
    "type": "Point",
    "coordinates": [
      25.2817778,
      54.6707311
    ]
  }
},
{
  "type": "Feature",
  "id": "node/1432031220",
  "properties": {
    "amenity": "toilets",
    "level": "-1",
    "id": "node/1432031220"
  },
  "geometry": {
    "type": "Point",
    "coordinates": [
      25.2771059,
      54.6730829
    ]
  }
},
{
  "type": "Feature",
  "id": "node/1444962706",
  "properties": {
    "amenity": "toilets",
    "id": "node/1444962706"
  },
  "geometry": {
    "type": "Point",
    "coordinates": [
      21.2420997,
      55.8909398
    ]
  }
},
{
  "type": "Feature",
  "id": "node/1464268252",
  "properties": {
    "amenity": "toilets",
    "fee": "yes",
    "id": "node/1464268252"
  },
  "geometry": {
    "type": "Point",
    "coordinates": [
      25.2786097,
      54.6875142
    ]
  }
},
{
  "type": "Feature",
  "id": "node/1472102379",
  "properties": {
    "amenity": "toilets",
    "internet_access": "no",
    "name": "Stovyklavietė prie Almajo",
    "tourism": "camp_site",
    "water": "no",
    "id": "node/1472102379"
  },
  "geometry": {
    "type": "Point",
    "coordinates": [
      25.9866108,
      55.3902432
    ]
  }
},
{
  "type": "Feature",
  "id": "node/1580773684",
  "properties": {
    "amenity": "toilets",
    "wheelchair": "yes",
    "id": "node/1580773684"
  },
  "geometry": {
    "type": "Point",
    "coordinates": [
      23.2965272,
      55.9369693
    ]
  }
},
{
  "type": "Feature",
  "id": "node/1685661459",
  "properties": {
    "amenity": "toilets",
    "name": "Viešasis tualetas",
    "toilets": "outhouse",
    "id": "node/1685661459"
  },
  "geometry": {
    "type": "Point",
    "coordinates": [
      26.2301346,
      55.7344682
    ]
  }
},
{
  "type": "Feature",
  "id": "node/1701291371",
  "properties": {
    "amenity": "toilets",
    "id": "node/1701291371"
  },
  "geometry": {
    "type": "Point",
    "coordinates": [
      24.8980592,
      55.3732365
    ]
  }
},
{
  "type": "Feature",
  "id": "node/1715899675",
  "properties": {
    "amenity": "toilets",
    "id": "node/1715899675"
  },
  "geometry": {
    "type": "Point",
    "coordinates": [
      24.6823286,
      55.6772713
    ]
  }
},
{
  "type": "Feature",
  "id": "node/1815819599",
  "properties": {
    "amenity": "toilets",
    "id": "node/1815819599"
  },
  "geometry": {
    "type": "Point",
    "coordinates": [
      23.3934061,
      55.8779317
    ]
  }
},
{
  "type": "Feature",
  "id": "node/1834391990",
  "properties": {
    "amenity": "toilets",
    "id": "node/1834391990"
  },
  "geometry": {
    "type": "Point",
    "coordinates": [
      23.6688766,
      54.0730017
    ]
  }
},
{
  "type": "Feature",
  "id": "node/1834720076",
  "properties": {
    "amenity": "toilets",
    "id": "node/1834720076"
  },
  "geometry": {
    "type": "Point",
    "coordinates": [
      25.1925551,
      55.8934482
    ]
  }
},
{
  "type": "Feature",
  "id": "node/1852617297",
  "properties": {
    "amenity": "toilets",
    "id": "node/1852617297"
  },
  "geometry": {
    "type": "Point",
    "coordinates": [
      23.854776,
      54.8663469
    ]
  }
},
{
  "type": "Feature",
  "id": "node/1874334284",
  "properties": {
    "amenity": "toilets",
    "fee": "yes",
    "wheelchair": "yes",
    "id": "node/1874334284"
  },
  "geometry": {
    "type": "Point",
    "coordinates": [
      21.1297236,
      55.7076809
    ]
  }
},
{
  "type": "Feature",
  "id": "node/1894410885",
  "properties": {
    "access": "yes",
    "amenity": "toilets",
    "fee": "no",
    "level": "0",
    "wheelchair": "yes",
    "id": "node/1894410885"
  },
  "geometry": {
    "type": "Point",
    "coordinates": [
      21.1018629,
      55.7171555
    ]
  }
},
{
  "type": "Feature",
  "id": "node/1901083304",
  "properties": {
    "amenity": "toilets",
    "fee": "no",
    "source": "survey",
    "unisex": "yes",
    "id": "node/1901083304"
  },
  "geometry": {
    "type": "Point",
    "coordinates": [
      23.9916158,
      54.6134969
    ]
  }
},
{
  "type": "Feature",
  "id": "node/1924272599",
  "properties": {
    "amenity": "toilets",
    "fee": "no",
    "id": "node/1924272599"
  },
  "geometry": {
    "type": "Point",
    "coordinates": [
      24.3976771,
      56.056848
    ]
  }
},
{
  "type": "Feature",
  "id": "node/2101734117",
  "properties": {
    "amenity": "toilets",
    "id": "node/2101734117"
  },
  "geometry": {
    "type": "Point",
    "coordinates": [
      21.2281954,
      55.3822377
    ]
  }
},
{
  "type": "Feature",
  "id": "node/2122287169",
  "properties": {
    "amenity": "toilets",
    "id": "node/2122287169"
  },
  "geometry": {
    "type": "Point",
    "coordinates": [
      24.9513194,
      54.8333925
    ]
  }
},
{
  "type": "Feature",
  "id": "node/2159958130",
  "properties": {
    "amenity": "toilets",
    "id": "node/2159958130"
  },
  "geometry": {
    "type": "Point",
    "coordinates": [
      24.9716631,
      54.8038507
    ]
  }
},
{
  "type": "Feature",
  "id": "node/2210947591",
  "properties": {
    "amenity": "toilets",
    "id": "node/2210947591"
  },
  "geometry": {
    "type": "Point",
    "coordinates": [
      24.8296854,
      54.8875286
    ]
  }
},
{
  "type": "Feature",
  "id": "node/2284382643",
  "properties": {
    "amenity": "toilets",
    "id": "node/2284382643"
  },
  "geometry": {
    "type": "Point",
    "coordinates": [
      23.1511004,
      54.6152846
    ]
  }
},
{
  "type": "Feature",
  "id": "node/2301325867",
  "properties": {
    "amenity": "toilets",
    "id": "node/2301325867"
  },
  "geometry": {
    "type": "Point",
    "coordinates": [
      23.0076346,
      54.639066
    ]
  }
},
{
  "type": "Feature",
  "id": "node/2301875893",
  "properties": {
    "amenity": "toilets",
    "fee": "yes",
    "wheelchair": "yes",
    "id": "node/2301875893"
  },
  "geometry": {
    "type": "Point",
    "coordinates": [
      21.1360767,
      55.7152653
    ]
  }
},
{
  "type": "Feature",
  "id": "node/2321096774",
  "properties": {
    "amenity": "toilets",
    "changing_table": "no",
    "fee": "no",
    "wheelchair": "no",
    "id": "node/2321096774"
  },
  "geometry": {
    "type": "Point",
    "coordinates": [
      25.2355502,
      54.6849581
    ]
  }
},
{
  "type": "Feature",
  "id": "node/2338606941",
  "properties": {
    "amenity": "toilets",
    "id": "node/2338606941"
  },
  "geometry": {
    "type": "Point",
    "coordinates": [
      26.0021084,
      55.2498777
    ]
  }
},
{
  "type": "Feature",
  "id": "node/2360186098",
  "properties": {
    "amenity": "toilets",
    "source": "survey",
    "id": "node/2360186098"
  },
  "geometry": {
    "type": "Point",
    "coordinates": [
      26.0536986,
      55.2750384
    ]
  }
},
{
  "type": "Feature",
  "id": "node/2366409693",
  "properties": {
    "amenity": "toilets",
    "id": "node/2366409693"
  },
  "geometry": {
    "type": "Point",
    "coordinates": [
      24.1813154,
      54.1581656
    ]
  }
},
{
  "type": "Feature",
  "id": "node/2412443674",
  "properties": {
    "amenity": "toilets",
    "id": "node/2412443674"
  },
  "geometry": {
    "type": "Point",
    "coordinates": [
      21.5642736,
      56.1523463
    ]
  }
},
{
  "type": "Feature",
  "id": "node/2430068231",
  "properties": {
    "amenity": "toilets",
    "fee": "no",
    "level": "1",
    "id": "node/2430068231"
  },
  "geometry": {
    "type": "Point",
    "coordinates": [
      25.187774,
      54.7098639
    ]
  }
},
{
  "type": "Feature",
  "id": "node/2434330517",
  "properties": {
    "amenity": "toilets",
    "id": "node/2434330517"
  },
  "geometry": {
    "type": "Point",
    "coordinates": [
      23.3624351,
      55.9099643
    ]
  }
},
{
  "type": "Feature",
  "id": "node/2464402307",
  "properties": {
    "amenity": "toilets",
    "id": "node/2464402307"
  },
  "geometry": {
    "type": "Point",
    "coordinates": [
      23.2970894,
      55.9221316
    ]
  }
},
{
  "type": "Feature",
  "id": "node/2476265189",
  "properties": {
    "addr:city": "Klaipėda",
    "addr:housenumber": "4",
    "addr:street": "Stovyklos g.",
    "amenity": "toilets",
    "id": "node/2476265189"
  },
  "geometry": {
    "type": "Point",
    "coordinates": [
      21.0806551,
      55.7660669
    ]
  }
},
{
  "type": "Feature",
  "id": "node/2501842224",
  "properties": {
    "amenity": "toilets",
    "id": "node/2501842224"
  },
  "geometry": {
    "type": "Point",
    "coordinates": [
      22.9852194,
      55.0995375
    ]
  }
},
{
  "type": "Feature",
  "id": "node/2535653662",
  "properties": {
    "amenity": "toilets",
    "fee": "yes",
    "wheelchair": "yes",
    "id": "node/2535653662"
  },
  "geometry": {
    "type": "Point",
    "coordinates": [
      23.8873609,
      54.897199
    ]
  }
},
{
  "type": "Feature",
  "id": "node/2579910814",
  "properties": {
    "amenity": "toilets",
    "id": "node/2579910814"
  },
  "geometry": {
    "type": "Point",
    "coordinates": [
      23.6550062,
      54.3134489
    ]
  }
},
{
  "type": "Feature",
  "id": "node/2579917121",
  "properties": {
    "amenity": "toilets",
    "id": "node/2579917121"
  },
  "geometry": {
    "type": "Point",
    "coordinates": [
      24.5312967,
      54.2154941
    ]
  }
},
{
  "type": "Feature",
  "id": "node/2580586915",
  "properties": {
    "amenity": "toilets",
    "id": "node/2580586915"
  },
  "geometry": {
    "type": "Point",
    "coordinates": [
      24.3975771,
      54.0613073
    ]
  }
},
{
  "type": "Feature",
  "id": "node/2590668298",
  "properties": {
    "amenity": "toilets",
    "id": "node/2590668298"
  },
  "geometry": {
    "type": "Point",
    "coordinates": [
      25.9451176,
      55.1050797
    ]
  }
},
{
  "type": "Feature",
  "id": "node/2600356424",
  "properties": {
    "amenity": "toilets",
    "fee": "yes",
    "id": "node/2600356424"
  },
  "geometry": {
    "type": "Point",
    "coordinates": [
      22.2532965,
      55.983693
    ]
  }
},
{
  "type": "Feature",
  "id": "node/2610095448",
  "properties": {
    "amenity": "toilets",
    "id": "node/2610095448"
  },
  "geometry": {
    "type": "Point",
    "coordinates": [
      23.2753575,
      55.956942
    ]
  }
},
{
  "type": "Feature",
  "id": "node/2702316813",
  "properties": {
    "amenity": "toilets",
    "id": "node/2702316813"
  },
  "geometry": {
    "type": "Point",
    "coordinates": [
      21.0731585,
      55.9789443
    ]
  }
},
{
  "type": "Feature",
  "id": "node/2822365799",
  "properties": {
    "access": "public",
    "amenity": "toilets",
    "id": "node/2822365799"
  },
  "geometry": {
    "type": "Point",
    "coordinates": [
      21.9065315,
      55.758933
    ]
  }
},
{
  "type": "Feature",
  "id": "node/2837519167",
  "properties": {
    "access": "yes",
    "amenity": "toilets",
    "toilets:disposal": "chemical",
    "wheelchair": "yes",
    "id": "node/2837519167"
  },
  "geometry": {
    "type": "Point",
    "coordinates": [
      20.9862251,
      55.2953554
    ]
  }
},
{
  "type": "Feature",
  "id": "node/2837533332",
  "properties": {
    "amenity": "toilets",
    "id": "node/2837533332"
  },
  "geometry": {
    "type": "Point",
    "coordinates": [
      20.9774065,
      55.3026481
    ]
  }
},
{
  "type": "Feature",
  "id": "node/2837616203",
  "properties": {
    "amenity": "toilets",
    "fee": "no",
    "id": "node/2837616203"
  },
  "geometry": {
    "type": "Point",
    "coordinates": [
      20.9986775,
      55.3025516
    ]
  }
},
{
  "type": "Feature",
  "id": "node/2854764625",
  "properties": {
    "amenity": "toilets",
    "id": "node/2854764625"
  },
  "geometry": {
    "type": "Point",
    "coordinates": [
      21.1394008,
      55.688614
    ]
  }
},
{
  "type": "Feature",
  "id": "node/2878458723",
  "properties": {
    "amenity": "toilets",
    "id": "node/2878458723"
  },
  "geometry": {
    "type": "Point",
    "coordinates": [
      24.3614675,
      55.7375702
    ]
  }
},
{
  "type": "Feature",
  "id": "node/2917367579",
  "properties": {
    "amenity": "toilets",
    "id": "node/2917367579"
  },
  "geometry": {
    "type": "Point",
    "coordinates": [
      26.4453889,
      55.5225702
    ]
  }
},
{
  "type": "Feature",
  "id": "node/2928085986",
  "properties": {
    "access": "public",
    "amenity": "toilets",
    "drinking_water": "no",
    "fee": "no",
    "toilets:disposal": "pitlatrine",
    "id": "node/2928085986"
  },
  "geometry": {
    "type": "Point",
    "coordinates": [
      22.1226604,
      56.1757151
    ]
  }
},
{
  "type": "Feature",
  "id": "node/2928883536",
  "properties": {
    "amenity": "toilets",
    "id": "node/2928883536"
  },
  "geometry": {
    "type": "Point",
    "coordinates": [
      23.4072859,
      55.079374
    ]
  }
},
{
  "type": "Feature",
  "id": "node/2946818677",
  "properties": {
    "access": "public",
    "amenity": "toilets",
    "fee": "no",
    "id": "node/2946818677"
  },
  "geometry": {
    "type": "Point",
    "coordinates": [
      22.5534798,
      55.87371
    ]
  }
},
{
  "type": "Feature",
  "id": "node/2952222038",
  "properties": {
    "amenity": "toilets",
    "fee": "no",
    "id": "node/2952222038"
  },
  "geometry": {
    "type": "Point",
    "coordinates": [
      22.3841177,
      55.6290384
    ]
  }
},
{
  "type": "Feature",
  "id": "node/2964487333",
  "properties": {
    "amenity": "toilets",
    "id": "node/2964487333"
  },
  "geometry": {
    "type": "Point",
    "coordinates": [
      21.0567244,
      55.9284262
    ]
  }
},
{
  "type": "Feature",
  "id": "node/2975287369",
  "properties": {
    "amenity": "toilets",
    "id": "node/2975287369"
  },
  "geometry": {
    "type": "Point",
    "coordinates": [
      22.6694571,
      55.6040165
    ]
  }
},
{
  "type": "Feature",
  "id": "node/2983702504",
  "properties": {
    "amenity": "toilets",
    "id": "node/2983702504"
  },
  "geometry": {
    "type": "Point",
    "coordinates": [
      25.4288025,
      55.2333733
    ]
  }
},
{
  "type": "Feature",
  "id": "node/3011386512",
  "properties": {
    "access": "public",
    "amenity": "toilets",
    "fee": "no",
    "toilets:disposal": "pitlatrine",
    "unisex": "yes",
    "id": "node/3011386512"
  },
  "geometry": {
    "type": "Point",
    "coordinates": [
      23.1970654,
      54.6281273
    ]
  }
},
{
  "type": "Feature",
  "id": "node/3035531976",
  "properties": {
    "access": "yes",
    "amenity": "toilets",
    "id": "node/3035531976"
  },
  "geometry": {
    "type": "Point",
    "coordinates": [
      22.1825325,
      55.4916365
    ]
  }
},
{
  "type": "Feature",
  "id": "node/3043239594",
  "properties": {
    "amenity": "toilets",
    "id": "node/3043239594"
  },
  "geometry": {
    "type": "Point",
    "coordinates": [
      21.3740162,
      55.2994505
    ]
  }
},
{
  "type": "Feature",
  "id": "node/3047397395",
  "properties": {
    "access": "public",
    "amenity": "toilets",
    "toilets:disposal": "chemical",
    "id": "node/3047397395"
  },
  "geometry": {
    "type": "Point",
    "coordinates": [
      22.1908241,
      55.4943779
    ]
  }
},
{
  "type": "Feature",
  "id": "node/3047421404",
  "properties": {
    "amenity": "toilets",
    "id": "node/3047421404"
  },
  "geometry": {
    "type": "Point",
    "coordinates": [
      22.1896782,
      55.4958299
    ]
  }
},
{
  "type": "Feature",
  "id": "node/3047421405",
  "properties": {
    "amenity": "toilets",
    "id": "node/3047421405"
  },
  "geometry": {
    "type": "Point",
    "coordinates": [
      22.1944343,
      55.4969224
    ]
  }
},
{
  "type": "Feature",
  "id": "node/3053034303",
  "properties": {
    "access": "private",
    "amenity": "toilets",
    "id": "node/3053034303"
  },
  "geometry": {
    "type": "Point",
    "coordinates": [
      25.2836461,
      54.6918023
    ]
  }
},
{
  "type": "Feature",
  "id": "node/3079755533",
  "properties": {
    "amenity": "toilets",
    "id": "node/3079755533"
  },
  "geometry": {
    "type": "Point",
    "coordinates": [
      23.9319142,
      54.8969279
    ]
  }
},
{
  "type": "Feature",
  "id": "node/3116209463",
  "properties": {
    "amenity": "toilets",
    "id": "node/3116209463"
  },
  "geometry": {
    "type": "Point",
    "coordinates": [
      21.8711943,
      56.1607449
    ]
  }
},
{
  "type": "Feature",
  "id": "node/3139793797",
  "properties": {
    "access": "public",
    "amenity": "toilets",
    "drinking_water": "no",
    "fee": "no",
    "toilets:position": "seated;urinal",
    "wheelchair": "no",
    "id": "node/3139793797"
  },
  "geometry": {
    "type": "Point",
    "coordinates": [
      24.1791163,
      54.8147605
    ]
  }
},
{
  "type": "Feature",
  "id": "node/3236839915",
  "properties": {
    "amenity": "toilets",
    "id": "node/3236839915"
  },
  "geometry": {
    "type": "Point",
    "coordinates": [
      21.9038768,
      55.755791
    ]
  }
},
{
  "type": "Feature",
  "id": "node/3238450914",
  "properties": {
    "access": "customers",
    "amenity": "toilets",
    "id": "node/3238450914"
  },
  "geometry": {
    "type": "Point",
    "coordinates": [
      25.6489312,
      54.5390279
    ]
  }
},
{
  "type": "Feature",
  "id": "node/3280969422",
  "properties": {
    "access": "public",
    "amenity": "toilets",
    "id": "node/3280969422"
  },
  "geometry": {
    "type": "Point",
    "coordinates": [
      25.1604695,
      54.661447
    ]
  }
},
{
  "type": "Feature",
  "id": "node/3281436403",
  "properties": {
    "access": "public",
    "amenity": "toilets",
    "toilets:disposal": "pitlatrine",
    "id": "node/3281436403"
  },
  "geometry": {
    "type": "Point",
    "coordinates": [
      22.992419,
      54.6527063
    ]
  }
},
{
  "type": "Feature",
  "id": "node/3469062145",
  "properties": {
    "amenity": "toilets",
    "id": "node/3469062145"
  },
  "geometry": {
    "type": "Point",
    "coordinates": [
      22.2856334,
      55.2382004
    ]
  }
},
{
  "type": "Feature",
  "id": "node/3477660420",
  "properties": {
    "access": "yes",
    "amenity": "toilets",
    "toilets:disposal": "pitlatrine",
    "id": "node/3477660420"
  },
  "geometry": {
    "type": "Point",
    "coordinates": [
      22.8083175,
      54.3845922
    ]
  }
},
{
  "type": "Feature",
  "id": "node/3503964176",
  "properties": {
    "access": "yes",
    "amenity": "toilets",
    "fee": "no",
    "opening_hours": "10:00-17:00",
    "id": "node/3503964176"
  },
  "geometry": {
    "type": "Point",
    "coordinates": [
      21.0060714,
      55.3049022
    ]
  }
},
{
  "type": "Feature",
  "id": "node/3511103629",
  "properties": {
    "access": "public",
    "amenity": "toilets",
    "id": "node/3511103629"
  },
  "geometry": {
    "type": "Point",
    "coordinates": [
      24.203357,
      54.1661544
    ]
  }
},
{
  "type": "Feature",
  "id": "node/3516734202",
  "properties": {
    "amenity": "toilets",
    "id": "node/3516734202"
  },
  "geometry": {
    "type": "Point",
    "coordinates": [
      22.5364921,
      55.612615
    ]
  }
},
{
  "type": "Feature",
  "id": "node/3529930199",
  "properties": {
    "amenity": "toilets",
    "id": "node/3529930199"
  },
  "geometry": {
    "type": "Point",
    "coordinates": [
      20.9943281,
      55.3232747
    ]
  }
},
{
  "type": "Feature",
  "id": "node/3542060392",
  "properties": {
    "access": "yes",
    "amenity": "toilets",
    "fee": "no",
    "toilets:paper_supplied": "yes",
    "unisex": "yes",
    "id": "node/3542060392"
  },
  "geometry": {
    "type": "Point",
    "coordinates": [
      23.2628615,
      56.2199897
    ]
  }
},
{
  "type": "Feature",
  "id": "node/3568366993",
  "properties": {
    "amenity": "toilets",
    "id": "node/3568366993"
  },
  "geometry": {
    "type": "Point",
    "coordinates": [
      23.9691605,
      54.6258914
    ]
  }
},
{
  "type": "Feature",
  "id": "node/3582054822",
  "properties": {
    "amenity": "toilets",
    "id": "node/3582054822"
  },
  "geometry": {
    "type": "Point",
    "coordinates": [
      21.0856316,
      56.0303238
    ]
  }
},
{
  "type": "Feature",
  "id": "node/3583177144",
  "properties": {
    "amenity": "toilets",
    "id": "node/3583177144"
  },
  "geometry": {
    "type": "Point",
    "coordinates": [
      21.0750248,
      56.0204399
    ]
  }
},
{
  "type": "Feature",
  "id": "node/3587696456",
  "properties": {
    "amenity": "toilets",
    "id": "node/3587696456"
  },
  "geometry": {
    "type": "Point",
    "coordinates": [
      22.6856575,
      55.6048864
    ]
  }
},
{
  "type": "Feature",
  "id": "node/3602290389",
  "properties": {
    "amenity": "toilets",
    "toilets:access": "public",
    "toilets:disposal": "pitlatrine",
    "id": "node/3602290389"
  },
  "geometry": {
    "type": "Point",
    "coordinates": [
      25.1007843,
      54.7086257
    ]
  }
},
{
  "type": "Feature",
  "id": "node/3626551760",
  "properties": {
    "amenity": "toilets",
    "id": "node/3626551760"
  },
  "geometry": {
    "type": "Point",
    "coordinates": [
      21.0742675,
      56.0263653
    ]
  }
},
{
  "type": "Feature",
  "id": "node/3627641216",
  "properties": {
    "amenity": "toilets",
    "id": "node/3627641216"
  },
  "geometry": {
    "type": "Point",
    "coordinates": [
      21.0523259,
      55.9171378
    ]
  }
},
{
  "type": "Feature",
  "id": "node/3635220419",
  "properties": {
    "amenity": "toilets",
    "id": "node/3635220419"
  },
  "geometry": {
    "type": "Point",
    "coordinates": [
      21.9006119,
      55.7554629
    ]
  }
},
{
  "type": "Feature",
  "id": "node/3636945715",
  "properties": {
    "access": "public",
    "amenity": "toilets",
    "toilets:disposal": "pitlatrine",
    "id": "node/3636945715"
  },
  "geometry": {
    "type": "Point",
    "coordinates": [
      23.0095623,
      54.7503164
    ]
  }
},
{
  "type": "Feature",
  "id": "node/3639121607",
  "properties": {
    "access": "yes",
    "amenity": "toilets",
    "toilets:disposal": "pitlatrine",
    "id": "node/3639121607"
  },
  "geometry": {
    "type": "Point",
    "coordinates": [
      23.0087846,
      54.648519
    ]
  }
},
{
  "type": "Feature",
  "id": "node/3642480420",
  "properties": {
    "access": "public",
    "amenity": "toilets",
    "fee": "no",
    "toilets:disposal": "pitlatrine",
    "unisex": "yes",
    "id": "node/3642480420"
  },
  "geometry": {
    "type": "Point",
    "coordinates": [
      22.8758033,
      54.6299594
    ]
  }
},
{
  "type": "Feature",
  "id": "node/3651997085",
  "properties": {
    "amenity": "toilets",
    "id": "node/3651997085"
  },
  "geometry": {
    "type": "Point",
    "coordinates": [
      25.2878538,
      54.6827598
    ]
  }
},
{
  "type": "Feature",
  "id": "node/3670547021",
  "properties": {
    "amenity": "toilets",
    "id": "node/3670547021"
  },
  "geometry": {
    "type": "Point",
    "coordinates": [
      25.0585457,
      55.4834116
    ]
  }
},
{
  "type": "Feature",
  "id": "node/3687329957",
  "properties": {
    "access": "yes",
    "amenity": "toilets",
    "id": "node/3687329957"
  },
  "geometry": {
    "type": "Point",
    "coordinates": [
      21.3115834,
      56.0053222
    ]
  }
},
{
  "type": "Feature",
  "id": "node/3688599648",
  "properties": {
    "amenity": "toilets",
    "id": "node/3688599648"
  },
  "geometry": {
    "type": "Point",
    "coordinates": [
      23.2218369,
      55.5881887
    ]
  }
},
{
  "type": "Feature",
  "id": "node/3696406859",
  "properties": {
    "amenity": "toilets",
    "wheelchair": "limited",
    "id": "node/3696406859"
  },
  "geometry": {
    "type": "Point",
    "coordinates": [
      24.0293877,
      54.6049389
    ]
  }
},
{
  "type": "Feature",
  "id": "node/3701745159",
  "properties": {
    "amenity": "toilets",
    "id": "node/3701745159"
  },
  "geometry": {
    "type": "Point",
    "coordinates": [
      21.0824651,
      55.765449
    ]
  }
},
{
  "type": "Feature",
  "id": "node/3713464374",
  "properties": {
    "amenity": "toilets",
    "id": "node/3713464374"
  },
  "geometry": {
    "type": "Point",
    "coordinates": [
      22.3230656,
      56.3080196
    ]
  }
},
{
  "type": "Feature",
  "id": "node/3713466089",
  "properties": {
    "amenity": "toilets",
    "id": "node/3713466089"
  },
  "geometry": {
    "type": "Point",
    "coordinates": [
      22.3483396,
      56.3106114
    ]
  }
},
{
  "type": "Feature",
  "id": "node/3713466299",
  "properties": {
    "amenity": "toilets",
    "id": "node/3713466299"
  },
  "geometry": {
    "type": "Point",
    "coordinates": [
      22.3510401,
      56.3170219
    ]
  }
},
{
  "type": "Feature",
  "id": "node/3715947475",
  "properties": {
    "amenity": "toilets",
    "id": "node/3715947475"
  },
  "geometry": {
    "type": "Point",
    "coordinates": [
      22.3388932,
      56.2940852
    ]
  }
},
{
  "type": "Feature",
  "id": "node/3721467324",
  "properties": {
    "amenity": "toilets",
    "id": "node/3721467324"
  },
  "geometry": {
    "type": "Point",
    "coordinates": [
      22.2987956,
      56.2604073
    ]
  }
},
{
  "type": "Feature",
  "id": "node/3721468025",
  "properties": {
    "amenity": "toilets",
    "id": "node/3721468025"
  },
  "geometry": {
    "type": "Point",
    "coordinates": [
      22.2977388,
      56.2617063
    ]
  }
},
{
  "type": "Feature",
  "id": "node/3741537479",
  "properties": {
    "amenity": "toilets",
    "id": "node/3741537479"
  },
  "geometry": {
    "type": "Point",
    "coordinates": [
      22.0915262,
      56.1648946
    ]
  }
},
{
  "type": "Feature",
  "id": "node/3751976778",
  "properties": {
    "amenity": "toilets",
    "id": "node/3751976778"
  },
  "geometry": {
    "type": "Point",
    "coordinates": [
      26.000237,
      55.4367441
    ]
  }
},
{
  "type": "Feature",
  "id": "node/3754841621",
  "properties": {
    "amenity": "toilets",
    "id": "node/3754841621"
  },
  "geometry": {
    "type": "Point",
    "coordinates": [
      23.740734,
      54.2835894
    ]
  }
},
{
  "type": "Feature",
  "id": "node/3754920141",
  "properties": {
    "amenity": "toilets",
    "id": "node/3754920141"
  },
  "geometry": {
    "type": "Point",
    "coordinates": [
      23.7419004,
      54.282194
    ]
  }
},
{
  "type": "Feature",
  "id": "node/3755667634",
  "properties": {
    "amenity": "toilets",
    "id": "node/3755667634"
  },
  "geometry": {
    "type": "Point",
    "coordinates": [
      21.1183477,
      55.5383691
    ]
  }
},
{
  "type": "Feature",
  "id": "node/3789160510",
  "properties": {
    "access": "public",
    "amenity": "toilets",
    "fee": "no",
    "id": "node/3789160510"
  },
  "geometry": {
    "type": "Point",
    "coordinates": [
      23.3541805,
      55.9683934
    ]
  }
},
{
  "type": "Feature",
  "id": "node/3813769748",
  "properties": {
    "amenity": "toilets",
    "fee": "yes",
    "id": "node/3813769748"
  },
  "geometry": {
    "type": "Point",
    "coordinates": [
      22.6904263,
      55.4690608
    ]
  }
},
{
  "type": "Feature",
  "id": "node/3909639764",
  "properties": {
    "access": "public",
    "amenity": "toilets",
    "id": "node/3909639764"
  },
  "geometry": {
    "type": "Point",
    "coordinates": [
      23.3486751,
      54.5569273
    ]
  }
},
{
  "type": "Feature",
  "id": "node/3956643871",
  "properties": {
    "amenity": "toilets",
    "id": "node/3956643871"
  },
  "geometry": {
    "type": "Point",
    "coordinates": [
      25.3070126,
      54.655546
    ]
  }
},
{
  "type": "Feature",
  "id": "node/4029511391",
  "properties": {
    "amenity": "toilets",
    "id": "node/4029511391"
  },
  "geometry": {
    "type": "Point",
    "coordinates": [
      22.3387823,
      56.3102487
    ]
  }
},
{
  "type": "Feature",
  "id": "node/4036138071",
  "properties": {
    "access": "yes",
    "amenity": "toilets",
    "id": "node/4036138071"
  },
  "geometry": {
    "type": "Point",
    "coordinates": [
      25.7984197,
      55.9406245
    ]
  }
},
{
  "type": "Feature",
  "id": "node/4036138072",
  "properties": {
    "access": "yes",
    "amenity": "toilets",
    "id": "node/4036138072"
  },
  "geometry": {
    "type": "Point",
    "coordinates": [
      25.7937191,
      55.9421567
    ]
  }
},
{
  "type": "Feature",
  "id": "node/4036138073",
  "properties": {
    "access": "yes",
    "amenity": "toilets",
    "id": "node/4036138073"
  },
  "geometry": {
    "type": "Point",
    "coordinates": [
      25.792893,
      55.9423865
    ]
  }
},
{
  "type": "Feature",
  "id": "node/4036620607",
  "properties": {
    "access": "yes",
    "amenity": "toilets",
    "id": "node/4036620607"
  },
  "geometry": {
    "type": "Point",
    "coordinates": [
      25.6837418,
      55.5850965
    ]
  }
},
{
  "type": "Feature",
  "id": "node/4071172720",
  "properties": {
    "access": "public",
    "amenity": "toilets",
    "fee": "no",
    "id": "node/4071172720"
  },
  "geometry": {
    "type": "Point",
    "coordinates": [
      24.1055913,
      54.1154395
    ]
  }
},
{
  "type": "Feature",
  "id": "node/4079683126",
  "properties": {
    "amenity": "toilets",
    "id": "node/4079683126"
  },
  "geometry": {
    "type": "Point",
    "coordinates": [
      21.930493,
      55.7195895
    ]
  }
},
{
  "type": "Feature",
  "id": "node/4094264724",
  "properties": {
    "amenity": "toilets",
    "id": "node/4094264724"
  },
  "geometry": {
    "type": "Point",
    "coordinates": [
      22.5834722,
      55.0732523
    ]
  }
},
{
  "type": "Feature",
  "id": "node/4129615927",
  "properties": {
    "access": "public",
    "amenity": "toilets",
    "id": "node/4129615927"
  },
  "geometry": {
    "type": "Point",
    "coordinates": [
      24.9675683,
      55.3572204
    ]
  }
},
{
  "type": "Feature",
  "id": "node/4133510576",
  "properties": {
    "amenity": "toilets",
    "fee": "yes",
    "level": "-1",
    "id": "node/4133510576"
  },
  "geometry": {
    "type": "Point",
    "coordinates": [
      25.281928,
      54.687221
    ]
  }
},
{
  "type": "Feature",
  "id": "node/4162818554",
  "properties": {
    "amenity": "toilets",
    "id": "node/4162818554"
  },
  "geometry": {
    "type": "Point",
    "coordinates": [
      24.2789953,
      55.0736696
    ]
  }
},
{
  "type": "Feature",
  "id": "node/4168029804",
  "properties": {
    "amenity": "toilets",
    "female": "yes",
    "male": "yes",
    "id": "node/4168029804"
  },
  "geometry": {
    "type": "Point",
    "coordinates": [
      23.9527582,
      54.9201305
    ]
  }
},
{
  "type": "Feature",
  "id": "node/4200242130",
  "properties": {
    "amenity": "toilets",
    "id": "node/4200242130"
  },
  "geometry": {
    "type": "Point",
    "coordinates": [
      23.418455,
      55.6426007
    ]
  }
},
{
  "type": "Feature",
  "id": "node/4212448769",
  "properties": {
    "amenity": "toilets",
    "id": "node/4212448769"
  },
  "geometry": {
    "type": "Point",
    "coordinates": [
      25.4693207,
      55.2032423
    ]
  }
},
{
  "type": "Feature",
  "id": "node/4212448781",
  "properties": {
    "amenity": "toilets",
    "id": "node/4212448781"
  },
  "geometry": {
    "type": "Point",
    "coordinates": [
      25.4706591,
      55.2042035
    ]
  }
},
{
  "type": "Feature",
  "id": "node/4213069590",
  "properties": {
    "amenity": "toilets",
    "id": "node/4213069590"
  },
  "geometry": {
    "type": "Point",
    "coordinates": [
      21.1295816,
      55.7517614
    ]
  }
},
{
  "type": "Feature",
  "id": "node/4214549194",
  "properties": {
    "amenity": "toilets",
    "toilets:wheelchair": "yes",
    "wheelchair": "yes",
    "id": "node/4214549194"
  },
  "geometry": {
    "type": "Point",
    "coordinates": [
      21.0781173,
      55.9206224
    ]
  }
},
{
  "type": "Feature",
  "id": "node/4242531567",
  "properties": {
    "addr:city": "Vilnius",
    "addr:contact": "yes",
    "addr:housenumber": "26",
    "addr:street": "Konstitucijos pr.",
    "amenity": "toilets",
    "fee": "no",
    "female": "yes",
    "level": "0",
    "male": "yes",
    "id": "node/4242531567"
  },
  "geometry": {
    "type": "Point",
    "coordinates": [
      25.2667826,
      54.697394
    ]
  }
},
{
  "type": "Feature",
  "id": "node/4242542201",
  "properties": {
    "amenity": "toilets",
    "fee": "no",
    "id": "node/4242542201"
  },
  "geometry": {
    "type": "Point",
    "coordinates": [
      25.2574213,
      54.6998259
    ]
  }
},
{
  "type": "Feature",
  "id": "node/4256404940",
  "properties": {
    "amenity": "toilets",
    "female": "yes",
    "male": "yes",
    "id": "node/4256404940"
  },
  "geometry": {
    "type": "Point",
    "coordinates": [
      22.6931028,
      55.4613496
    ]
  }
},
{
  "type": "Feature",
  "id": "node/4272454515",
  "properties": {
    "amenity": "toilets",
    "id": "node/4272454515"
  },
  "geometry": {
    "type": "Point",
    "coordinates": [
      23.453925,
      54.6604945
    ]
  }
},
{
  "type": "Feature",
  "id": "node/4294776992",
  "properties": {
    "amenity": "toilets",
    "id": "node/4294776992"
  },
  "geometry": {
    "type": "Point",
    "coordinates": [
      21.0786773,
      56.0238285
    ]
  }
},
{
  "type": "Feature",
  "id": "node/4295215682",
  "properties": {
    "amenity": "toilets",
    "fee": "yes",
    "wheelchair": "no",
    "id": "node/4295215682"
  },
  "geometry": {
    "type": "Point",
    "coordinates": [
      24.9348694,
      54.6332541
    ]
  }
},
{
  "type": "Feature",
  "id": "node/4295233308",
  "properties": {
    "amenity": "toilets",
    "id": "node/4295233308"
  },
  "geometry": {
    "type": "Point",
    "coordinates": [
      24.9333689,
      54.6527954
    ]
  }
},
{
  "type": "Feature",
  "id": "node/4301766764",
  "properties": {
    "access": "yes",
    "amenity": "toilets",
    "id": "node/4301766764"
  },
  "geometry": {
    "type": "Point",
    "coordinates": [
      25.6913674,
      55.8835655
    ]
  }
},
{
  "type": "Feature",
  "id": "node/4312763744",
  "properties": {
    "access": "yes",
    "amenity": "toilets",
    "female": "yes",
    "male": "yes",
    "id": "node/4312763744"
  },
  "geometry": {
    "type": "Point",
    "coordinates": [
      25.8073018,
      55.9463109
    ]
  }
},
{
  "type": "Feature",
  "id": "node/4320512695",
  "properties": {
    "access": "customers",
    "amenity": "toilets",
    "fee": "no",
    "operator": "Vero Cafe",
    "id": "node/4320512695"
  },
  "geometry": {
    "type": "Point",
    "coordinates": [
      21.1341728,
      55.7099221
    ]
  }
},
{
  "type": "Feature",
  "id": "node/4329729526",
  "properties": {
    "amenity": "toilets",
    "id": "node/4329729526"
  },
  "geometry": {
    "type": "Point",
    "coordinates": [
      25.5486087,
      54.6001882
    ]
  }
},
{
  "type": "Feature",
  "id": "node/4333858890",
  "properties": {
    "amenity": "toilets",
    "id": "node/4333858890"
  },
  "geometry": {
    "type": "Point",
    "coordinates": [
      25.2796389,
      54.6513719
    ]
  }
},
{
  "type": "Feature",
  "id": "node/4340420679",
  "properties": {
    "amenity": "toilets",
    "fee": "no",
    "id": "node/4340420679"
  },
  "geometry": {
    "type": "Point",
    "coordinates": [
      23.0465392,
      55.8268409
    ]
  }
},
{
  "type": "Feature",
  "id": "node/4340426379",
  "properties": {
    "access": "customers",
    "amenity": "toilets",
    "fee": "no",
    "id": "node/4340426379"
  },
  "geometry": {
    "type": "Point",
    "coordinates": [
      23.3181225,
      55.9308654
    ]
  }
},
{
  "type": "Feature",
  "id": "node/4346870710",
  "properties": {
    "amenity": "toilets",
    "fee": "no",
    "id": "node/4346870710"
  },
  "geometry": {
    "type": "Point",
    "coordinates": [
      25.2346638,
      54.7071531
    ]
  }
},
{
  "type": "Feature",
  "id": "node/4347032791",
  "properties": {
    "amenity": "toilets",
    "changing_table": "no",
    "fee": "no",
    "wheelchair": "no",
    "id": "node/4347032791"
  },
  "geometry": {
    "type": "Point",
    "coordinates": [
      24.0325212,
      54.5986867
    ]
  }
},
{
  "type": "Feature",
  "id": "node/4381965946",
  "properties": {
    "amenity": "toilets",
    "id": "node/4381965946"
  },
  "geometry": {
    "type": "Point",
    "coordinates": [
      21.0833933,
      55.7586147
    ]
  }
},
{
  "type": "Feature",
  "id": "node/4381976041",
  "properties": {
    "amenity": "toilets",
    "id": "node/4381976041"
  },
  "geometry": {
    "type": "Point",
    "coordinates": [
      21.0817886,
      55.7622781
    ]
  }
},
{
  "type": "Feature",
  "id": "node/4384158346",
  "properties": {
    "amenity": "toilets",
    "id": "node/4384158346"
  },
  "geometry": {
    "type": "Point",
    "coordinates": [
      25.0082887,
      56.1152634
    ]
  }
},
{
  "type": "Feature",
  "id": "node/4384445940",
  "properties": {
    "amenity": "toilets",
    "fee": "no",
    "id": "node/4384445940"
  },
  "geometry": {
    "type": "Point",
    "coordinates": [
      25.62905,
      55.51801
    ]
  }
},
{
  "type": "Feature",
  "id": "node/4384477844",
  "properties": {
    "amenity": "toilets",
    "fee": "no",
    "id": "node/4384477844"
  },
  "geometry": {
    "type": "Point",
    "coordinates": [
      25.6282781,
      55.5186779
    ]
  }
},
{
  "type": "Feature",
  "id": "node/4394683509",
  "properties": {
    "amenity": "toilets",
    "wheelchair": "limited",
    "id": "node/4394683509"
  },
  "geometry": {
    "type": "Point",
    "coordinates": [
      24.0349263,
      54.601308
    ]
  }
},
{
  "type": "Feature",
  "id": "node/4396678439",
  "properties": {
    "amenity": "toilets",
    "id": "node/4396678439"
  },
  "geometry": {
    "type": "Point",
    "coordinates": [
      25.5262788,
      56.1239408
    ]
  }
},
{
  "type": "Feature",
  "id": "node/4401236394",
  "properties": {
    "amenity": "toilets",
    "id": "node/4401236394"
  },
  "geometry": {
    "type": "Point",
    "coordinates": [
      25.1046385,
      55.5263515
    ]
  }
},
{
  "type": "Feature",
  "id": "node/4413597981",
  "properties": {
    "amenity": "toilets",
    "id": "node/4413597981"
  },
  "geometry": {
    "type": "Point",
    "coordinates": [
      25.6403277,
      56.0240941
    ]
  }
},
{
  "type": "Feature",
  "id": "node/4440529902",
  "properties": {
    "amenity": "toilets",
    "fee": "yes",
    "level": "0",
    "wheelchair": "limited",
    "id": "node/4440529902"
  },
  "geometry": {
    "type": "Point",
    "coordinates": [
      24.0307321,
      54.6103238
    ]
  }
},
{
  "type": "Feature",
  "id": "node/4445171373",
  "properties": {
    "amenity": "toilets",
    "toilets:disposal": "pitlatrine",
    "id": "node/4445171373"
  },
  "geometry": {
    "type": "Point",
    "coordinates": [
      22.9797556,
      54.6381823
    ]
  }
},
{
  "type": "Feature",
  "id": "node/4448856790",
  "properties": {
    "access": "private",
    "amenity": "toilets",
    "operator": "Žolyno žiedo WC (Autobusų vairuotojams)",
    "id": "node/4448856790"
  },
  "geometry": {
    "type": "Point",
    "coordinates": [
      25.3406061,
      54.7074745
    ]
  }
},
{
  "type": "Feature",
  "id": "node/4460268518",
  "properties": {
    "amenity": "toilets",
    "id": "node/4460268518"
  },
  "geometry": {
    "type": "Point",
    "coordinates": [
      25.0058148,
      54.9133011
    ]
  }
},
{
  "type": "Feature",
  "id": "node/4463100183",
  "properties": {
    "amenity": "toilets",
    "fee": "no",
    "id": "node/4463100183"
  },
  "geometry": {
    "type": "Point",
    "coordinates": [
      25.2929091,
      54.7117448
    ]
  }
},
{
  "type": "Feature",
  "id": "node/4470441477",
  "properties": {
    "access": "yes",
    "amenity": "toilets",
    "id": "node/4470441477"
  },
  "geometry": {
    "type": "Point",
    "coordinates": [
      25.4982631,
      55.5914652
    ]
  }
},
{
  "type": "Feature",
  "id": "node/4483437385",
  "properties": {
    "amenity": "toilets",
    "changing_table": "no",
    "fee": "no",
    "id": "node/4483437385"
  },
  "geometry": {
    "type": "Point",
    "coordinates": [
      25.2369478,
      54.7081633
    ]
  }
},
{
  "type": "Feature",
  "id": "node/4506527810",
  "properties": {
    "access": "customers",
    "amenity": "toilets",
    "id": "node/4506527810"
  },
  "geometry": {
    "type": "Point",
    "coordinates": [
      25.2874129,
      54.7104439
    ]
  }
},
{
  "type": "Feature",
  "id": "node/4511233348",
  "properties": {
    "amenity": "toilets",
    "id": "node/4511233348"
  },
  "geometry": {
    "type": "Point",
    "coordinates": [
      24.9343518,
      54.6455923
    ]
  }
},
{
  "type": "Feature",
  "id": "node/4518624258",
  "properties": {
    "access": "yes",
    "amenity": "toilets",
    "id": "node/4518624258"
  },
  "geometry": {
    "type": "Point",
    "coordinates": [
      25.8451518,
      55.7524954
    ]
  }
},
{
  "type": "Feature",
  "id": "node/4528759539",
  "properties": {
    "amenity": "toilets",
    "id": "node/4528759539"
  },
  "geometry": {
    "type": "Point",
    "coordinates": [
      25.5855274,
      55.9634692
    ]
  }
},
{
  "type": "Feature",
  "id": "node/4539647917",
  "properties": {
    "access": "yes",
    "amenity": "toilets",
    "description": "0,30 € per visit",
    "fee": "yes",
    "opening_hours": "Mo-Su 09:00-20:00",
    "wheelchair": "yes",
    "id": "node/4539647917"
  },
  "geometry": {
    "type": "Point",
    "coordinates": [
      25.2960969,
      54.6835566
    ]
  }
},
{
  "type": "Feature",
  "id": "node/4567061404",
  "properties": {
    "amenity": "toilets",
    "id": "node/4567061404"
  },
  "geometry": {
    "type": "Point",
    "coordinates": [
      22.9968674,
      54.4873866
    ]
  }
},
{
  "type": "Feature",
  "id": "node/4567061405",
  "properties": {
    "amenity": "toilets",
    "operator": "Toi toi",
    "id": "node/4567061405"
  },
  "geometry": {
    "type": "Point",
    "coordinates": [
      24.6593716,
      54.7888015
    ]
  }
},
{
  "type": "Feature",
  "id": "node/4586911582",
  "properties": {
    "amenity": "toilets",
    "id": "node/4586911582"
  },
  "geometry": {
    "type": "Point",
    "coordinates": [
      21.0586816,
      55.9278997
    ]
  }
},
{
  "type": "Feature",
  "id": "node/4631942780",
  "properties": {
    "amenity": "toilets",
    "id": "node/4631942780"
  },
  "geometry": {
    "type": "Point",
    "coordinates": [
      23.9576383,
      55.2446022
    ]
  }
},
{
  "type": "Feature",
  "id": "node/4681879189",
  "properties": {
    "amenity": "toilets",
    "id": "node/4681879189"
  },
  "geometry": {
    "type": "Point",
    "coordinates": [
      21.1256267,
      55.7055957
    ]
  }
},
{
  "type": "Feature",
  "id": "node/4682240995",
  "properties": {
    "amenity": "toilets",
    "id": "node/4682240995"
  },
  "geometry": {
    "type": "Point",
    "coordinates": [
      21.078745,
      55.7699005
    ]
  }
},
{
  "type": "Feature",
  "id": "node/4695103213",
  "properties": {
    "access": "permissive",
    "amenity": "toilets",
    "changing_table": "no",
    "fee": "no",
    "toilets:disposal": "pitlatrine",
    "unisex": "yes",
    "id": "node/4695103213"
  },
  "geometry": {
    "type": "Point",
    "coordinates": [
      26.6544112,
      55.3108715
    ]
  }
},
{
  "type": "Feature",
  "id": "node/4730656203",
  "properties": {
    "amenity": "toilets",
    "id": "node/4730656203"
  },
  "geometry": {
    "type": "Point",
    "coordinates": [
      25.5985126,
      55.4353188
    ]
  }
},
{
  "type": "Feature",
  "id": "node/4781188823",
  "properties": {
    "access": "yes",
    "amenity": "toilets",
    "toilets:disposal": "pitlatrine",
    "id": "node/4781188823"
  },
  "geometry": {
    "type": "Point",
    "coordinates": [
      24.2677814,
      55.0995228
    ]
  }
},
{
  "type": "Feature",
  "id": "node/4813172478",
  "properties": {
    "amenity": "toilets",
    "id": "node/4813172478"
  },
  "geometry": {
    "type": "Point",
    "coordinates": [
      23.9674803,
      54.0146554
    ]
  }
},
{
  "type": "Feature",
  "id": "node/4815645484",
  "properties": {
    "amenity": "toilets",
    "toilets:disposal": "pitlatrine",
    "id": "node/4815645484"
  },
  "geometry": {
    "type": "Point",
    "coordinates": [
      25.7446649,
      54.7182594
    ]
  }
},
{
  "type": "Feature",
  "id": "node/4815648333",
  "properties": {
    "amenity": "toilets",
    "toilets:disposal": "pitlatrine",
    "id": "node/4815648333"
  },
  "geometry": {
    "type": "Point",
    "coordinates": [
      25.6962908,
      54.5450545
    ]
  }
},
{
  "type": "Feature",
  "id": "node/4815648334",
  "properties": {
    "amenity": "toilets",
    "toilets:disposal": "pitlatrine",
    "id": "node/4815648334"
  },
  "geometry": {
    "type": "Point",
    "coordinates": [
      25.6825928,
      54.5483379
    ]
  }
},
{
  "type": "Feature",
  "id": "node/4828658127",
  "properties": {
    "amenity": "toilets",
    "id": "node/4828658127"
  },
  "geometry": {
    "type": "Point",
    "coordinates": [
      25.1989134,
      54.5775158
    ]
  }
},
{
  "type": "Feature",
  "id": "node/4830052062",
  "properties": {
    "amenity": "toilets",
    "fee": "no",
    "id": "node/4830052062"
  },
  "geometry": {
    "type": "Point",
    "coordinates": [
      22.9300447,
      55.3780636
    ]
  }
},
{
  "type": "Feature",
  "id": "node/4836235329",
  "properties": {
    "access": "yes",
    "amenity": "toilets",
    "fee": "yes",
    "female": "yes",
    "male": "yes",
    "wheelchair": "no",
    "id": "node/4836235329"
  },
  "geometry": {
    "type": "Point",
    "coordinates": [
      25.2836113,
      54.6801715
    ]
  }
},
{
  "type": "Feature",
  "id": "node/4839056823",
  "properties": {
    "amenity": "toilets",
    "name": "WC",
    "id": "node/4839056823"
  },
  "geometry": {
    "type": "Point",
    "coordinates": [
      21.1000655,
      55.6974277
    ]
  }
},
{
  "type": "Feature",
  "id": "node/4839682473",
  "properties": {
    "amenity": "toilets",
    "id": "node/4839682473"
  },
  "geometry": {
    "type": "Point",
    "coordinates": [
      25.5722456,
      54.5859516
    ]
  }
},
{
  "type": "Feature",
  "id": "node/4839682488",
  "properties": {
    "amenity": "toilets",
    "id": "node/4839682488"
  },
  "geometry": {
    "type": "Point",
    "coordinates": [
      25.5719226,
      54.5866026
    ]
  }
},
{
  "type": "Feature",
  "id": "node/4845792552",
  "properties": {
    "amenity": "toilets",
    "toilets:disposal": "flush",
    "id": "node/4845792552"
  },
  "geometry": {
    "type": "Point",
    "coordinates": [
      25.6914616,
      54.5467545
    ]
  }
},
{
  "type": "Feature",
  "id": "node/4845792553",
  "properties": {
    "amenity": "toilets",
    "toilets:disposal": "flush",
    "id": "node/4845792553"
  },
  "geometry": {
    "type": "Point",
    "coordinates": [
      25.7434565,
      54.7159395
    ]
  }
},
{
  "type": "Feature",
  "id": "node/4845792554",
  "properties": {
    "amenity": "toilets",
    "toilets:disposal": "flush",
    "id": "node/4845792554"
  },
  "geometry": {
    "type": "Point",
    "coordinates": [
      25.7436901,
      54.7160887
    ]
  }
},
{
  "type": "Feature",
  "id": "node/4894938559",
  "properties": {
    "amenity": "toilets",
    "id": "node/4894938559"
  },
  "geometry": {
    "type": "Point",
    "coordinates": [
      22.335862,
      55.8622689
    ]
  }
},
{
  "type": "Feature",
  "id": "node/4895822451",
  "properties": {
    "access": "yes",
    "amenity": "toilets",
    "fee": "no",
    "id": "node/4895822451"
  },
  "geometry": {
    "type": "Point",
    "coordinates": [
      25.6312644,
      55.5170107
    ]
  }
},
{
  "type": "Feature",
  "id": "node/4909386256",
  "properties": {
    "amenity": "toilets",
    "female": "no",
    "male": "no",
    "unisex": "no",
    "id": "node/4909386256"
  },
  "geometry": {
    "type": "Point",
    "coordinates": [
      21.2515175,
      55.890549
    ]
  }
},
{
  "type": "Feature",
  "id": "node/4923997536",
  "properties": {
    "amenity": "toilets",
    "id": "node/4923997536"
  },
  "geometry": {
    "type": "Point",
    "coordinates": [
      25.0606829,
      55.4854157
    ]
  }
},
{
  "type": "Feature",
  "id": "node/4924118359",
  "properties": {
    "amenity": "toilets",
    "id": "node/4924118359"
  },
  "geometry": {
    "type": "Point",
    "coordinates": [
      25.1256099,
      55.5253284
    ]
  }
},
{
  "type": "Feature",
  "id": "node/4934522484",
  "properties": {
    "amenity": "toilets",
    "description": "Price 0.3 Eur",
    "opening_hours": "We-Su 10:00-19:00",
    "id": "node/4934522484"
  },
  "geometry": {
    "type": "Point",
    "coordinates": [
      24.8543304,
      54.8862365
    ]
  }
},
{
  "type": "Feature",
  "id": "node/4934530819",
  "properties": {
    "amenity": "toilets",
    "drinking_water": "no",
    "fee": "yes",
    "toilets:disposal": "chemical",
    "toilets:position": "seated;urinal",
    "unisex": "yes",
    "wheelchair": "no",
    "id": "node/4934530819"
  },
  "geometry": {
    "type": "Point",
    "coordinates": [
      24.8508435,
      54.8840719
    ]
  }
},
{
  "type": "Feature",
  "id": "node/4948561751",
  "properties": {
    "amenity": "toilets",
    "id": "node/4948561751"
  },
  "geometry": {
    "type": "Point",
    "coordinates": [
      23.3583431,
      54.9619897
    ]
  }
},
{
  "type": "Feature",
  "id": "node/4958353994",
  "properties": {
    "amenity": "toilets",
    "id": "node/4958353994"
  },
  "geometry": {
    "type": "Point",
    "coordinates": [
      24.7818732,
      56.4002349
    ]
  }
},
{
  "type": "Feature",
  "id": "node/4965355925",
  "properties": {
    "amenity": "toilets",
    "id": "node/4965355925"
  },
  "geometry": {
    "type": "Point",
    "coordinates": [
      24.7518486,
      56.2059372
    ]
  }
},
{
  "type": "Feature",
  "id": "node/4973515321",
  "properties": {
    "amenity": "toilets",
    "id": "node/4973515321"
  },
  "geometry": {
    "type": "Point",
    "coordinates": [
      24.9754522,
      54.6465668
    ]
  }
},
{
  "type": "Feature",
  "id": "node/4974109993",
  "properties": {
    "amenity": "toilets",
    "toilets:disposal": "pitlatrine",
    "id": "node/4974109993"
  },
  "geometry": {
    "type": "Point",
    "coordinates": [
      25.4754117,
      54.4562766
    ]
  }
},
{
  "type": "Feature",
  "id": "node/5028576813",
  "properties": {
    "amenity": "toilets",
    "id": "node/5028576813"
  },
  "geometry": {
    "type": "Point",
    "coordinates": [
      25.5709201,
      54.5859357
    ]
  }
},
{
  "type": "Feature",
  "id": "node/5035156750",
  "properties": {
    "access": "yes",
    "amenity": "toilets",
    "opening_hours": "Mo-Su 08:15-21:15",
    "id": "node/5035156750"
  },
  "geometry": {
    "type": "Point",
    "coordinates": [
      21.0736865,
      56.0364485
    ]
  }
},
{
  "type": "Feature",
  "id": "node/5035156761",
  "properties": {
    "access": "yes",
    "amenity": "toilets",
    "wheelchair": "designated",
    "id": "node/5035156761"
  },
  "geometry": {
    "type": "Point",
    "coordinates": [
      21.074627,
      56.0323898
    ]
  }
},
{
  "type": "Feature",
  "id": "node/5035156800",
  "properties": {
    "access": "yes",
    "amenity": "toilets",
    "id": "node/5035156800"
  },
  "geometry": {
    "type": "Point",
    "coordinates": [
      21.0737107,
      56.034576
    ]
  }
},
{
  "type": "Feature",
  "id": "node/5037528075",
  "properties": {
    "amenity": "toilets",
    "changing_table": "no",
    "fee": "no",
    "unisex": "yes",
    "id": "node/5037528075"
  },
  "geometry": {
    "type": "Point",
    "coordinates": [
      25.3731727,
      54.6934275
    ]
  }
},
{
  "type": "Feature",
  "id": "node/5040632724",
  "properties": {
    "amenity": "toilets",
    "fee": "yes",
    "id": "node/5040632724"
  },
  "geometry": {
    "type": "Point",
    "coordinates": [
      24.3648822,
      55.7279077
    ]
  }
},
{
  "type": "Feature",
  "id": "node/5048292911",
  "properties": {
    "amenity": "toilets",
    "fee": "no",
    "id": "node/5048292911"
  },
  "geometry": {
    "type": "Point",
    "coordinates": [
      22.2917882,
      55.2556157
    ]
  }
},
{
  "type": "Feature",
  "id": "node/5066966821",
  "properties": {
    "amenity": "toilets",
    "opening_hours": "Mo-Su 10:00-20:00",
    "id": "node/5066966821"
  },
  "geometry": {
    "type": "Point",
    "coordinates": [
      21.059733,
      55.4203165
    ]
  }
},
{
  "type": "Feature",
  "id": "node/5076244145",
  "properties": {
    "amenity": "toilets",
    "id": "node/5076244145"
  },
  "geometry": {
    "type": "Point",
    "coordinates": [
      23.4881757,
      56.0680132
    ]
  }
},
{
  "type": "Feature",
  "id": "node/5081541222",
  "properties": {
    "amenity": "toilets",
    "id": "node/5081541222"
  },
  "geometry": {
    "type": "Point",
    "coordinates": [
      23.6759633,
      54.1040726
    ]
  }
},
{
  "type": "Feature",
  "id": "node/5177952901",
  "properties": {
    "access": "yes",
    "amenity": "toilets",
    "id": "node/5177952901"
  },
  "geometry": {
    "type": "Point",
    "coordinates": [
      22.7826244,
      56.1436219
    ]
  }
},
{
  "type": "Feature",
  "id": "node/5198393368",
  "properties": {
    "amenity": "toilets",
    "id": "node/5198393368"
  },
  "geometry": {
    "type": "Point",
    "coordinates": [
      25.5858976,
      55.9842745
    ]
  }
},
{
  "type": "Feature",
  "id": "node/5198408073",
  "properties": {
    "amenity": "toilets",
    "id": "node/5198408073"
  },
  "geometry": {
    "type": "Point",
    "coordinates": [
      25.4439363,
      55.7426117
    ]
  }
},
{
  "type": "Feature",
  "id": "node/5207855985",
  "properties": {
    "amenity": "toilets",
    "toilets:disposal": "pitlatrine",
    "id": "node/5207855985"
  },
  "geometry": {
    "type": "Point",
    "coordinates": [
      25.7566969,
      54.5914118
    ]
  }
},
{
  "type": "Feature",
  "id": "node/5213944826",
  "properties": {
    "amenity": "toilets",
    "id": "node/5213944826"
  },
  "geometry": {
    "type": "Point",
    "coordinates": [
      24.1838189,
      54.8861961
    ]
  }
},
{
  "type": "Feature",
  "id": "node/5248293409",
  "properties": {
    "amenity": "toilets",
    "id": "node/5248293409"
  },
  "geometry": {
    "type": "Point",
    "coordinates": [
      25.5467311,
      54.6008983
    ]
  }
},
{
  "type": "Feature",
  "id": "node/5322499672",
  "properties": {
    "amenity": "toilets",
    "toilets:disposal": "pitlatrine",
    "id": "node/5322499672"
  },
  "geometry": {
    "type": "Point",
    "coordinates": [
      25.2211872,
      54.6668561
    ]
  }
},
{
  "type": "Feature",
  "id": "node/5394008667",
  "properties": {
    "amenity": "toilets",
    "id": "node/5394008667"
  },
  "geometry": {
    "type": "Point",
    "coordinates": [
      24.9716824,
      54.6269906
    ]
  }
},
{
  "type": "Feature",
  "id": "node/5425317609",
  "properties": {
    "amenity": "toilets",
    "id": "node/5425317609"
  },
  "geometry": {
    "type": "Point",
    "coordinates": [
      25.9856191,
      55.3752861
    ]
  }
},
{
  "type": "Feature",
  "id": "node/5581062359",
  "properties": {
    "amenity": "toilets",
    "shower": "yes",
    "id": "node/5581062359"
  },
  "geometry": {
    "type": "Point",
    "coordinates": [
      21.0878861,
      55.7368109
    ]
  }
},
{
  "type": "Feature",
  "id": "node/5582483589",
  "properties": {
    "amenity": "toilets",
    "id": "node/5582483589"
  },
  "geometry": {
    "type": "Point",
    "coordinates": [
      25.6030616,
      55.5218392
    ]
  }
},
{
  "type": "Feature",
  "id": "node/5599641822",
  "properties": {
    "amenity": "toilets",
    "fee": "no",
    "operator": "Maxima",
    "id": "node/5599641822"
  },
  "geometry": {
    "type": "Point",
    "coordinates": [
      25.2731609,
      54.6781927
    ]
  }
},
{
  "type": "Feature",
  "id": "node/5600204623",
  "properties": {
    "amenity": "toilets",
    "fee": "0,50 €",
    "opening_hours": "Mo-Su 09:00-18:00",
    "id": "node/5600204623"
  },
  "geometry": {
    "type": "Point",
    "coordinates": [
      25.2908363,
      54.6751458
    ]
  }
},
{
  "type": "Feature",
  "id": "node/5601133222",
  "properties": {
    "amenity": "toilets",
    "fee": "no",
    "opening_hours": "24/7",
    "wheelchair": "no",
    "id": "node/5601133222"
  },
  "geometry": {
    "type": "Point",
    "coordinates": [
      25.2463057,
      54.6986043
    ]
  }
},
{
  "type": "Feature",
  "id": "node/5618401660",
  "properties": {
    "amenity": "toilets",
    "source": "GPS",
    "toilets:disposal": "chemical",
    "wheelchair": "yes",
    "id": "node/5618401660"
  },
  "geometry": {
    "type": "Point",
    "coordinates": [
      23.96881,
      54.8929215
    ]
  }
},
{
  "type": "Feature",
  "id": "node/5657977510",
  "properties": {
    "amenity": "toilets",
    "id": "node/5657977510"
  },
  "geometry": {
    "type": "Point",
    "coordinates": [
      23.7123256,
      54.9351594
    ]
  }
},
{
  "type": "Feature",
  "id": "node/5682254270",
  "properties": {
    "amenity": "toilets",
    "id": "node/5682254270"
  },
  "geometry": {
    "type": "Point",
    "coordinates": [
      21.2600403,
      55.8976734
    ]
  }
},
{
  "type": "Feature",
  "id": "node/5682254271",
  "properties": {
    "amenity": "toilets",
    "id": "node/5682254271"
  },
  "geometry": {
    "type": "Point",
    "coordinates": [
      21.2600858,
      55.8976704
    ]
  }
},
{
  "type": "Feature",
  "id": "node/5684562861",
  "properties": {
    "amenity": "toilets",
    "fee": "yes",
    "unisex": "yes",
    "id": "node/5684562861"
  },
  "geometry": {
    "type": "Point",
    "coordinates": [
      21.1321119,
      55.7118892
    ]
  }
},
{
  "type": "Feature",
  "id": "node/5698720207",
  "properties": {
    "access": "yes",
    "amenity": "toilets",
    "changing_table": "no",
    "fee": "no",
    "toilets:disposal": "chemical",
    "unisex": "yes",
    "id": "node/5698720207"
  },
  "geometry": {
    "type": "Point",
    "coordinates": [
      25.1616305,
      54.7018933
    ]
  }
},
{
  "type": "Feature",
  "id": "node/5698733954",
  "properties": {
    "access": "yes",
    "amenity": "toilets",
    "changing_table": "no",
    "fee": "no",
    "toilets:disposal": "chemical",
    "unisex": "yes",
    "id": "node/5698733954"
  },
  "geometry": {
    "type": "Point",
    "coordinates": [
      25.1720653,
      54.7018946
    ]
  }
},
{
  "type": "Feature",
  "id": "node/5705712023",
  "properties": {
    "amenity": "toilets",
    "id": "node/5705712023"
  },
  "geometry": {
    "type": "Point",
    "coordinates": [
      25.5316937,
      55.2347586
    ]
  }
},
{
  "type": "Feature",
  "id": "node/5732230169",
  "properties": {
    "amenity": "toilets",
    "id": "node/5732230169"
  },
  "geometry": {
    "type": "Point",
    "coordinates": [
      21.9062396,
      56.030489
    ]
  }
},
{
  "type": "Feature",
  "id": "node/5734651122",
  "properties": {
    "amenity": "toilets",
    "id": "node/5734651122"
  },
  "geometry": {
    "type": "Point",
    "coordinates": [
      25.5195249,
      56.1576903
    ]
  }
},
{
  "type": "Feature",
  "id": "node/5740978383",
  "properties": {
    "amenity": "toilets",
    "id": "node/5740978383"
  },
  "geometry": {
    "type": "Point",
    "coordinates": [
      25.4274017,
      55.231958
    ]
  }
},
{
  "type": "Feature",
  "id": "node/5784093685",
  "properties": {
    "amenity": "toilets",
    "id": "node/5784093685"
  },
  "geometry": {
    "type": "Point",
    "coordinates": [
      24.0179341,
      55.2719353
    ]
  }
},
{
  "type": "Feature",
  "id": "node/5789990551",
  "properties": {
    "amenity": "toilets",
    "id": "node/5789990551"
  },
  "geometry": {
    "type": "Point",
    "coordinates": [
      24.0178732,
      55.2719105
    ]
  }
},
{
  "type": "Feature",
  "id": "node/5794110902",
  "properties": {
    "amenity": "toilets",
    "id": "node/5794110902"
  },
  "geometry": {
    "type": "Point",
    "coordinates": [
      21.1014457,
      55.5496303
    ]
  }
},
{
  "type": "Feature",
  "id": "node/5809234327",
  "properties": {
    "amenity": "toilets",
    "id": "node/5809234327"
  },
  "geometry": {
    "type": "Point",
    "coordinates": [
      24.9003629,
      54.7023548
    ]
  }
},
{
  "type": "Feature",
  "id": "node/5831708592",
  "properties": {
    "amenity": "toilets",
    "id": "node/5831708592"
  },
  "geometry": {
    "type": "Point",
    "coordinates": [
      21.0101164,
      55.320813
    ]
  }
},
{
  "type": "Feature",
  "id": "node/5832466485",
  "properties": {
    "amenity": "toilets",
    "id": "node/5832466485"
  },
  "geometry": {
    "type": "Point",
    "coordinates": [
      21.0007633,
      55.2997383
    ]
  }
},
{
  "type": "Feature",
  "id": "node/5836880096",
  "properties": {
    "amenity": "toilets",
    "id": "node/5836880096"
  },
  "geometry": {
    "type": "Point",
    "coordinates": [
      24.7559765,
      56.2034859
    ]
  }
},
{
  "type": "Feature",
  "id": "node/5838742599",
  "properties": {
    "amenity": "toilets",
    "id": "node/5838742599"
  },
  "geometry": {
    "type": "Point",
    "coordinates": [
      24.7807333,
      56.2201267
    ]
  }
},
{
  "type": "Feature",
  "id": "node/5839462888",
  "properties": {
    "amenity": "toilets",
    "id": "node/5839462888"
  },
  "geometry": {
    "type": "Point",
    "coordinates": [
      20.9895069,
      55.3130295
    ]
  }
},
{
  "type": "Feature",
  "id": "node/5839903962",
  "properties": {
    "amenity": "toilets",
    "id": "node/5839903962"
  },
  "geometry": {
    "type": "Point",
    "coordinates": [
      25.4078663,
      55.2484895
    ]
  }
},
{
  "type": "Feature",
  "id": "node/5840173732",
  "properties": {
    "amenity": "toilets",
    "id": "node/5840173732"
  },
  "geometry": {
    "type": "Point",
    "coordinates": [
      24.7855183,
      56.2345853
    ]
  }
},
{
  "type": "Feature",
  "id": "node/5867718411",
  "properties": {
    "amenity": "toilets",
    "id": "node/5867718411"
  },
  "geometry": {
    "type": "Point",
    "coordinates": [
      23.9523732,
      54.9237101
    ]
  }
},
{
  "type": "Feature",
  "id": "node/5890467970",
  "properties": {
    "access": "yes",
    "amenity": "toilets",
    "fee": "no",
    "toilets:disposal": "pitlatrine",
    "unisex": "yes",
    "id": "node/5890467970"
  },
  "geometry": {
    "type": "Point",
    "coordinates": [
      21.0331621,
      55.3787328
    ]
  }
},
{
  "type": "Feature",
  "id": "node/5890676479",
  "properties": {
    "access": "yes",
    "amenity": "toilets",
    "changing_table": "no",
    "fee": "no",
    "toilets:disposal": "pitlatrine",
    "unisex": "yes",
    "id": "node/5890676479"
  },
  "geometry": {
    "type": "Point",
    "coordinates": [
      21.8849811,
      56.0380997
    ]
  }
},
{
  "type": "Feature",
  "id": "node/5907985185",
  "properties": {
    "amenity": "toilets",
    "opening_hours": "24/7",
    "id": "node/5907985185"
  },
  "geometry": {
    "type": "Point",
    "coordinates": [
      24.5867519,
      54.8736166
    ]
  }
},
{
  "type": "Feature",
  "id": "node/5909791902",
  "properties": {
    "amenity": "toilets",
    "id": "node/5909791902"
  },
  "geometry": {
    "type": "Point",
    "coordinates": [
      25.433098,
      55.2328739
    ]
  }
},
{
  "type": "Feature",
  "id": "node/5910275482",
  "properties": {
    "amenity": "toilets",
    "id": "node/5910275482"
  },
  "geometry": {
    "type": "Point",
    "coordinates": [
      25.0430962,
      55.5950337
    ]
  }
},
{
  "type": "Feature",
  "id": "node/5953480601",
  "properties": {
    "access": "yes",
    "amenity": "toilets",
    "changing_table": "no",
    "toilets:disposal": "chemical",
    "toilets:position": "seated",
    "unisex": "yes",
    "wheelchair": "no",
    "id": "node/5953480601"
  },
  "geometry": {
    "type": "Point",
    "coordinates": [
      21.0632372,
      55.8696655
    ]
  }
},
{
  "type": "Feature",
  "id": "node/5964664869",
  "properties": {
    "amenity": "toilets",
    "toilets:disposal": "pitlatrine",
    "id": "node/5964664869"
  },
  "geometry": {
    "type": "Point",
    "coordinates": [
      25.7575286,
      54.5915497
    ]
  }
},
{
  "type": "Feature",
  "id": "node/5983426700",
  "properties": {
    "amenity": "toilets",
    "id": "node/5983426700"
  },
  "geometry": {
    "type": "Point",
    "coordinates": [
      24.0177843,
      55.8017461
    ]
  }
},
{
  "type": "Feature",
  "id": "node/5983426736",
  "properties": {
    "amenity": "toilets",
    "id": "node/5983426736"
  },
  "geometry": {
    "type": "Point",
    "coordinates": [
      24.0159577,
      55.806071
    ]
  }
},
{
  "type": "Feature",
  "id": "node/5986637907",
  "properties": {
    "amenity": "toilets",
    "id": "node/5986637907"
  },
  "geometry": {
    "type": "Point",
    "coordinates": [
      25.412195,
      54.8222856
    ]
  }
},
{
  "type": "Feature",
  "id": "node/5999671696",
  "properties": {
    "amenity": "toilets",
    "id": "node/5999671696"
  },
  "geometry": {
    "type": "Point",
    "coordinates": [
      22.2596963,
      55.2525622
    ]
  }
},
{
  "type": "Feature",
  "id": "node/6025861271",
  "properties": {
    "amenity": "toilets",
    "changing_table": "no",
    "drinking_water": "yes",
    "fee": "no",
    "level": "1",
    "toilets:disposal": "flush",
    "toilets:position": "seated;urinal",
    "unisex": "yes",
    "wheelchair": "yes",
    "id": "node/6025861271"
  },
  "geometry": {
    "type": "Point",
    "coordinates": [
      23.2600187,
      55.9080357
    ]
  }
},
{
  "type": "Feature",
  "id": "node/6172967645",
  "properties": {
    "amenity": "toilets",
    "id": "node/6172967645"
  },
  "geometry": {
    "type": "Point",
    "coordinates": [
      23.9746275,
      53.9425356
    ]
  }
},
{
  "type": "Feature",
  "id": "node/6206294737",
  "properties": {
    "amenity": "toilets",
    "id": "node/6206294737"
  },
  "geometry": {
    "type": "Point",
    "coordinates": [
      25.4231468,
      55.224675
    ]
  }
},
{
  "type": "Feature",
  "id": "node/6223463933",
  "properties": {
    "amenity": "toilets",
    "id": "node/6223463933"
  },
  "geometry": {
    "type": "Point",
    "coordinates": [
      25.4349032,
      55.2218984
    ]
  }
},
{
  "type": "Feature",
  "id": "node/6223463934",
  "properties": {
    "amenity": "toilets",
    "id": "node/6223463934"
  },
  "geometry": {
    "type": "Point",
    "coordinates": [
      25.4335541,
      55.2216904
    ]
  }
},
{
  "type": "Feature",
  "id": "node/6307617688",
  "properties": {
    "amenity": "toilets",
    "fee": "yes",
    "toilets:disposal": "flush",
    "id": "node/6307617688"
  },
  "geometry": {
    "type": "Point",
    "coordinates": [
      23.8887268,
      54.8997966
    ]
  }
},
{
  "type": "Feature",
  "id": "node/6314073646",
  "properties": {
    "amenity": "toilets",
    "fee": "no",
    "id": "node/6314073646"
  },
  "geometry": {
    "type": "Point",
    "coordinates": [
      25.2639249,
      54.7109235
    ]
  }
},
{
  "type": "Feature",
  "id": "node/6314468430",
  "properties": {
    "amenity": "toilets",
    "id": "node/6314468430"
  },
  "geometry": {
    "type": "Point",
    "coordinates": [
      25.2741494,
      54.6730769
    ]
  }
},
{
  "type": "Feature",
  "id": "node/6379246137",
  "properties": {
    "amenity": "toilets",
    "female": "yes",
    "male": "yes",
    "wheelchair": "yes",
    "id": "node/6379246137"
  },
  "geometry": {
    "type": "Point",
    "coordinates": [
      23.327098,
      55.4315878
    ]
  }
},
{
  "type": "Feature",
  "id": "node/6412123256",
  "properties": {
    "amenity": "toilets",
    "id": "node/6412123256"
  },
  "geometry": {
    "type": "Point",
    "coordinates": [
      23.993631,
      54.9162731
    ]
  }
},
{
  "type": "Feature",
  "id": "node/6412123257",
  "properties": {
    "amenity": "toilets",
    "id": "node/6412123257"
  },
  "geometry": {
    "type": "Point",
    "coordinates": [
      23.9926621,
      54.9163055
    ]
  }
},
{
  "type": "Feature",
  "id": "node/6412123258",
  "properties": {
    "amenity": "toilets",
    "id": "node/6412123258"
  },
  "geometry": {
    "type": "Point",
    "coordinates": [
      23.9894414,
      54.9161575
    ]
  }
},
{
  "type": "Feature",
  "id": "node/6412123259",
  "properties": {
    "amenity": "toilets",
    "id": "node/6412123259"
  },
  "geometry": {
    "type": "Point",
    "coordinates": [
      23.9882103,
      54.9151369
    ]
  }
},
{
  "type": "Feature",
  "id": "node/6412123260",
  "properties": {
    "amenity": "toilets",
    "id": "node/6412123260"
  },
  "geometry": {
    "type": "Point",
    "coordinates": [
      23.9877784,
      54.915476
    ]
  }
},
{
  "type": "Feature",
  "id": "node/6418821862",
  "properties": {
    "access": "yes",
    "amenity": "toilets",
    "fee": "no",
    "unisex": "yes",
    "wheelchair": "yes",
    "id": "node/6418821862"
  },
  "geometry": {
    "type": "Point",
    "coordinates": [
      25.5117636,
      54.8531579
    ]
  }
},
{
  "type": "Feature",
  "id": "node/6434403052",
  "properties": {
    "amenity": "toilets",
    "id": "node/6434403052"
  },
  "geometry": {
    "type": "Point",
    "coordinates": [
      24.82113,
      54.8902075
    ]
  }
},
{
  "type": "Feature",
  "id": "node/6435146635",
  "properties": {
    "amenity": "toilets",
    "id": "node/6435146635"
  },
  "geometry": {
    "type": "Point",
    "coordinates": [
      21.0609941,
      55.9361697
    ]
  }
},
{
  "type": "Feature",
  "id": "node/6441088047",
  "properties": {
    "amenity": "toilets",
    "id": "node/6441088047"
  },
  "geometry": {
    "type": "Point",
    "coordinates": [
      24.9543756,
      54.6532212
    ]
  }
},
{
  "type": "Feature",
  "id": "node/6482124715",
  "properties": {
    "amenity": "toilets",
    "id": "node/6482124715"
  },
  "geometry": {
    "type": "Point",
    "coordinates": [
      25.3268163,
      54.4389023
    ]
  }
},
{
  "type": "Feature",
  "id": "node/6535843524",
  "properties": {
    "amenity": "toilets",
    "id": "node/6535843524"
  },
  "geometry": {
    "type": "Point",
    "coordinates": [
      21.8084702,
      56.0315962
    ]
  }
},
{
  "type": "Feature",
  "id": "node/6535843567",
  "properties": {
    "amenity": "toilets",
    "id": "node/6535843567"
  },
  "geometry": {
    "type": "Point",
    "coordinates": [
      21.8333691,
      56.0500664
    ]
  }
},
{
  "type": "Feature",
  "id": "node/6550970417",
  "properties": {
    "amenity": "toilets",
    "id": "node/6550970417"
  },
  "geometry": {
    "type": "Point",
    "coordinates": [
      25.2772884,
      54.6522307
    ]
  }
},
{
  "type": "Feature",
  "id": "node/6564286786",
  "properties": {
    "amenity": "toilets",
    "id": "node/6564286786"
  },
  "geometry": {
    "type": "Point",
    "coordinates": [
      22.1886124,
      55.7430672
    ]
  }
},
{
  "type": "Feature",
  "id": "node/6578541779",
  "properties": {
    "amenity": "toilets",
    "id": "node/6578541779"
  },
  "geometry": {
    "type": "Point",
    "coordinates": [
      21.1002955,
      55.5408953
    ]
  }
},
{
  "type": "Feature",
  "id": "node/6578685870",
  "properties": {
    "amenity": "toilets",
    "fee": "yes",
    "female": "yes",
    "male": "yes",
    "id": "node/6578685870"
  },
  "geometry": {
    "type": "Point",
    "coordinates": [
      24.0214428,
      54.8770634
    ]
  }
},
{
  "type": "Feature",
  "id": "node/6579784776",
  "properties": {
    "amenity": "toilets",
    "id": "node/6579784776"
  },
  "geometry": {
    "type": "Point",
    "coordinates": [
      25.0718817,
      56.0737945
    ]
  }
},
{
  "type": "Feature",
  "id": "node/6589168843",
  "properties": {
    "amenity": "toilets",
    "id": "node/6589168843"
  },
  "geometry": {
    "type": "Point",
    "coordinates": [
      21.1517624,
      55.952504
    ]
  }
},
{
  "type": "Feature",
  "id": "node/6611929274",
  "properties": {
    "amenity": "toilets",
    "id": "node/6611929274"
  },
  "geometry": {
    "type": "Point",
    "coordinates": [
      23.2568409,
      55.9065618
    ]
  }
},
{
  "type": "Feature",
  "id": "node/6615561624",
  "properties": {
    "amenity": "toilets",
    "id": "node/6615561624"
  },
  "geometry": {
    "type": "Point",
    "coordinates": [
      25.824889,
      55.3523099
    ]
  }
},
{
  "type": "Feature",
  "id": "node/6617428675",
  "properties": {
    "amenity": "toilets",
    "id": "node/6617428675"
  },
  "geometry": {
    "type": "Point",
    "coordinates": [
      24.9745376,
      55.838309
    ]
  }
},
{
  "type": "Feature",
  "id": "node/6648005142",
  "properties": {
    "amenity": "toilets",
    "fee": "no",
    "toilets:disposal": "pitlatrine",
    "id": "node/6648005142"
  },
  "geometry": {
    "type": "Point",
    "coordinates": [
      23.1958062,
      55.6056354
    ]
  }
},
{
  "type": "Feature",
  "id": "node/6662690256",
  "properties": {
    "amenity": "toilets",
    "id": "node/6662690256"
  },
  "geometry": {
    "type": "Point",
    "coordinates": [
      22.8978966,
      55.3985342
    ]
  }
},
{
  "type": "Feature",
  "id": "node/6666474895",
  "properties": {
    "amenity": "toilets",
    "id": "node/6666474895"
  },
  "geometry": {
    "type": "Point",
    "coordinates": [
      23.6321538,
      54.9421797
    ]
  }
},
{
  "type": "Feature",
  "id": "node/6670213206",
  "properties": {
    "amenity": "toilets",
    "fee": "yes",
    "id": "node/6670213206"
  },
  "geometry": {
    "type": "Point",
    "coordinates": [
      21.1244863,
      55.7283922
    ]
  }
},
{
  "type": "Feature",
  "id": "node/6706667463",
  "properties": {
    "amenity": "toilets",
    "toilets:disposal": "pitlatrine",
    "id": "node/6706667463"
  },
  "geometry": {
    "type": "Point",
    "coordinates": [
      25.4432095,
      55.0564492
    ]
  }
},
{
  "type": "Feature",
  "id": "node/6718363970",
  "properties": {
    "amenity": "toilets",
    "id": "node/6718363970"
  },
  "geometry": {
    "type": "Point",
    "coordinates": [
      21.9162383,
      55.130673
    ]
  }
},
{
  "type": "Feature",
  "id": "node/6743975185",
  "properties": {
    "amenity": "toilets",
    "id": "node/6743975185"
  },
  "geometry": {
    "type": "Point",
    "coordinates": [
      24.0081674,
      54.6054193
    ]
  }
},
{
  "type": "Feature",
  "id": "node/6744270677",
  "properties": {
    "amenity": "toilets",
    "toilets:disposal": "pitlatrine",
    "id": "node/6744270677"
  },
  "geometry": {
    "type": "Point",
    "coordinates": [
      24.9346171,
      54.6717746
    ]
  }
},
{
  "type": "Feature",
  "id": "node/6747401701",
  "properties": {
    "amenity": "toilets",
    "id": "node/6747401701"
  },
  "geometry": {
    "type": "Point",
    "coordinates": [
      21.876065,
      55.8427661
    ]
  }
},
{
  "type": "Feature",
  "id": "node/6763623367",
  "properties": {
    "amenity": "toilets",
    "id": "node/6763623367"
  },
  "geometry": {
    "type": "Point",
    "coordinates": [
      21.0645483,
      55.9490884
    ]
  }
},
{
  "type": "Feature",
  "id": "node/6768838305",
  "properties": {
    "amenity": "toilets",
    "id": "node/6768838305"
  },
  "geometry": {
    "type": "Point",
    "coordinates": [
      25.2647834,
      54.6677644
    ]
  }
},
{
  "type": "Feature",
  "id": "node/6769036689",
  "properties": {
    "amenity": "toilets",
    "id": "node/6769036689"
  },
  "geometry": {
    "type": "Point",
    "coordinates": [
      24.007822,
      54.9201781
    ]
  }
},
{
  "type": "Feature",
  "id": "node/6769195576",
  "properties": {
    "amenity": "toilets",
    "id": "node/6769195576"
  },
  "geometry": {
    "type": "Point",
    "coordinates": [
      25.1694861,
      54.6555532
    ]
  }
},
{
  "type": "Feature",
  "id": "node/6772833556",
  "properties": {
    "amenity": "toilets",
    "changing_table": "no",
    "fee": "no",
    "toilets:disposal": "bucket",
    "id": "node/6772833556"
  },
  "geometry": {
    "type": "Point",
    "coordinates": [
      23.3941614,
      56.2976169
    ]
  }
},
{
  "type": "Feature",
  "id": "node/6776874204",
  "properties": {
    "amenity": "toilets",
    "id": "node/6776874204"
  },
  "geometry": {
    "type": "Point",
    "coordinates": [
      25.1660162,
      54.6558572
    ]
  }
},
{
  "type": "Feature",
  "id": "node/6780714427",
  "properties": {
    "amenity": "toilets",
    "id": "node/6780714427"
  },
  "geometry": {
    "type": "Point",
    "coordinates": [
      22.2409257,
      55.9659431
    ]
  }
},
{
  "type": "Feature",
  "id": "node/6794788787",
  "properties": {
    "amenity": "toilets",
    "id": "node/6794788787"
  },
  "geometry": {
    "type": "Point",
    "coordinates": [
      21.8981091,
      56.1903282
    ]
  }
},
{
  "type": "Feature",
  "id": "node/6909724940",
  "properties": {
    "amenity": "toilets",
    "fee": "no",
    "level": "-1",
    "wheelchair": "no",
    "id": "node/6909724940"
  },
  "geometry": {
    "type": "Point",
    "coordinates": [
      25.2766164,
      54.6938766
    ]
  }
},
{
  "type": "Feature",
  "id": "node/6969082847",
  "properties": {
    "amenity": "toilets",
    "id": "node/6969082847"
  },
  "geometry": {
    "type": "Point",
    "coordinates": [
      24.4398737,
      54.1434233
    ]
  }
},
{
  "type": "Feature",
  "id": "node/7021318074",
  "properties": {
    "amenity": "toilets",
    "level": "0",
    "id": "node/7021318074"
  },
  "geometry": {
    "type": "Point",
    "coordinates": [
      24.0737372,
      54.9671095
    ]
  }
},
{
  "type": "Feature",
  "id": "node/7059874745",
  "properties": {
    "amenity": "toilets",
    "changing_table": "no",
    "fee": "no",
    "toilets:handwashing": "no",
    "toilets:hot_water": "no",
    "toilets:type": "mobile",
    "unisex": "yes",
    "wheelchair": "no",
    "id": "node/7059874745"
  },
  "geometry": {
    "type": "Point",
    "coordinates": [
      25.2386344,
      54.7281238
    ]
  }
},
{
  "type": "Feature",
  "id": "node/7059874746",
  "properties": {
    "amenity": "toilets",
    "changing_table": "no",
    "fee": "no",
    "toilets:handwashing": "no",
    "toilets:hot_water": "no",
    "toilets:type": "mobile",
    "unisex": "yes",
    "wheelchair": "no",
    "id": "node/7059874746"
  },
  "geometry": {
    "type": "Point",
    "coordinates": [
      25.2385794,
      54.7281059
    ]
  }
},
{
  "type": "Feature",
  "id": "node/7077426015",
  "properties": {
    "amenity": "toilets",
    "id": "node/7077426015"
  },
  "geometry": {
    "type": "Point",
    "coordinates": [
      25.7432913,
      54.7161377
    ]
  }
},
{
  "type": "Feature",
  "id": "node/7090749992",
  "properties": {
    "amenity": "toilets",
    "changing_table": "no",
    "toilets:disposal": "pitlatrine",
    "toilets:handwashing": "no",
    "unisex": "yes",
    "id": "node/7090749992"
  },
  "geometry": {
    "type": "Point",
    "coordinates": [
      22.9243373,
      54.6380631
    ]
  }
},
{
  "type": "Feature",
  "id": "node/7197399246",
  "properties": {
    "amenity": "toilets",
    "id": "node/7197399246"
  },
  "geometry": {
    "type": "Point",
    "coordinates": [
      24.6087932,
      54.7944283
    ]
  }
},
{
  "type": "Feature",
  "id": "node/7274343926",
  "properties": {
    "amenity": "toilets",
    "id": "node/7274343926"
  },
  "geometry": {
    "type": "Point",
    "coordinates": [
      23.2569723,
      55.9144122
    ]
  }
},
{
  "type": "Feature",
  "id": "node/7280410765",
  "properties": {
    "access": "yes",
    "amenity": "toilets",
    "id": "node/7280410765"
  },
  "geometry": {
    "type": "Point",
    "coordinates": [
      25.1382336,
      54.6573795
    ]
  }
},
{
  "type": "Feature",
  "id": "node/7630434738",
  "properties": {
    "amenity": "toilets",
    "toilets:disposal": "longdrop",
    "id": "node/7630434738"
  },
  "geometry": {
    "type": "Point",
    "coordinates": [
      25.5801605,
      55.0121276
    ]
  }
},
{
  "type": "Feature",
  "id": "node/7630558622",
  "properties": {
    "amenity": "toilets",
    "toilets:disposal": "longdrop",
    "id": "node/7630558622"
  },
  "geometry": {
    "type": "Point",
    "coordinates": [
      25.4963465,
      55.0429249
    ]
  }
},
{
  "type": "Feature",
  "id": "node/7633960347",
  "properties": {
    "amenity": "toilets",
    "fee": "yes",
    "id": "node/7633960347"
  },
  "geometry": {
    "type": "Point",
    "coordinates": [
      26.2441178,
      55.7280399
    ]
  }
},
{
  "type": "Feature",
  "id": "node/7635868828",
  "properties": {
    "amenity": "toilets",
    "changing_table": "no",
    "fee": "no",
    "toilets:disposal": "pitlatrine",
    "toilets:handwashing": "no",
    "unisex": "yes",
    "wheelchair": "no",
    "id": "node/7635868828"
  },
  "geometry": {
    "type": "Point",
    "coordinates": [
      24.5743299,
      55.1501332
    ]
  }
},
{
  "type": "Feature",
  "id": "node/7635868960",
  "properties": {
    "access": "yes",
    "amenity": "toilets",
    "toilets:disposal": "pitlatrine",
    "id": "node/7635868960"
  },
  "geometry": {
    "type": "Point",
    "coordinates": [
      24.56318,
      55.1371295
    ]
  }
},
{
  "type": "Feature",
  "id": "node/7637616891",
  "properties": {
    "amenity": "toilets",
    "id": "node/7637616891"
  },
  "geometry": {
    "type": "Point",
    "coordinates": [
      25.774092,
      55.266594
    ]
  }
},
{
  "type": "Feature",
  "id": "node/7669386062",
  "properties": {
    "amenity": "toilets",
    "changing_table": "yes",
    "fee": "no",
    "wheelchair": "yes",
    "id": "node/7669386062"
  },
  "geometry": {
    "type": "Point",
    "coordinates": [
      25.2644965,
      54.7106111
    ]
  }
},
{
  "type": "Feature",
  "id": "node/7704985583",
  "properties": {
    "amenity": "toilets",
    "fee": "no",
    "toilets:paper_supplied": "no",
    "toilets:type": "mobile",
    "unisex": "yes",
    "id": "node/7704985583"
  },
  "geometry": {
    "type": "Point",
    "coordinates": [
      23.3372844,
      55.9322339
    ]
  }
},
{
  "type": "Feature",
  "id": "node/7704985584",
  "properties": {
    "amenity": "toilets",
    "drinking_water": "no",
    "fee": "no",
    "toilets:hand_drying": "no",
    "toilets:handwashing": "no",
    "toilets:paper_supplied": "no",
    "toilets:type": "mobile",
    "unisex": "yes",
    "id": "node/7704985584"
  },
  "geometry": {
    "type": "Point",
    "coordinates": [
      23.3177331,
      55.9319067
    ]
  }
},
{
  "type": "Feature",
  "id": "node/7711259941",
  "properties": {
    "amenity": "toilets",
    "fee": "no",
    "toilets:paper_supplied": "no",
    "toilets:type": "mobile",
    "unisex": "yes",
    "id": "node/7711259941"
  },
  "geometry": {
    "type": "Point",
    "coordinates": [
      23.3280382,
      55.9310097
    ]
  }
},
{
  "type": "Feature",
  "id": "node/7714229792",
  "properties": {
    "amenity": "toilets",
    "fee": "no",
    "toilets:paper_supplied": "no",
    "toilets:type": "mobile",
    "unisex": "yes",
    "id": "node/7714229792"
  },
  "geometry": {
    "type": "Point",
    "coordinates": [
      23.3293464,
      55.9301277
    ]
  }
},
{
  "type": "Feature",
  "id": "node/7726703250",
  "properties": {
    "amenity": "toilets",
    "wheelchair": "yes",
    "id": "node/7726703250"
  },
  "geometry": {
    "type": "Point",
    "coordinates": [
      24.9961735,
      54.7073953
    ]
  }
},
{
  "type": "Feature",
  "id": "node/7729091757",
  "properties": {
    "amenity": "toilets",
    "toilets:disposal": "flush",
    "id": "node/7729091757"
  },
  "geometry": {
    "type": "Point",
    "coordinates": [
      25.3758754,
      54.6381592
    ]
  }
},
{
  "type": "Feature",
  "id": "node/7756268730",
  "properties": {
    "amenity": "toilets",
    "id": "node/7756268730"
  },
  "geometry": {
    "type": "Point",
    "coordinates": [
      25.1601881,
      54.700568
    ]
  }
},
{
  "type": "Feature",
  "id": "node/7765274632",
  "properties": {
    "amenity": "toilets",
    "id": "node/7765274632"
  },
  "geometry": {
    "type": "Point",
    "coordinates": [
      24.6816632,
      54.2703893
    ]
  }
},
{
  "type": "Feature",
  "id": "node/7766069886",
  "properties": {
    "amenity": "toilets",
    "opening_hours": "24/7",
    "operator": "ecoservice",
    "id": "node/7766069886"
  },
  "geometry": {
    "type": "Point",
    "coordinates": [
      20.9959618,
      55.3052895
    ]
  }
},
{
  "type": "Feature",
  "id": "node/7786210700",
  "properties": {
    "amenity": "toilets",
    "toilets": "pitlatrine",
    "id": "node/7786210700"
  },
  "geometry": {
    "type": "Point",
    "coordinates": [
      21.0977442,
      55.5276352
    ]
  }
},
{
  "type": "Feature",
  "id": "node/7786229667",
  "properties": {
    "amenity": "toilets",
    "toilets": "pitlatrine",
    "id": "node/7786229667"
  },
  "geometry": {
    "type": "Point",
    "coordinates": [
      21.0989533,
      55.5331055
    ]
  }
},
{
  "type": "Feature",
  "id": "node/7786325172",
  "properties": {
    "amenity": "toilets",
    "toilets": "pitlatrine",
    "id": "node/7786325172"
  },
  "geometry": {
    "type": "Point",
    "coordinates": [
      21.100802,
      55.5462533
    ]
  }
},
{
  "type": "Feature",
  "id": "node/7806467686",
  "properties": {
    "amenity": "toilets",
    "operator": "Municipality of Telšiai",
    "id": "node/7806467686"
  },
  "geometry": {
    "type": "Point",
    "coordinates": [
      22.25375,
      55.9818218
    ]
  }
},
{
  "type": "Feature",
  "id": "node/7806467687",
  "properties": {
    "amenity": "toilets",
    "operator": "Municipality of Telšiai",
    "id": "node/7806467687"
  },
  "geometry": {
    "type": "Point",
    "coordinates": [
      22.2365972,
      55.9749246
    ]
  }
},
{
  "type": "Feature",
  "id": "node/7806468085",
  "properties": {
    "amenity": "toilets",
    "operator": "Municipality of Telšiai",
    "id": "node/7806468085"
  },
  "geometry": {
    "type": "Point",
    "coordinates": [
      22.2596317,
      55.9779262
    ]
  }
},
{
  "type": "Feature",
  "id": "node/7806723688",
  "properties": {
    "amenity": "toilets",
    "id": "node/7806723688"
  },
  "geometry": {
    "type": "Point",
    "coordinates": [
      21.2379683,
      55.8794245
    ]
  }
},
{
  "type": "Feature",
  "id": "node/7820960675",
  "properties": {
    "amenity": "toilets",
    "id": "node/7820960675"
  },
  "geometry": {
    "type": "Point",
    "coordinates": [
      26.1563042,
      55.5819561
    ]
  }
},
{
  "type": "Feature",
  "id": "node/7822227627",
  "properties": {
    "amenity": "toilets",
    "id": "node/7822227627"
  },
  "geometry": {
    "type": "Point",
    "coordinates": [
      22.3083574,
      55.1882785
    ]
  }
},
{
  "type": "Feature",
  "id": "node/7823187381",
  "properties": {
    "amenity": "toilets",
    "id": "node/7823187381"
  },
  "geometry": {
    "type": "Point",
    "coordinates": [
      22.1899317,
      55.3914268
    ]
  }
},
{
  "type": "Feature",
  "id": "node/7823199306",
  "properties": {
    "amenity": "toilets",
    "id": "node/7823199306"
  },
  "geometry": {
    "type": "Point",
    "coordinates": [
      22.1447742,
      55.3612856
    ]
  }
},
{
  "type": "Feature",
  "id": "node/7823912059",
  "properties": {
    "amenity": "toilets",
    "id": "node/7823912059"
  },
  "geometry": {
    "type": "Point",
    "coordinates": [
      22.2930227,
      55.6360698
    ]
  }
},
{
  "type": "Feature",
  "id": "node/7823926312",
  "properties": {
    "amenity": "toilets",
    "id": "node/7823926312"
  },
  "geometry": {
    "type": "Point",
    "coordinates": [
      22.4822546,
      55.7824818
    ]
  }
},
{
  "type": "Feature",
  "id": "node/7823939190",
  "properties": {
    "amenity": "toilets",
    "id": "node/7823939190"
  },
  "geometry": {
    "type": "Point",
    "coordinates": [
      22.3538136,
      55.7128169
    ]
  }
},
{
  "type": "Feature",
  "id": "node/7823939191",
  "properties": {
    "amenity": "toilets",
    "id": "node/7823939191"
  },
  "geometry": {
    "type": "Point",
    "coordinates": [
      22.3408866,
      55.7260512
    ]
  }
},
{
  "type": "Feature",
  "id": "node/7824466848",
  "properties": {
    "amenity": "toilets",
    "id": "node/7824466848"
  },
  "geometry": {
    "type": "Point",
    "coordinates": [
      23.2554239,
      56.1366138
    ]
  }
},
{
  "type": "Feature",
  "id": "node/7824511102",
  "properties": {
    "amenity": "toilets",
    "id": "node/7824511102"
  },
  "geometry": {
    "type": "Point",
    "coordinates": [
      22.1542614,
      55.9770398
    ]
  }
},
{
  "type": "Feature",
  "id": "node/7824571383",
  "properties": {
    "amenity": "toilets",
    "id": "node/7824571383"
  },
  "geometry": {
    "type": "Point",
    "coordinates": [
      21.7689349,
      55.8869061
    ]
  }
},
{
  "type": "Feature",
  "id": "node/7827618831",
  "properties": {
    "amenity": "toilets",
    "opening_hours": "Mo-Su 06:15-20:30",
    "unisex": "yes",
    "wheelchair": "yes",
    "id": "node/7827618831"
  },
  "geometry": {
    "type": "Point",
    "coordinates": [
      23.3136106,
      55.9233272
    ]
  }
},
{
  "type": "Feature",
  "id": "node/7827689725",
  "properties": {
    "amenity": "toilets",
    "fee": "no",
    "toilets:type": "mobile",
    "unisex": "yes",
    "id": "node/7827689725"
  },
  "geometry": {
    "type": "Point",
    "coordinates": [
      23.5434611,
      55.8110059
    ]
  }
},
{
  "type": "Feature",
  "id": "node/7830169720",
  "properties": {
    "access": "yes",
    "amenity": "toilets",
    "fee": "no",
    "toilets:disposal": "dry_toilet",
    "toilets:handwashing": "no",
    "toilets:paper_supplied": "no",
    "toilets:wheelchair": "no",
    "unisex": "yes",
    "id": "node/7830169720"
  },
  "geometry": {
    "type": "Point",
    "coordinates": [
      23.1040335,
      55.7973354
    ]
  }
},
{
  "type": "Feature",
  "id": "node/7832710818",
  "properties": {
    "amenity": "toilets",
    "id": "node/7832710818"
  },
  "geometry": {
    "type": "Point",
    "coordinates": [
      24.7427512,
      54.210142
    ]
  }
},
{
  "type": "Feature",
  "id": "node/7840579018",
  "properties": {
    "access": "yes",
    "amenity": "toilets",
    "drinking_water": "no",
    "fee": "no",
    "opening_hours": "24/7",
    "toilets:disposal": "dry_toilet",
    "toilets:handwashing": "no",
    "toilets:hot_water": "no",
    "toilets:paper_supplied": "no",
    "unisex": "yes",
    "id": "node/7840579018"
  },
  "geometry": {
    "type": "Point",
    "coordinates": [
      22.9433095,
      55.8401457
    ]
  }
},
{
  "type": "Feature",
  "id": "node/7853175901",
  "properties": {
    "amenity": "toilets",
    "female": "yes",
    "male": "yes",
    "id": "node/7853175901"
  },
  "geometry": {
    "type": "Point",
    "coordinates": [
      22.5876575,
      55.4842543
    ]
  }
},
{
  "type": "Feature",
  "id": "node/7853325620",
  "properties": {
    "access": "yes",
    "amenity": "toilets",
    "drinking_water": "no",
    "fee": "no",
    "opening_hours": "24/7",
    "supervised": "no",
    "toilets:handwashing": "no",
    "toilets:hot_water": "no",
    "toilets:type": "mobile",
    "toilets:wheelchair": "no",
    "unisex": "yes",
    "id": "node/7853325620"
  },
  "geometry": {
    "type": "Point",
    "coordinates": [
      23.0490978,
      55.788187
    ]
  }
},
{
  "type": "Feature",
  "id": "node/7869032475",
  "properties": {
    "amenity": "toilets",
    "drinking_water": "no",
    "fee": "no",
    "toilets:hand_drying": "no",
    "toilets:handwashing": "no",
    "toilets:paper_supplied": "no",
    "toilets:type": "mobile",
    "unisex": "yes",
    "id": "node/7869032475"
  },
  "geometry": {
    "type": "Point",
    "coordinates": [
      23.3159727,
      55.9326419
    ]
  }
},
{
  "type": "Feature",
  "id": "node/7881307986",
  "properties": {
    "amenity": "toilets",
    "id": "node/7881307986"
  },
  "geometry": {
    "type": "Point",
    "coordinates": [
      23.339516,
      54.5677291
    ]
  }
},
{
  "type": "Feature",
  "id": "node/7881307987",
  "properties": {
    "amenity": "toilets",
    "id": "node/7881307987"
  },
  "geometry": {
    "type": "Point",
    "coordinates": [
      23.3532065,
      54.5337836
    ]
  }
},
{
  "type": "Feature",
  "id": "node/7881307988",
  "properties": {
    "amenity": "toilets",
    "id": "node/7881307988"
  },
  "geometry": {
    "type": "Point",
    "coordinates": [
      23.371565,
      54.5762057
    ]
  }
},
{
  "type": "Feature",
  "id": "node/7881321585",
  "properties": {
    "amenity": "toilets",
    "id": "node/7881321585"
  },
  "geometry": {
    "type": "Point",
    "coordinates": [
      23.3622904,
      54.5542468
    ]
  }
},
{
  "type": "Feature",
  "id": "node/7881321685",
  "properties": {
    "amenity": "toilets",
    "id": "node/7881321685"
  },
  "geometry": {
    "type": "Point",
    "coordinates": [
      23.3710377,
      54.582943
    ]
  }
},
{
  "type": "Feature",
  "id": "node/7890790061",
  "properties": {
    "amenity": "toilets",
    "id": "node/7890790061"
  },
  "geometry": {
    "type": "Point",
    "coordinates": [
      25.2882794,
      54.6851373
    ]
  }
},
{
  "type": "Feature",
  "id": "node/7899904185",
  "properties": {
    "amenity": "toilets",
    "opening_hours": "Mo-Su 07:00-22:00",
    "id": "node/7899904185"
  },
  "geometry": {
    "type": "Point",
    "coordinates": [
      23.3450539,
      54.5534815
    ]
  }
},
{
  "type": "Feature",
  "id": "node/7902078142",
  "properties": {
    "amenity": "toilets",
    "id": "node/7902078142"
  },
  "geometry": {
    "type": "Point",
    "coordinates": [
      22.5766636,
      55.4111279
    ]
  }
},
{
  "type": "Feature",
  "id": "node/7920425055",
  "properties": {
    "amenity": "toilets",
    "id": "node/7920425055"
  },
  "geometry": {
    "type": "Point",
    "coordinates": [
      26.2594773,
      55.2260751
    ]
  }
},
{
  "type": "Feature",
  "id": "node/7950836868",
  "properties": {
    "access": "yes",
    "amenity": "toilets",
    "toilets:disposal": "pitlatrine",
    "unisex": "yes",
    "wheelchair": "no",
    "id": "node/7950836868"
  },
  "geometry": {
    "type": "Point",
    "coordinates": [
      25.1243721,
      55.543856
    ]
  }
},
{
  "type": "Feature",
  "id": "node/7966597985",
  "properties": {
    "amenity": "toilets",
    "level": "3",
    "id": "node/7966597985"
  },
  "geometry": {
    "type": "Point",
    "coordinates": [
      23.3087906,
      55.9284035
    ]
  }
},
{
  "type": "Feature",
  "id": "node/7973733085",
  "properties": {
    "amenity": "toilets",
    "changing_table": "no",
    "toilets:disposal": "pitlatrine",
    "toilets:handwashing": "no",
    "unisex": "yes",
    "wheelchair": "no",
    "id": "node/7973733085"
  },
  "geometry": {
    "type": "Point",
    "coordinates": [
      23.1921434,
      55.611729
    ]
  }
},
{
  "type": "Feature",
  "id": "node/7996778338",
  "properties": {
    "amenity": "toilets",
    "id": "node/7996778338"
  },
  "geometry": {
    "type": "Point",
    "coordinates": [
      22.5615002,
      55.8704223
    ]
  }
},
{
  "type": "Feature",
  "id": "node/8000888642",
  "properties": {
    "access": "yes",
    "amenity": "toilets",
    "id": "node/8000888642"
  },
  "geometry": {
    "type": "Point",
    "coordinates": [
      23.5573679,
      55.2229972
    ]
  }
},
{
  "type": "Feature",
  "id": "node/8094346524",
  "properties": {
    "amenity": "toilets",
    "opening_hours": "Mo-Su 08:00-22:00",
    "id": "node/8094346524"
  },
  "geometry": {
    "type": "Point",
    "coordinates": [
      21.0763827,
      56.0145922
    ]
  }
},
{
  "type": "Feature",
  "id": "node/8164300192",
  "properties": {
    "amenity": "toilets",
    "capacity": "1",
    "source": "photo",
    "toilets:disposal": "chemical",
    "toilets:type": "mobile",
    "id": "node/8164300192"
  },
  "geometry": {
    "type": "Point",
    "coordinates": [
      23.9773299,
      54.8718781
    ]
  }
},
{
  "type": "Feature",
  "id": "node/8164300193",
  "properties": {
    "amenity": "toilets",
    "capacity": "2",
    "source": "survey",
    "toilets:disposal": "chemical",
    "toilets:type": "mobile",
    "wheelchair": "yes",
    "id": "node/8164300193"
  },
  "geometry": {
    "type": "Point",
    "coordinates": [
      23.9428152,
      54.8943324
    ]
  }
},
{
  "type": "Feature",
  "id": "node/8177574970",
  "properties": {
    "access": "yes",
    "amenity": "toilets",
    "toilets:disposal": "pitlatrine",
    "toilets:handwashing": "no",
    "unisex": "yes",
    "id": "node/8177574970"
  },
  "geometry": {
    "type": "Point",
    "coordinates": [
      22.997496,
      55.0802701
    ]
  }
},
{
  "type": "Feature",
  "id": "node/8219865917",
  "properties": {
    "amenity": "toilets",
    "opening_hours": "24/7",
    "id": "node/8219865917"
  },
  "geometry": {
    "type": "Point",
    "coordinates": [
      23.5173413,
      54.6980688
    ]
  }
},
{
  "type": "Feature",
  "id": "node/8224346765",
  "properties": {
    "amenity": "toilets",
    "changing_table": "no",
    "toilets:disposal": "pitlatrine",
    "unisex": "yes",
    "id": "node/8224346765"
  },
  "geometry": {
    "type": "Point",
    "coordinates": [
      24.666441,
      55.1719078
    ]
  }
},
{
  "type": "Feature",
  "id": "node/8245056326",
  "properties": {
    "access": "yes",
    "amenity": "toilets",
    "id": "node/8245056326"
  },
  "geometry": {
    "type": "Point",
    "coordinates": [
      21.2517643,
      55.8771917
    ]
  }
},
{
  "type": "Feature",
  "id": "node/8245056332",
  "properties": {
    "access": "yes",
    "amenity": "toilets",
    "id": "node/8245056332"
  },
  "geometry": {
    "type": "Point",
    "coordinates": [
      21.2465876,
      55.8776792
    ]
  }
},
{
  "type": "Feature",
  "id": "node/8278610917",
  "properties": {
    "amenity": "toilets",
    "level": "2",
    "id": "node/8278610917"
  },
  "geometry": {
    "type": "Point",
    "coordinates": [
      23.3086941,
      55.9282735
    ]
  }
},
{
  "type": "Feature",
  "id": "node/8279179711",
  "properties": {
    "amenity": "toilets",
    "unisex": "yes",
    "id": "node/8279179711"
  },
  "geometry": {
    "type": "Point",
    "coordinates": [
      24.4400719,
      55.1403736
    ]
  }
},
{
  "type": "Feature",
  "id": "node/8281558858",
  "properties": {
    "amenity": "toilets",
    "id": "node/8281558858"
  },
  "geometry": {
    "type": "Point",
    "coordinates": [
      23.662798,
      55.315873
    ]
  }
},
{
  "type": "Feature",
  "id": "node/8306181114",
  "properties": {
    "amenity": "toilets",
    "name": "WC",
    "id": "node/8306181114"
  },
  "geometry": {
    "type": "Point",
    "coordinates": [
      24.9234474,
      54.6502601
    ]
  }
},
{
  "type": "Feature",
  "id": "node/8378804476",
  "properties": {
    "amenity": "toilets",
    "id": "node/8378804476"
  },
  "geometry": {
    "type": "Point",
    "coordinates": [
      24.5796258,
      55.1457442
    ]
  }
},
{
  "type": "Feature",
  "id": "node/8407795612",
  "properties": {
    "amenity": "toilets",
    "id": "node/8407795612"
  },
  "geometry": {
    "type": "Point",
    "coordinates": [
      23.2005489,
      55.5102809
    ]
  }
},
{
  "type": "Feature",
  "id": "node/8408819426",
  "properties": {
    "amenity": "toilets",
    "id": "node/8408819426"
  },
  "geometry": {
    "type": "Point",
    "coordinates": [
      24.9847546,
      55.3062971
    ]
  }
},
{
  "type": "Feature",
  "id": "node/8414939843",
  "properties": {
    "amenity": "toilets",
    "toilets:disposal": "pitlatrine",
    "unisex": "yes",
    "wheelchair": "yes",
    "id": "node/8414939843"
  },
  "geometry": {
    "type": "Point",
    "coordinates": [
      22.1581164,
      55.9790762
    ]
  }
},
{
  "type": "Feature",
  "id": "node/8440954534",
  "properties": {
    "amenity": "toilets",
    "changing_table": "no",
    "fee": "yes",
    "name": "Toi Toi",
    "wheelchair": "no",
    "id": "node/8440954534"
  },
  "geometry": {
    "type": "Point",
    "coordinates": [
      25.246781,
      54.6824367
    ]
  }
},
{
  "type": "Feature",
  "id": "node/8569856286",
  "properties": {
    "amenity": "toilets",
    "id": "node/8569856286"
  },
  "geometry": {
    "type": "Point",
    "coordinates": [
      21.1308217,
      55.7086137
    ]
  }
},
{
  "type": "Feature",
  "id": "node/8569909956",
  "properties": {
    "amenity": "toilets",
    "id": "node/8569909956"
  },
  "geometry": {
    "type": "Point",
    "coordinates": [
      21.1357178,
      55.7103123
    ]
  }
},
{
  "type": "Feature",
  "id": "node/8595941428",
  "properties": {
    "amenity": "toilets",
    "id": "node/8595941428"
  },
  "geometry": {
    "type": "Point",
    "coordinates": [
      21.0724878,
      55.7942616
    ]
  }
},
{
  "type": "Feature",
  "id": "node/8620643580",
  "properties": {
    "amenity": "toilets",
    "id": "node/8620643580"
  },
  "geometry": {
    "type": "Point",
    "coordinates": [
      26.0137406,
      55.3388094
    ]
  }
},
{
  "type": "Feature",
  "id": "node/8620643583",
  "properties": {
    "amenity": "toilets",
    "id": "node/8620643583"
  },
  "geometry": {
    "type": "Point",
    "coordinates": [
      25.9878058,
      55.3668733
    ]
  }
},
{
  "type": "Feature",
  "id": "node/8620643586",
  "properties": {
    "amenity": "toilets",
    "id": "node/8620643586"
  },
  "geometry": {
    "type": "Point",
    "coordinates": [
      25.993326,
      55.364269
    ]
  }
},
{
  "type": "Feature",
  "id": "node/8620677103",
  "properties": {
    "amenity": "toilets",
    "id": "node/8620677103"
  },
  "geometry": {
    "type": "Point",
    "coordinates": [
      26.2446505,
      55.1592171
    ]
  }
},
{
  "type": "Feature",
  "id": "node/8621678323",
  "properties": {
    "access": "yes",
    "amenity": "toilets",
    "fee": "no",
    "id": "node/8621678323"
  },
  "geometry": {
    "type": "Point",
    "coordinates": [
      23.2082641,
      55.5945123
    ]
  }
},
{
  "type": "Feature",
  "id": "node/8621711998",
  "properties": {
    "access": "yes",
    "amenity": "toilets",
    "fee": "no",
    "id": "node/8621711998"
  },
  "geometry": {
    "type": "Point",
    "coordinates": [
      23.2103,
      55.5923
    ]
  }
},
{
  "type": "Feature",
  "id": "node/8621847208",
  "properties": {
    "access": "yes",
    "amenity": "toilets",
    "fee": "no",
    "toilets:disposal": "pitlatrine",
    "unisex": "yes",
    "id": "node/8621847208"
  },
  "geometry": {
    "type": "Point",
    "coordinates": [
      23.1929,
      55.6082
    ]
  }
},
{
  "type": "Feature",
  "id": "node/8629919045",
  "properties": {
    "amenity": "toilets",
    "id": "node/8629919045"
  },
  "geometry": {
    "type": "Point",
    "coordinates": [
      21.081106,
      55.7619281
    ]
  }
},
{
  "type": "Feature",
  "id": "node/8656605037",
  "properties": {
    "access": "yes",
    "amenity": "toilets",
    "fee": "no",
    "toilets:disposal": "chemical",
    "id": "node/8656605037"
  },
  "geometry": {
    "type": "Point",
    "coordinates": [
      23.540905,
      55.8218645
    ]
  }
},
{
  "type": "Feature",
  "id": "node/8656605192",
  "properties": {
    "access": "yes",
    "amenity": "toilets",
    "fee": "no",
    "toilets:disposal": "chemical",
    "id": "node/8656605192"
  },
  "geometry": {
    "type": "Point",
    "coordinates": [
      23.5346863,
      55.8205264
    ]
  }
},
{
  "type": "Feature",
  "id": "node/8672661699",
  "properties": {
    "amenity": "toilets",
    "id": "node/8672661699"
  },
  "geometry": {
    "type": "Point",
    "coordinates": [
      26.2054402,
      55.1939926
    ]
  }
},
{
  "type": "Feature",
  "id": "node/8686421101",
  "properties": {
    "access": "yes",
    "amenity": "toilets",
    "fee": "no",
    "toilets:disposal": "bucket",
    "toilets:position": "squat",
    "unisex": "yes",
    "wheelchair": "no",
    "id": "node/8686421101"
  },
  "geometry": {
    "type": "Point",
    "coordinates": [
      23.6911239,
      54.8879718
    ]
  }
},
{
  "type": "Feature",
  "id": "node/8735938263",
  "properties": {
    "amenity": "toilets",
    "id": "node/8735938263"
  },
  "geometry": {
    "type": "Point",
    "coordinates": [
      25.1175505,
      55.5331556
    ]
  }
},
{
  "type": "Feature",
  "id": "node/8808520125",
  "properties": {
    "amenity": "toilets",
    "id": "node/8808520125"
  },
  "geometry": {
    "type": "Point",
    "coordinates": [
      24.0802432,
      54.8480251
    ]
  }
},
{
  "type": "Feature",
  "id": "node/8832655551",
  "properties": {
    "amenity": "toilets",
    "id": "node/8832655551"
  },
  "geometry": {
    "type": "Point",
    "coordinates": [
      22.6874194,
      55.4674505
    ]
  }
},
{
  "type": "Feature",
  "id": "node/8842986844",
  "properties": {
    "amenity": "toilets",
    "id": "node/8842986844"
  },
  "geometry": {
    "type": "Point",
    "coordinates": [
      25.3004153,
      54.7096241
    ]
  }
},
{
  "type": "Feature",
  "id": "node/8843016921",
  "properties": {
    "amenity": "toilets",
    "id": "node/8843016921"
  },
  "geometry": {
    "type": "Point",
    "coordinates": [
      25.3009736,
      54.7120193
    ]
  }
},
{
  "type": "Feature",
  "id": "node/8850781718",
  "properties": {
    "amenity": "toilets",
    "id": "node/8850781718"
  },
  "geometry": {
    "type": "Point",
    "coordinates": [
      25.4065323,
      54.7945433
    ]
  }
},
{
  "type": "Feature",
  "id": "node/8850851817",
  "properties": {
    "amenity": "toilets",
    "id": "node/8850851817"
  },
  "geometry": {
    "type": "Point",
    "coordinates": [
      25.423364,
      54.7960453
    ]
  }
}
]
}
