{
"type": "FeatureCollection",
"features": [
{
  "type": "Feature",
  "id": "way/26887136",
  "properties": {
    "addr:city": "Tallinn",
    "addr:country": "EE",
    "addr:housenumber": "95",
    "addr:street": "Narva mnt",
    "amenity": "toilets",
    "building": "yes",
    "maaamet:ETAK": "588902",
    "source:addr": "Maa-amet 2012",
    "id": "way/26887136"
  },
  "geometry": {
    "type": "Polygon",
    "coordinates": [
      [
        [
          24.8075053,
          59.4432238
        ],
        [
          24.8074557,
          59.4431395
        ],
        [
          24.808293,
          59.4430123
        ],
        [
          24.8083426,
          59.4430966
        ],
        [
          24.8075053,
          59.4432238
        ]
      ]
    ]
  }
},
{
  "type": "Feature",
  "id": "way/27487215",
  "properties": {
    "addr:city": "Viljandi",
    "addr:housenumber": "2",
    "addr:postcode": "71020",
    "addr:street": "Vabaduse plats",
    "amenity": "toilets",
    "building": "public",
    "building:colour": "#956E5B",
    "building:levels": "1",
    "roof:colour": "#9C6E6D",
    "website": "mv.viljandimaa.ee",
    "id": "way/27487215"
  },
  "geometry": {
    "type": "Polygon",
    "coordinates": [
      [
        [
          25.5946544,
          58.3628969
        ],
        [
          25.5946251,
          58.3629824
        ],
        [
          25.5944936,
          58.3629701
        ],
        [
          25.5945166,
          58.3629018
        ],
        [
          25.5945469,
          58.3629041
        ],
        [
          25.5945524,
          58.3628885
        ],
        [
          25.5946544,
          58.3628969
        ]
      ]
    ]
  }
},
{
  "type": "Feature",
  "id": "way/105834354",
  "properties": {
    "amenity": "toilets",
    "building": "yes",
    "building:levels": "1",
    "fee": "no",
    "id": "way/105834354"
  },
  "geometry": {
    "type": "Polygon",
    "coordinates": [
      [
        [
          28.1568437,
          59.377615
        ],
        [
          28.1568493,
          59.3775662
        ],
        [
          28.156906,
          59.3775679
        ],
        [
          28.1569004,
          59.3776167
        ],
        [
          28.1568437,
          59.377615
        ]
      ]
    ]
  }
},
{
  "type": "Feature",
  "id": "way/106376826",
  "properties": {
    "addr:city": "Kuremäe küla",
    "addr:housename": "Kullamaja",
    "addr:postcode": "41201",
    "amenity": "toilets",
    "building": "yes",
    "maaamet:ETAK": "6713268",
    "source:addr": "Maa-amet 2019",
    "id": "way/106376826"
  },
  "geometry": {
    "type": "Polygon",
    "coordinates": [
      [
        [
          27.5312299,
          59.2026203
        ],
        [
          27.5312172,
          59.2025315
        ],
        [
          27.5314207,
          59.2025239
        ],
        [
          27.5314334,
          59.2026127
        ],
        [
          27.5312299,
          59.2026203
        ]
      ]
    ]
  }
},
{
  "type": "Feature",
  "id": "way/179323200",
  "properties": {
    "addr:city": "Võru",
    "addr:country": "EE",
    "addr:housenumber": "36a",
    "addr:postcode": "65603",
    "addr:street": "Männiku",
    "amenity": "toilets",
    "building": "yes",
    "fee": "no",
    "maaamet:ETAK": "72684",
    "source:addr": "Maa-amet 2019",
    "wheelchair": "no",
    "id": "way/179323200"
  },
  "geometry": {
    "type": "Polygon",
    "coordinates": [
      [
        [
          27.0037613,
          57.8122
        ],
        [
          27.0037758,
          57.8121509
        ],
        [
          27.0038603,
          57.812158
        ],
        [
          27.0038459,
          57.8122071
        ],
        [
          27.0037613,
          57.8122
        ]
      ]
    ]
  }
},
{
  "type": "Feature",
  "id": "way/180363010",
  "properties": {
    "addr:city": "Võru",
    "addr:country": "EE",
    "addr:housenumber": "4b",
    "addr:postcode": "65609",
    "addr:street": "Vee",
    "amenity": "toilets",
    "building": "toilets",
    "fee": "no",
    "maaamet:ETAK": "6348670",
    "source:addr": "Maa-amet 2019",
    "wheelchair": "limited",
    "id": "way/180363010"
  },
  "geometry": {
    "type": "Polygon",
    "coordinates": [
      [
        [
          26.9925171,
          57.8436077
        ],
        [
          26.9926453,
          57.8436766
        ],
        [
          26.9925812,
          57.8437104
        ],
        [
          26.992453,
          57.8436415
        ],
        [
          26.9925171,
          57.8436077
        ]
      ]
    ]
  }
},
{
  "type": "Feature",
  "id": "way/211668792",
  "properties": {
    "addr:city": "Antsla",
    "addr:country": "EE",
    "addr:housenumber": "2a",
    "addr:street": "Veski",
    "amenity": "toilets",
    "building": "yes",
    "maaamet:ETAK": "6347852",
    "source:addr": "Maa-amet 2012",
    "id": "way/211668792"
  },
  "geometry": {
    "type": "Polygon",
    "coordinates": [
      [
        [
          26.529467,
          57.828435
        ],
        [
          26.529447,
          57.828466
        ],
        [
          26.529351,
          57.828449
        ],
        [
          26.529372,
          57.828418
        ],
        [
          26.529467,
          57.828435
        ]
      ]
    ]
  }
},
{
  "type": "Feature",
  "id": "way/215274055",
  "properties": {
    "access": "yes",
    "addr:city": "Pärnu",
    "addr:country": "EE",
    "addr:housenumber": "9",
    "addr:street": "Kalda",
    "amenity": "toilets",
    "building": "toilets",
    "charge": "0.40 EUR",
    "fee": "yes",
    "female": "yes",
    "maaamet:ETAK": "89178",
    "male": "yes",
    "source:addr": "Maa-amet 2012",
    "supervised": "yes",
    "toilets:disposal": "flush",
    "wheelchair": "limited",
    "id": "way/215274055"
  },
  "geometry": {
    "type": "Polygon",
    "coordinates": [
      [
        [
          24.495258,
          58.387047
        ],
        [
          24.495218,
          58.387098
        ],
        [
          24.495102,
          58.387073
        ],
        [
          24.495142,
          58.387022
        ],
        [
          24.495258,
          58.387047
        ]
      ]
    ]
  }
},
{
  "type": "Feature",
  "id": "way/224953352",
  "properties": {
    "amenity": "toilets",
    "id": "way/224953352"
  },
  "geometry": {
    "type": "Polygon",
    "coordinates": [
      [
        [
          24.5472515,
          59.5408564
        ],
        [
          24.5472552,
          59.5408271
        ],
        [
          24.5474107,
          59.5408321
        ],
        [
          24.547407,
          59.5408615
        ],
        [
          24.5472515,
          59.5408564
        ]
      ]
    ]
  }
},
{
  "type": "Feature",
  "id": "way/227694350",
  "properties": {
    "access": "yes",
    "amenity": "toilets",
    "building": "yes",
    "fee": "no",
    "operator": "RMK",
    "toilets:disposal": "pitlatrine",
    "id": "way/227694350"
  },
  "geometry": {
    "type": "Polygon",
    "coordinates": [
      [
        [
          24.770063,
          58.1217592
        ],
        [
          24.7700428,
          58.1217945
        ],
        [
          24.7699826,
          58.1217848
        ],
        [
          24.7700029,
          58.1217496
        ],
        [
          24.770063,
          58.1217592
        ]
      ]
    ]
  }
},
{
  "type": "Feature",
  "id": "way/227694351",
  "properties": {
    "access": "yes",
    "amenity": "toilets",
    "building": "yes",
    "fee": "no",
    "operator": "RMK",
    "toilets:disposal": "pitlatrine",
    "id": "way/227694351"
  },
  "geometry": {
    "type": "Polygon",
    "coordinates": [
      [
        [
          24.770131,
          58.1216543
        ],
        [
          24.7701162,
          58.1216869
        ],
        [
          24.7700585,
          58.1216796
        ],
        [
          24.7700733,
          58.121647
        ],
        [
          24.770131,
          58.1216543
        ]
      ]
    ]
  }
},
{
  "type": "Feature",
  "id": "way/231383120",
  "properties": {
    "amenity": "toilets",
    "building": "toilet",
    "id": "way/231383120"
  },
  "geometry": {
    "type": "Polygon",
    "coordinates": [
      [
        [
          26.7660803,
          57.6308066
        ],
        [
          26.7660588,
          57.6307986
        ],
        [
          26.7660743,
          57.6307867
        ],
        [
          26.7660957,
          57.6307946
        ],
        [
          26.7660803,
          57.6308066
        ]
      ]
    ]
  }
},
{
  "type": "Feature",
  "id": "way/231841408",
  "properties": {
    "access": "yes",
    "addr:country": "EE",
    "amenity": "toilets",
    "building": "yes",
    "fee": "no",
    "operator": "RMK",
    "source": "Maa-amet 2013",
    "wheelchair": "yes",
    "id": "way/231841408"
  },
  "geometry": {
    "type": "Polygon",
    "coordinates": [
      [
        [
          26.0143075,
          59.4473055
        ],
        [
          26.0142225,
          59.4473254
        ],
        [
          26.0141949,
          59.4472948
        ],
        [
          26.0142798,
          59.447275
        ],
        [
          26.0143075,
          59.4473055
        ]
      ]
    ]
  }
},
{
  "type": "Feature",
  "id": "way/233264701",
  "properties": {
    "addr:city": "Pärnu",
    "addr:country": "EE",
    "addr:housenumber": "11a/1",
    "addr:postcode": "80012",
    "addr:street": "Ranna pst",
    "amenity": "toilets",
    "building": "yes",
    "maaamet:ETAK": "5388731",
    "source:addr": "Maa-amet 2019",
    "id": "way/233264701"
  },
  "geometry": {
    "type": "Polygon",
    "coordinates": [
      [
        [
          24.5080287,
          58.3715217
        ],
        [
          24.508073,
          58.3714721
        ],
        [
          24.5081401,
          58.3714951
        ],
        [
          24.5081897,
          58.3715281
        ],
        [
          24.5082167,
          58.3715677
        ],
        [
          24.5082183,
          58.3716097
        ],
        [
          24.5081943,
          58.3716498
        ],
        [
          24.5081473,
          58.3716838
        ],
        [
          24.508082,
          58.3717082
        ],
        [
          24.5080302,
          58.3716554
        ],
        [
          24.5080676,
          58.3716419
        ],
        [
          24.5080948,
          58.3716228
        ],
        [
          24.508109,
          58.3716002
        ],
        [
          24.5081087,
          58.3715764
        ],
        [
          24.508094,
          58.3715539
        ],
        [
          24.5080664,
          58.371535
        ],
        [
          24.5080287,
          58.3715217
        ]
      ]
    ]
  }
},
{
  "type": "Feature",
  "id": "way/235052220",
  "properties": {
    "access": "permissive",
    "addr:city": "Vetepere küla",
    "addr:country": "EE",
    "addr:housename": "Simisalu matkakodu",
    "addr:postcode": "73416",
    "amenity": "toilets",
    "bicycle": "yes",
    "building": "yes",
    "foot": "yes",
    "horse": "no",
    "maaamet:ETAK": "517192",
    "motor_vehicle": "no",
    "operator": "RMK",
    "source:addr": "Maa-amet 2019",
    "id": "way/235052220"
  },
  "geometry": {
    "type": "Polygon",
    "coordinates": [
      [
        [
          25.5632821,
          59.1067436
        ],
        [
          25.5632594,
          59.1066293
        ],
        [
          25.5633775,
          59.1066223
        ],
        [
          25.5634048,
          59.1067342
        ],
        [
          25.5632821,
          59.1067436
        ]
      ]
    ]
  }
},
{
  "type": "Feature",
  "id": "way/248223881",
  "properties": {
    "access": "yes",
    "addr:city": "Kauksi küla",
    "addr:country": "EE",
    "addr:housename": "Kauksi rand",
    "addr:postcode": "41008",
    "amenity": "toilets",
    "building": "toilets",
    "maaamet:ETAK": "6113815",
    "source": "Maa-amet 2013",
    "source:addr": "Maa-amet 2019",
    "id": "way/248223881"
  },
  "geometry": {
    "type": "Polygon",
    "coordinates": [
      [
        [
          27.229,
          58.989789
        ],
        [
          27.228961,
          58.989897
        ],
        [
          27.228847,
          58.989886
        ],
        [
          27.228868,
          58.989829
        ],
        [
          27.228822,
          58.989825
        ],
        [
          27.228801,
          58.989883
        ],
        [
          27.228704,
          58.989874
        ],
        [
          27.228744,
          58.989764
        ],
        [
          27.229,
          58.989789
        ]
      ]
    ]
  }
},
{
  "type": "Feature",
  "id": "way/249911589",
  "properties": {
    "access": "private",
    "addr:city": "Roobi küla",
    "addr:country": "EE",
    "addr:housename": "Teelahkme",
    "addr:postcode": "66279",
    "amenity": "toilets",
    "building": "yes",
    "maaamet:ETAK": "59441",
    "name": "Tiilahkmõ talu",
    "source:addr": "Maa-amet 2019",
    "id": "way/249911589"
  },
  "geometry": {
    "type": "Polygon",
    "coordinates": [
      [
        [
          26.8619154,
          57.667096
        ],
        [
          26.8620749,
          57.6670505
        ],
        [
          26.8621723,
          57.6671427
        ],
        [
          26.8620126,
          57.6671894
        ],
        [
          26.8619154,
          57.667096
        ]
      ]
    ]
  }
},
{
  "type": "Feature",
  "id": "way/278982521",
  "properties": {
    "access": "customers",
    "amenity": "toilets",
    "id": "way/278982521"
  },
  "geometry": {
    "type": "Polygon",
    "coordinates": [
      [
        [
          26.7438693,
          58.365464
        ],
        [
          26.7439587,
          58.365466
        ],
        [
          26.7439521,
          58.3655467
        ],
        [
          26.7438627,
          58.3655447
        ],
        [
          26.7438673,
          58.3654875
        ],
        [
          26.7438693,
          58.365464
        ]
      ]
    ]
  }
},
{
  "type": "Feature",
  "id": "way/354558807",
  "properties": {
    "amenity": "toilets",
    "building": "yes",
    "source": "Kullamaa vallavalitsus topographic map",
    "id": "way/354558807"
  },
  "geometry": {
    "type": "Polygon",
    "coordinates": [
      [
        [
          24.0756927,
          58.8810582
        ],
        [
          24.0756547,
          58.8810551
        ],
        [
          24.0756577,
          58.8810449
        ],
        [
          24.0757371,
          58.8810512
        ],
        [
          24.0757341,
          58.8810614
        ],
        [
          24.0756961,
          58.8810584
        ],
        [
          24.0756932,
          58.8810684
        ],
        [
          24.0756897,
          58.8810681
        ],
        [
          24.0756927,
          58.8810582
        ]
      ]
    ]
  }
},
{
  "type": "Feature",
  "id": "way/364808663",
  "properties": {
    "access": "yes",
    "amenity": "toilets",
    "building": "yes",
    "drinking_water": "no",
    "fee": "no",
    "female": "yes",
    "male": "yes",
    "wheelchair": "no",
    "id": "way/364808663"
  },
  "geometry": {
    "type": "Polygon",
    "coordinates": [
      [
        [
          27.5970678,
          58.0549125
        ],
        [
          27.5970693,
          58.0549
        ],
        [
          27.5970914,
          58.0549007
        ],
        [
          27.5970899,
          58.0549132
        ],
        [
          27.5970678,
          58.0549125
        ]
      ]
    ]
  }
},
{
  "type": "Feature",
  "id": "way/376310798",
  "properties": {
    "amenity": "toilets",
    "level": "0",
    "wheelchair": "yes",
    "id": "way/376310798"
  },
  "geometry": {
    "type": "Polygon",
    "coordinates": [
      [
        [
          26.6773666,
          58.3579551
        ],
        [
          26.6772806,
          58.3579813
        ],
        [
          26.6771687,
          58.35788
        ],
        [
          26.6772547,
          58.3578537
        ],
        [
          26.6773666,
          58.3579551
        ]
      ]
    ]
  }
},
{
  "type": "Feature",
  "id": "way/378658930",
  "properties": {
    "access": "yes",
    "addr:city": "Elbiku küla",
    "addr:housename": "Riguldi metskond 20",
    "addr:postcode": "91202",
    "amenity": "toilets",
    "building": "yes",
    "maaamet:ETAK": "5561347",
    "source:addr": "Maa-amet 2019",
    "id": "way/378658930"
  },
  "geometry": {
    "type": "Polygon",
    "coordinates": [
      [
        [
          23.5181421,
          59.1562479
        ],
        [
          23.5181602,
          59.1562138
        ],
        [
          23.5183013,
          59.1562335
        ],
        [
          23.5182831,
          59.1562676
        ],
        [
          23.5181421,
          59.1562479
        ]
      ]
    ]
  }
},
{
  "type": "Feature",
  "id": "way/406049982",
  "properties": {
    "access": "yes",
    "amenity": "toilets",
    "building": "yes",
    "changing_table": "no",
    "unisex": "yes",
    "id": "way/406049982"
  },
  "geometry": {
    "type": "Polygon",
    "coordinates": [
      [
        [
          26.5878711,
          58.5853358
        ],
        [
          26.5878711,
          58.585319
        ],
        [
          26.5879167,
          58.585319
        ],
        [
          26.5879167,
          58.5853358
        ],
        [
          26.5878711,
          58.5853358
        ]
      ]
    ]
  }
},
{
  "type": "Feature",
  "id": "way/435365930",
  "properties": {
    "amenity": "toilets",
    "building": "yes",
    "id": "way/435365930"
  },
  "geometry": {
    "type": "Polygon",
    "coordinates": [
      [
        [
          25.6902486,
          58.2775552
        ],
        [
          25.6902503,
          58.277532
        ],
        [
          25.6902874,
          58.2775327
        ],
        [
          25.6902858,
          58.2775559
        ],
        [
          25.6902486,
          58.2775552
        ]
      ]
    ]
  }
},
{
  "type": "Feature",
  "id": "way/435365935",
  "properties": {
    "amenity": "toilets",
    "building": "yes",
    "id": "way/435365935"
  },
  "geometry": {
    "type": "Polygon",
    "coordinates": [
      [
        [
          25.5472498,
          58.2018263
        ],
        [
          25.5472444,
          58.2018141
        ],
        [
          25.547265,
          58.2018116
        ],
        [
          25.5472704,
          58.2018237
        ],
        [
          25.5472498,
          58.2018263
        ]
      ]
    ]
  }
},
{
  "type": "Feature",
  "id": "way/442030399",
  "properties": {
    "amenity": "toilets",
    "building": "yes",
    "id": "way/442030399"
  },
  "geometry": {
    "type": "Polygon",
    "coordinates": [
      [
        [
          24.4912921,
          58.3854333
        ],
        [
          24.4912763,
          58.3853841
        ],
        [
          24.491441,
          58.3853695
        ],
        [
          24.4914568,
          58.3854189
        ],
        [
          24.4912921,
          58.3854333
        ]
      ]
    ]
  }
},
{
  "type": "Feature",
  "id": "way/587737700",
  "properties": {
    "addr:city": "Tartu",
    "addr:housenumber": "1b",
    "addr:postcode": "50603",
    "addr:street": "Paju",
    "amenity": "toilets",
    "building": "yes",
    "building:levels": "1",
    "maaamet:ETAK": "7293885",
    "roof:shape": "round",
    "source:addr": "Maa-amet 2019",
    "id": "way/587737700"
  },
  "geometry": {
    "type": "Polygon",
    "coordinates": [
      [
        [
          26.739593,
          58.3783091
        ],
        [
          26.7396432,
          58.3782804
        ],
        [
          26.7397283,
          58.3783189
        ],
        [
          26.7396791,
          58.3783482
        ],
        [
          26.739593,
          58.3783091
        ]
      ]
    ]
  }
},
{
  "type": "Feature",
  "id": "way/601813439",
  "properties": {
    "access": "yes",
    "amenity": "toilets",
    "building": "yes",
    "changing_table": "no",
    "fee": "no",
    "toilets:disposal": "pitlatrine",
    "unisex": "yes",
    "id": "way/601813439"
  },
  "geometry": {
    "type": "Polygon",
    "coordinates": [
      [
        [
          25.603957,
          59.5973961
        ],
        [
          25.603953,
          59.5973686
        ],
        [
          25.6040093,
          59.5973665
        ],
        [
          25.604012,
          59.5973937
        ],
        [
          25.603957,
          59.5973961
        ]
      ]
    ]
  }
},
{
  "type": "Feature",
  "id": "way/629298192",
  "properties": {
    "amenity": "toilets",
    "building": "yes",
    "id": "way/629298192"
  },
  "geometry": {
    "type": "Polygon",
    "coordinates": [
      [
        [
          25.6042057,
          58.3596805
        ],
        [
          25.6042079,
          58.3596779
        ],
        [
          25.6042116,
          58.3596759
        ],
        [
          25.6042155,
          58.3596748
        ],
        [
          25.6042213,
          58.3596743
        ],
        [
          25.6042254,
          58.3596747
        ],
        [
          25.6042305,
          58.3596761
        ],
        [
          25.6042341,
          58.3596781
        ],
        [
          25.6042352,
          58.3596792
        ],
        [
          25.6042365,
          58.359682
        ],
        [
          25.6042364,
          58.3596835
        ],
        [
          25.6042351,
          58.359686
        ],
        [
          25.6042313,
          58.3596887
        ],
        [
          25.6042262,
          58.3596903
        ],
        [
          25.6042219,
          58.3596908
        ],
        [
          25.6042176,
          58.3596906
        ],
        [
          25.6042138,
          58.3596899
        ],
        [
          25.6042106,
          58.3596888
        ],
        [
          25.6042071,
          58.3596865
        ],
        [
          25.6042053,
          58.3596837
        ],
        [
          25.6042057,
          58.3596805
        ]
      ]
    ]
  }
},
{
  "type": "Feature",
  "id": "way/673174851",
  "properties": {
    "access": "private",
    "amenity": "toilets",
    "building": "yes",
    "unisex": "yes",
    "id": "way/673174851"
  },
  "geometry": {
    "type": "Polygon",
    "coordinates": [
      [
        [
          26.7336912,
          59.4462406
        ],
        [
          26.733698,
          59.4462318
        ],
        [
          26.7337045,
          59.4462233
        ],
        [
          26.7337405,
          59.44623
        ],
        [
          26.7337291,
          59.4462483
        ],
        [
          26.7336912,
          59.4462406
        ]
      ]
    ]
  }
},
{
  "type": "Feature",
  "id": "way/718126201",
  "properties": {
    "amenity": "toilets",
    "building": "yes",
    "id": "way/718126201"
  },
  "geometry": {
    "type": "Polygon",
    "coordinates": [
      [
        [
          23.4092956,
          59.2766819
        ],
        [
          23.4093618,
          59.276626
        ],
        [
          23.4093995,
          59.2766377
        ],
        [
          23.4093334,
          59.2766936
        ],
        [
          23.4092956,
          59.2766819
        ]
      ]
    ]
  }
},
{
  "type": "Feature",
  "id": "way/724693837",
  "properties": {
    "access": "customers",
    "amenity": "toilets",
    "building": "yes",
    "id": "way/724693837"
  },
  "geometry": {
    "type": "Polygon",
    "coordinates": [
      [
        [
          24.4185039,
          57.9915264
        ],
        [
          24.4185673,
          57.9915945
        ],
        [
          24.4185037,
          57.9916111
        ],
        [
          24.4184403,
          57.991543
        ],
        [
          24.4185039,
          57.9915264
        ]
      ]
    ]
  }
},
{
  "type": "Feature",
  "id": "way/878352226",
  "properties": {
    "access": "yes",
    "amenity": "toilets",
    "female": "yes",
    "indoor": "room",
    "level": "0",
    "male": "yes",
    "toilets:disposal": "flush",
    "wheelchair": "yes",
    "id": "way/878352226"
  },
  "geometry": {
    "type": "Polygon",
    "coordinates": [
      [
        [
          24.7931904,
          59.4209036
        ],
        [
          24.793072,
          59.4209058
        ],
        [
          24.7930628,
          59.4207569
        ],
        [
          24.7931814,
          59.4207548
        ],
        [
          24.7931904,
          59.4209036
        ]
      ]
    ]
  }
},
{
  "type": "Feature",
  "id": "way/878352269",
  "properties": {
    "amenity": "toilets",
    "indoor": "room",
    "level": "1",
    "id": "way/878352269"
  },
  "geometry": {
    "type": "Polygon",
    "coordinates": [
      [
        [
          24.7931808,
          59.4208345
        ],
        [
          24.7930772,
          59.4208344
        ],
        [
          24.7930717,
          59.420667
        ],
        [
          24.7931745,
          59.4206659
        ],
        [
          24.7931808,
          59.4208345
        ]
      ]
    ]
  }
},
{
  "type": "Feature",
  "id": "way/878582670",
  "properties": {
    "amenity": "toilets",
    "indoor": "room",
    "level": "1",
    "id": "way/878582670"
  },
  "geometry": {
    "type": "Polygon",
    "coordinates": [
      [
        [
          24.7943158,
          59.4222001
        ],
        [
          24.7943125,
          59.4221181
        ],
        [
          24.7947854,
          59.4221132
        ],
        [
          24.7947887,
          59.4221951
        ],
        [
          24.7945857,
          59.4221972
        ],
        [
          24.7943158,
          59.4222001
        ]
      ]
    ]
  }
},
{
  "type": "Feature",
  "id": "way/905802884",
  "properties": {
    "amenity": "toilets",
    "indoor": "room",
    "level": "1",
    "id": "way/905802884"
  },
  "geometry": {
    "type": "Polygon",
    "coordinates": [
      [
        [
          24.7247148,
          59.4266396
        ],
        [
          24.7247532,
          59.4265919
        ],
        [
          24.7249816,
          59.4266383
        ],
        [
          24.7249448,
          59.4266858
        ],
        [
          24.7247148,
          59.4266396
        ]
      ]
    ]
  }
},
{
  "type": "Feature",
  "id": "way/921760985",
  "properties": {
    "amenity": "toilets",
    "fee": "no",
    "indoor": "room",
    "level": "0",
    "wheelchair": "yes",
    "id": "way/921760985"
  },
  "geometry": {
    "type": "Polygon",
    "coordinates": [
      [
        [
          24.6626981,
          59.3969625
        ],
        [
          24.6626979,
          59.3969298
        ],
        [
          24.6627557,
          59.3969296
        ],
        [
          24.6627556,
          59.3969625
        ],
        [
          24.6626981,
          59.3969625
        ]
      ]
    ]
  }
},
{
  "type": "Feature",
  "id": "way/921760986",
  "properties": {
    "amenity": "toilets",
    "fee": "no",
    "level": "0",
    "wheelchair": "yes",
    "id": "way/921760986"
  },
  "geometry": {
    "type": "Polygon",
    "coordinates": [
      [
        [
          24.6626473,
          59.3968839
        ],
        [
          24.662647,
          59.3968199
        ],
        [
          24.662697,
          59.39682
        ],
        [
          24.662697,
          59.3968838
        ],
        [
          24.6626473,
          59.3968839
        ]
      ]
    ]
  }
},
{
  "type": "Feature",
  "id": "way/958659273",
  "properties": {
    "access": "customers",
    "amenity": "toilets",
    "building": "yes",
    "toilets:disposal": "flush",
    "id": "way/958659273"
  },
  "geometry": {
    "type": "Polygon",
    "coordinates": [
      [
        [
          25.6123044,
          59.283482
        ],
        [
          25.6123314,
          59.2834361
        ],
        [
          25.6124422,
          59.2834531
        ],
        [
          25.6124152,
          59.283499
        ],
        [
          25.6123044,
          59.283482
        ]
      ]
    ]
  }
},
{
  "type": "Feature",
  "id": "way/984867330",
  "properties": {
    "amenity": "toilets",
    "building": "yes",
    "wheelchair": "yes",
    "id": "way/984867330"
  },
  "geometry": {
    "type": "Polygon",
    "coordinates": [
      [
        [
          22.7169989,
          58.5913507
        ],
        [
          22.7167398,
          58.5912783
        ],
        [
          22.7167762,
          58.5912429
        ],
        [
          22.7170353,
          58.5913154
        ],
        [
          22.7169989,
          58.5913507
        ]
      ]
    ]
  }
},
{
  "type": "Feature",
  "id": "node/338406575",
  "properties": {
    "amenity": "toilets",
    "fee": "no",
    "id": "node/338406575"
  },
  "geometry": {
    "type": "Point",
    "coordinates": [
      25.5700333,
      58.62911
    ]
  }
},
{
  "type": "Feature",
  "id": "node/384301726",
  "properties": {
    "amenity": "toilets",
    "id": "node/384301726"
  },
  "geometry": {
    "type": "Point",
    "coordinates": [
      25.0617759,
      58.366497
    ]
  }
},
{
  "type": "Feature",
  "id": "node/389942892",
  "properties": {
    "access": "yes",
    "amenity": "toilets",
    "fee": "no",
    "toilets:disposal": "pitlatrine",
    "unisex": "yes",
    "id": "node/389942892"
  },
  "geometry": {
    "type": "Point",
    "coordinates": [
      25.5951451,
      59.5887107
    ]
  }
},
{
  "type": "Feature",
  "id": "node/423187620",
  "properties": {
    "amenity": "toilets",
    "fee": "no",
    "id": "node/423187620"
  },
  "geometry": {
    "type": "Point",
    "coordinates": [
      26.5725209,
      57.9430993
    ]
  }
},
{
  "type": "Feature",
  "id": "node/445538971",
  "properties": {
    "amenity": "toilets",
    "id": "node/445538971"
  },
  "geometry": {
    "type": "Point",
    "coordinates": [
      23.0825847,
      58.5951636
    ]
  }
},
{
  "type": "Feature",
  "id": "node/445812007",
  "properties": {
    "amenity": "toilets",
    "id": "node/445812007"
  },
  "geometry": {
    "type": "Point",
    "coordinates": [
      22.8049563,
      58.4057799
    ]
  }
},
{
  "type": "Feature",
  "id": "node/446753948",
  "properties": {
    "amenity": "toilets",
    "note": "Just basic toilet",
    "id": "node/446753948"
  },
  "geometry": {
    "type": "Point",
    "coordinates": [
      23.5923714,
      58.614421
    ]
  }
},
{
  "type": "Feature",
  "id": "node/469168350",
  "properties": {
    "amenity": "toilets",
    "id": "node/469168350"
  },
  "geometry": {
    "type": "Point",
    "coordinates": [
      25.2003086,
      58.4642051
    ]
  }
},
{
  "type": "Feature",
  "id": "node/479325328",
  "properties": {
    "amenity": "toilets",
    "source": "Maa amet WMS 2009; local knowledge",
    "id": "node/479325328"
  },
  "geometry": {
    "type": "Point",
    "coordinates": [
      22.5236314,
      58.161132
    ]
  }
},
{
  "type": "Feature",
  "id": "node/540398612",
  "properties": {
    "amenity": "toilets",
    "fee": "yes",
    "id": "node/540398612"
  },
  "geometry": {
    "type": "Point",
    "coordinates": [
      25.5635727,
      59.567879
    ]
  }
},
{
  "type": "Feature",
  "id": "node/557300870",
  "properties": {
    "amenity": "toilets",
    "fee": "0.20 €",
    "loc_name": "Miljonipeldik",
    "opening_hours": "07:00-23:00",
    "start_date": "2002-01-16",
    "wheelchair": "no",
    "wikidata": "Q12370348",
    "id": "node/557300870"
  },
  "geometry": {
    "type": "Point",
    "coordinates": [
      24.7398072,
      59.4353618
    ]
  }
},
{
  "type": "Feature",
  "id": "node/557300881",
  "properties": {
    "amenity": "toilets",
    "fee": "0.20 €",
    "id": "node/557300881"
  },
  "geometry": {
    "type": "Point",
    "coordinates": [
      24.7383442,
      59.4372719
    ]
  }
},
{
  "type": "Feature",
  "id": "node/617901839",
  "properties": {
    "amenity": "toilets",
    "id": "node/617901839"
  },
  "geometry": {
    "type": "Point",
    "coordinates": [
      24.7393216,
      59.4406321
    ]
  }
},
{
  "type": "Feature",
  "id": "node/643823137",
  "properties": {
    "amenity": "toilets",
    "fee": "yes",
    "wheelchair": "yes",
    "id": "node/643823137"
  },
  "geometry": {
    "type": "Point",
    "coordinates": [
      24.738961,
      59.4396687
    ]
  }
},
{
  "type": "Feature",
  "id": "node/700771022",
  "properties": {
    "amenity": "toilets",
    "fee": "no",
    "wheelchair": "no",
    "id": "node/700771022"
  },
  "geometry": {
    "type": "Point",
    "coordinates": [
      25.5645724,
      59.5758025
    ]
  }
},
{
  "type": "Feature",
  "id": "node/746354854",
  "properties": {
    "amenity": "toilets",
    "id": "node/746354854"
  },
  "geometry": {
    "type": "Point",
    "coordinates": [
      24.7500422,
      59.4362118
    ]
  }
},
{
  "type": "Feature",
  "id": "node/830671803",
  "properties": {
    "amenity": "toilets",
    "id": "node/830671803"
  },
  "geometry": {
    "type": "Point",
    "coordinates": [
      24.5915453,
      58.1833811
    ]
  }
},
{
  "type": "Feature",
  "id": "node/861931772",
  "properties": {
    "amenity": "toilets",
    "id": "node/861931772"
  },
  "geometry": {
    "type": "Point",
    "coordinates": [
      26.2889138,
      58.4345138
    ]
  }
},
{
  "type": "Feature",
  "id": "node/869309329",
  "properties": {
    "access": "customers",
    "amenity": "toilets",
    "fee": "no",
    "unisex": "yes",
    "id": "node/869309329"
  },
  "geometry": {
    "type": "Point",
    "coordinates": [
      24.6625627,
      59.4183227
    ]
  }
},
{
  "type": "Feature",
  "id": "node/869309334",
  "properties": {
    "amenity": "toilets",
    "id": "node/869309334"
  },
  "geometry": {
    "type": "Point",
    "coordinates": [
      24.6586468,
      59.4229334
    ]
  }
},
{
  "type": "Feature",
  "id": "node/908481819",
  "properties": {
    "amenity": "toilets",
    "note": "ecological",
    "operator": "RMK",
    "id": "node/908481819"
  },
  "geometry": {
    "type": "Point",
    "coordinates": [
      26.2675982,
      58.4353229
    ]
  }
},
{
  "type": "Feature",
  "id": "node/918659571",
  "properties": {
    "access": "customers",
    "amenity": "toilets",
    "unisex": "yes",
    "id": "node/918659571"
  },
  "geometry": {
    "type": "Point",
    "coordinates": [
      24.6390546,
      59.4315144
    ]
  }
},
{
  "type": "Feature",
  "id": "node/918659965",
  "properties": {
    "amenity": "toilets",
    "id": "node/918659965"
  },
  "geometry": {
    "type": "Point",
    "coordinates": [
      24.6379238,
      59.4372674
    ]
  }
},
{
  "type": "Feature",
  "id": "node/919130941",
  "properties": {
    "amenity": "toilets",
    "id": "node/919130941"
  },
  "geometry": {
    "type": "Point",
    "coordinates": [
      23.5405433,
      58.9473244
    ]
  }
},
{
  "type": "Feature",
  "id": "node/923173148",
  "properties": {
    "amenity": "toilets",
    "id": "node/923173148"
  },
  "geometry": {
    "type": "Point",
    "coordinates": [
      22.4836462,
      58.2495369
    ]
  }
},
{
  "type": "Feature",
  "id": "node/923188707",
  "properties": {
    "amenity": "toilets",
    "id": "node/923188707"
  },
  "geometry": {
    "type": "Point",
    "coordinates": [
      22.479541,
      58.2489508
    ]
  }
},
{
  "type": "Feature",
  "id": "node/935796903",
  "properties": {
    "amenity": "toilets",
    "id": "node/935796903"
  },
  "geometry": {
    "type": "Point",
    "coordinates": [
      26.2246993,
      58.5428938
    ]
  }
},
{
  "type": "Feature",
  "id": "node/959627178",
  "properties": {
    "amenity": "toilets",
    "id": "node/959627178"
  },
  "geometry": {
    "type": "Point",
    "coordinates": [
      25.5990542,
      58.3693108
    ]
  }
},
{
  "type": "Feature",
  "id": "node/959630316",
  "properties": {
    "amenity": "toilets",
    "id": "node/959630316"
  },
  "geometry": {
    "type": "Point",
    "coordinates": [
      25.5834064,
      58.3704586
    ]
  }
},
{
  "type": "Feature",
  "id": "node/960237708",
  "properties": {
    "amenity": "toilets",
    "id": "node/960237708"
  },
  "geometry": {
    "type": "Point",
    "coordinates": [
      25.5995145,
      58.3639227
    ]
  }
},
{
  "type": "Feature",
  "id": "node/1092045433",
  "properties": {
    "amenity": "toilets",
    "id": "node/1092045433"
  },
  "geometry": {
    "type": "Point",
    "coordinates": [
      28.1874543,
      59.3799903
    ]
  }
},
{
  "type": "Feature",
  "id": "node/1103556440",
  "properties": {
    "amenity": "toilets",
    "fee": "no",
    "id": "node/1103556440"
  },
  "geometry": {
    "type": "Point",
    "coordinates": [
      25.885592,
      59.0394318
    ]
  }
},
{
  "type": "Feature",
  "id": "node/1278254227",
  "properties": {
    "amenity": "toilets",
    "fireplace": "yes",
    "tourism": "picnic_site",
    "id": "node/1278254227"
  },
  "geometry": {
    "type": "Point",
    "coordinates": [
      26.8716522,
      58.1522001
    ]
  }
},
{
  "type": "Feature",
  "id": "node/1306937470",
  "properties": {
    "access": "yes",
    "amenity": "toilets",
    "fee": "no",
    "operator": "RMK",
    "id": "node/1306937470"
  },
  "geometry": {
    "type": "Point",
    "coordinates": [
      25.7239993,
      59.3773525
    ]
  }
},
{
  "type": "Feature",
  "id": "node/1313162007",
  "properties": {
    "amenity": "toilets",
    "level": "0",
    "id": "node/1313162007"
  },
  "geometry": {
    "type": "Point",
    "coordinates": [
      24.8654213,
      59.4402465
    ]
  }
},
{
  "type": "Feature",
  "id": "node/1313162079",
  "properties": {
    "amenity": "toilets",
    "id": "node/1313162079"
  },
  "geometry": {
    "type": "Point",
    "coordinates": [
      24.8627903,
      59.4429755
    ]
  }
},
{
  "type": "Feature",
  "id": "node/1313162159",
  "properties": {
    "amenity": "toilets",
    "id": "node/1313162159"
  },
  "geometry": {
    "type": "Point",
    "coordinates": [
      24.7826148,
      59.426306
    ]
  }
},
{
  "type": "Feature",
  "id": "node/1359408299",
  "properties": {
    "amenity": "toilets",
    "id": "node/1359408299"
  },
  "geometry": {
    "type": "Point",
    "coordinates": [
      22.8150442,
      58.7703358
    ]
  }
},
{
  "type": "Feature",
  "id": "node/1375096079",
  "properties": {
    "access": "permissive",
    "amenity": "toilets",
    "fee": "no",
    "name": "Selver",
    "toilets:disposal": "flush",
    "unisex": "yes",
    "wheelchair": "yes",
    "id": "node/1375096079"
  },
  "geometry": {
    "type": "Point",
    "coordinates": [
      25.562809,
      58.8857452
    ]
  }
},
{
  "type": "Feature",
  "id": "node/1376956499",
  "properties": {
    "amenity": "toilets",
    "id": "node/1376956499"
  },
  "geometry": {
    "type": "Point",
    "coordinates": [
      27.0743608,
      58.2070885
    ]
  }
},
{
  "type": "Feature",
  "id": "node/1415188652",
  "properties": {
    "amenity": "toilets",
    "fee": "no",
    "id": "node/1415188652"
  },
  "geometry": {
    "type": "Point",
    "coordinates": [
      26.5851993,
      58.6841702
    ]
  }
},
{
  "type": "Feature",
  "id": "node/1417757020",
  "properties": {
    "amenity": "toilets",
    "id": "node/1417757020"
  },
  "geometry": {
    "type": "Point",
    "coordinates": [
      24.757622,
      59.5727087
    ]
  }
},
{
  "type": "Feature",
  "id": "node/1425194645",
  "properties": {
    "amenity": "toilets",
    "id": "node/1425194645"
  },
  "geometry": {
    "type": "Point",
    "coordinates": [
      25.612441,
      59.2857838
    ]
  }
},
{
  "type": "Feature",
  "id": "node/1425194695",
  "properties": {
    "amenity": "toilets",
    "id": "node/1425194695"
  },
  "geometry": {
    "type": "Point",
    "coordinates": [
      25.6882777,
      59.3606093
    ]
  }
},
{
  "type": "Feature",
  "id": "node/1642685196",
  "properties": {
    "amenity": "toilets",
    "id": "node/1642685196"
  },
  "geometry": {
    "type": "Point",
    "coordinates": [
      22.6721675,
      58.3718058
    ]
  }
},
{
  "type": "Feature",
  "id": "node/1645593724",
  "properties": {
    "amenity": "toilets",
    "id": "node/1645593724"
  },
  "geometry": {
    "type": "Point",
    "coordinates": [
      24.415216,
      59.3065727
    ]
  }
},
{
  "type": "Feature",
  "id": "node/1660970382",
  "properties": {
    "amenity": "toilets",
    "designation": "Street toilet cabin",
    "id": "node/1660970382"
  },
  "geometry": {
    "type": "Point",
    "coordinates": [
      25.0170172,
      59.4829672
    ]
  }
},
{
  "type": "Feature",
  "id": "node/1674891789",
  "properties": {
    "amenity": "toilets",
    "id": "node/1674891789"
  },
  "geometry": {
    "type": "Point",
    "coordinates": [
      23.2318599,
      58.6058852
    ]
  }
},
{
  "type": "Feature",
  "id": "node/1716061067",
  "properties": {
    "amenity": "toilets",
    "covered": "yes",
    "fireplace": "yes",
    "man_made": "water_well",
    "name": "RMK Kaubaru metsaonn",
    "source": "Maa-amet WMS 2012;survey",
    "tourism": "picnic_site",
    "id": "node/1716061067"
  },
  "geometry": {
    "type": "Point",
    "coordinates": [
      24.62642,
      57.97452
    ]
  }
},
{
  "type": "Feature",
  "id": "node/1743950395",
  "properties": {
    "amenity": "toilets",
    "fee": "yes",
    "wheelchair": "limited",
    "id": "node/1743950395"
  },
  "geometry": {
    "type": "Point",
    "coordinates": [
      24.6847783,
      59.4424476
    ]
  }
},
{
  "type": "Feature",
  "id": "node/1748426528",
  "properties": {
    "amenity": "toilets",
    "id": "node/1748426528"
  },
  "geometry": {
    "type": "Point",
    "coordinates": [
      24.628637,
      59.4367948
    ]
  }
},
{
  "type": "Feature",
  "id": "node/1759860380",
  "properties": {
    "access": "yes",
    "amenity": "toilets",
    "toilets:disposal": "pitlatrine",
    "unisex": "yes",
    "id": "node/1759860380"
  },
  "geometry": {
    "type": "Point",
    "coordinates": [
      26.4095355,
      58.1627055
    ]
  }
},
{
  "type": "Feature",
  "id": "node/1802635734",
  "properties": {
    "amenity": "toilets",
    "fee": "no",
    "id": "node/1802635734"
  },
  "geometry": {
    "type": "Point",
    "coordinates": [
      24.6829467,
      59.4393615
    ]
  }
},
{
  "type": "Feature",
  "id": "node/1823280260",
  "properties": {
    "access": "yes",
    "amenity": "toilets",
    "id": "node/1823280260"
  },
  "geometry": {
    "type": "Point",
    "coordinates": [
      24.9821707,
      58.4886134
    ]
  }
},
{
  "type": "Feature",
  "id": "node/1849166334",
  "properties": {
    "amenity": "toilets",
    "designation": "WC",
    "source": "My tour",
    "id": "node/1849166334"
  },
  "geometry": {
    "type": "Point",
    "coordinates": [
      22.2312798,
      58.3786151
    ]
  }
},
{
  "type": "Feature",
  "id": "node/1861679538",
  "properties": {
    "amenity": "toilets",
    "id": "node/1861679538"
  },
  "geometry": {
    "type": "Point",
    "coordinates": [
      25.9126757,
      59.6135848
    ]
  }
},
{
  "type": "Feature",
  "id": "node/1880863241",
  "properties": {
    "amenity": "toilets",
    "fee": "no",
    "indoor": "yes",
    "level": "0",
    "wheelchair": "yes",
    "id": "node/1880863241"
  },
  "geometry": {
    "type": "Point",
    "coordinates": [
      24.7944352,
      59.42212
    ]
  }
},
{
  "type": "Feature",
  "id": "node/1890582144",
  "properties": {
    "amenity": "toilets",
    "level": "0",
    "wheelchair": "yes",
    "id": "node/1890582144"
  },
  "geometry": {
    "type": "Point",
    "coordinates": [
      26.6751672,
      58.3585265
    ]
  }
},
{
  "type": "Feature",
  "id": "node/1900919340",
  "properties": {
    "amenity": "toilets",
    "level": "0",
    "wheelchair": "no",
    "id": "node/1900919340"
  },
  "geometry": {
    "type": "Point",
    "coordinates": [
      26.6783355,
      58.357858
    ]
  }
},
{
  "type": "Feature",
  "id": "node/1949681958",
  "properties": {
    "amenity": "toilets",
    "id": "node/1949681958"
  },
  "geometry": {
    "type": "Point",
    "coordinates": [
      27.3618344,
      57.7287926
    ]
  }
},
{
  "type": "Feature",
  "id": "node/2168453104",
  "properties": {
    "amenity": "toilets",
    "id": "node/2168453104"
  },
  "geometry": {
    "type": "Point",
    "coordinates": [
      25.5973188,
      58.3702281
    ]
  }
},
{
  "type": "Feature",
  "id": "node/2239409641",
  "properties": {
    "amenity": "toilets",
    "fee": "no",
    "id": "node/2239409641"
  },
  "geometry": {
    "type": "Point",
    "coordinates": [
      28.1960751,
      59.3756827
    ]
  }
},
{
  "type": "Feature",
  "id": "node/2260450177",
  "properties": {
    "amenity": "toilets",
    "id": "node/2260450177"
  },
  "geometry": {
    "type": "Point",
    "coordinates": [
      26.4664936,
      58.0238507
    ]
  }
},
{
  "type": "Feature",
  "id": "node/2260450437",
  "properties": {
    "amenity": "toilets",
    "id": "node/2260450437"
  },
  "geometry": {
    "type": "Point",
    "coordinates": [
      25.610311,
      58.9466989
    ]
  }
},
{
  "type": "Feature",
  "id": "node/2331131589",
  "properties": {
    "amenity": "toilets",
    "id": "node/2331131589"
  },
  "geometry": {
    "type": "Point",
    "coordinates": [
      26.1468507,
      58.862213
    ]
  }
},
{
  "type": "Feature",
  "id": "node/2331131624",
  "properties": {
    "amenity": "toilets",
    "fee": "no",
    "id": "node/2331131624"
  },
  "geometry": {
    "type": "Point",
    "coordinates": [
      26.0720936,
      58.8651394
    ]
  }
},
{
  "type": "Feature",
  "id": "node/2331131685",
  "properties": {
    "access": "yes",
    "amenity": "toilets",
    "fee": "no",
    "source": "survey, Garmin 60CSx +Garmin 62st",
    "wheelchair": "no",
    "id": "node/2331131685"
  },
  "geometry": {
    "type": "Point",
    "coordinates": [
      26.0488796,
      58.8875238
    ]
  }
},
{
  "type": "Feature",
  "id": "node/2332163834",
  "properties": {
    "amenity": "toilets",
    "fee": "no",
    "wheelchair": "no",
    "id": "node/2332163834"
  },
  "geometry": {
    "type": "Point",
    "coordinates": [
      26.2184725,
      58.8534873
    ]
  }
},
{
  "type": "Feature",
  "id": "node/2332164052",
  "properties": {
    "amenity": "toilets",
    "fee": "no",
    "wheelchair": "no",
    "id": "node/2332164052"
  },
  "geometry": {
    "type": "Point",
    "coordinates": [
      26.2575811,
      58.8743397
    ]
  }
},
{
  "type": "Feature",
  "id": "node/2332791310",
  "properties": {
    "amenity": "toilets",
    "fee": "no",
    "id": "node/2332791310"
  },
  "geometry": {
    "type": "Point",
    "coordinates": [
      24.5125042,
      58.134703
    ]
  }
},
{
  "type": "Feature",
  "id": "node/2363410571",
  "properties": {
    "amenity": "toilets",
    "operator": "RMK",
    "id": "node/2363410571"
  },
  "geometry": {
    "type": "Point",
    "coordinates": [
      25.6283973,
      57.9487321
    ]
  }
},
{
  "type": "Feature",
  "id": "node/2363410574",
  "properties": {
    "amenity": "toilets",
    "operator": "RMK",
    "id": "node/2363410574"
  },
  "geometry": {
    "type": "Point",
    "coordinates": [
      25.6194959,
      57.9490087
    ]
  }
},
{
  "type": "Feature",
  "id": "node/2368958195",
  "properties": {
    "amenity": "toilets",
    "id": "node/2368958195"
  },
  "geometry": {
    "type": "Point",
    "coordinates": [
      24.1205442,
      59.3723549
    ]
  }
},
{
  "type": "Feature",
  "id": "node/2368958345",
  "properties": {
    "amenity": "toilets",
    "id": "node/2368958345"
  },
  "geometry": {
    "type": "Point",
    "coordinates": [
      24.0993011,
      59.376345
    ]
  }
},
{
  "type": "Feature",
  "id": "node/2371062438",
  "properties": {
    "amenity": "toilets",
    "id": "node/2371062438"
  },
  "geometry": {
    "type": "Point",
    "coordinates": [
      26.9734725,
      57.822492
    ]
  }
},
{
  "type": "Feature",
  "id": "node/2383548681",
  "properties": {
    "access": "yes",
    "amenity": "toilets",
    "changing_table": "no",
    "fee": "no",
    "source": "survey",
    "wheelchair": "no",
    "id": "node/2383548681"
  },
  "geometry": {
    "type": "Point",
    "coordinates": [
      24.3727527,
      58.3866858
    ]
  }
},
{
  "type": "Feature",
  "id": "node/2392011229",
  "properties": {
    "amenity": "toilets",
    "source": "survey",
    "id": "node/2392011229"
  },
  "geometry": {
    "type": "Point",
    "coordinates": [
      25.956139,
      59.5127056
    ]
  }
},
{
  "type": "Feature",
  "id": "node/2397703467",
  "properties": {
    "amenity": "toilets",
    "id": "node/2397703467"
  },
  "geometry": {
    "type": "Point",
    "coordinates": [
      27.4221711,
      57.7387294
    ]
  }
},
{
  "type": "Feature",
  "id": "node/2407670437",
  "properties": {
    "amenity": "toilets",
    "id": "node/2407670437"
  },
  "geometry": {
    "type": "Point",
    "coordinates": [
      27.0473032,
      58.1149488
    ]
  }
},
{
  "type": "Feature",
  "id": "node/2407830552",
  "properties": {
    "amenity": "toilets",
    "id": "node/2407830552"
  },
  "geometry": {
    "type": "Point",
    "coordinates": [
      27.1749971,
      57.8625045
    ]
  }
},
{
  "type": "Feature",
  "id": "node/2407830560",
  "properties": {
    "amenity": "toilets",
    "id": "node/2407830560"
  },
  "geometry": {
    "type": "Point",
    "coordinates": [
      27.1779552,
      57.8630009
    ]
  }
},
{
  "type": "Feature",
  "id": "node/2408123311",
  "properties": {
    "amenity": "toilets",
    "fee": "yes",
    "wheelchair": "yes",
    "id": "node/2408123311"
  },
  "geometry": {
    "type": "Point",
    "coordinates": [
      26.724377,
      58.379139
    ]
  }
},
{
  "type": "Feature",
  "id": "node/2408290580",
  "properties": {
    "amenity": "toilets",
    "description": "0.20€",
    "id": "node/2408290580"
  },
  "geometry": {
    "type": "Point",
    "coordinates": [
      26.7245383,
      58.3809604
    ]
  }
},
{
  "type": "Feature",
  "id": "node/2411945930",
  "properties": {
    "amenity": "toilets",
    "id": "node/2411945930"
  },
  "geometry": {
    "type": "Point",
    "coordinates": [
      25.5481715,
      58.1051751
    ]
  }
},
{
  "type": "Feature",
  "id": "node/2415677598",
  "properties": {
    "access": "permissive",
    "amenity": "toilets",
    "designation": "man",
    "source": "knowledge",
    "toilets:wheelchair": "yes",
    "wheelchair": "yes",
    "id": "node/2415677598"
  },
  "geometry": {
    "type": "Point",
    "coordinates": [
      26.7197291,
      58.3811305
    ]
  }
},
{
  "type": "Feature",
  "id": "node/2426067298",
  "properties": {
    "amenity": "toilets",
    "fee": "no",
    "wheelchair": "no",
    "id": "node/2426067298"
  },
  "geometry": {
    "type": "Point",
    "coordinates": [
      27.5639601,
      59.2607816
    ]
  }
},
{
  "type": "Feature",
  "id": "node/2426067393",
  "properties": {
    "amenity": "toilets",
    "fee": "no",
    "wheelchair": "no",
    "id": "node/2426067393"
  },
  "geometry": {
    "type": "Point",
    "coordinates": [
      27.5709082,
      59.264526
    ]
  }
},
{
  "type": "Feature",
  "id": "node/2426951601",
  "properties": {
    "amenity": "toilets",
    "id": "node/2426951601"
  },
  "geometry": {
    "type": "Point",
    "coordinates": [
      25.4391119,
      58.8097446
    ]
  }
},
{
  "type": "Feature",
  "id": "node/2427752376",
  "properties": {
    "amenity": "toilets",
    "id": "node/2427752376"
  },
  "geometry": {
    "type": "Point",
    "coordinates": [
      27.5874223,
      59.4063452
    ]
  }
},
{
  "type": "Feature",
  "id": "node/2558853720",
  "properties": {
    "amenity": "toilets",
    "fee": "yes",
    "wheelchair": "yes",
    "id": "node/2558853720"
  },
  "geometry": {
    "type": "Point",
    "coordinates": [
      26.7324549,
      58.3782393
    ]
  }
},
{
  "type": "Feature",
  "id": "node/2682087121",
  "properties": {
    "access": "yes",
    "amenity": "toilets",
    "source": "survey",
    "id": "node/2682087121"
  },
  "geometry": {
    "type": "Point",
    "coordinates": [
      24.5366246,
      58.3841444
    ]
  }
},
{
  "type": "Feature",
  "id": "node/2708914097",
  "properties": {
    "amenity": "toilets",
    "id": "node/2708914097"
  },
  "geometry": {
    "type": "Point",
    "coordinates": [
      25.6001072,
      58.2685978
    ]
  }
},
{
  "type": "Feature",
  "id": "node/2810089387",
  "properties": {
    "access": "yes",
    "amenity": "toilets",
    "fee": "no",
    "operator": "RMK",
    "toilets:disposal": "pitlatrine",
    "unisex": "yes",
    "id": "node/2810089387"
  },
  "geometry": {
    "type": "Point",
    "coordinates": [
      23.7054537,
      59.2290131
    ]
  }
},
{
  "type": "Feature",
  "id": "node/2810094219",
  "properties": {
    "access": "yes",
    "amenity": "toilets",
    "fee": "no",
    "operator": "RMK",
    "toilets:disposal": "pitlatrine",
    "id": "node/2810094219"
  },
  "geometry": {
    "type": "Point",
    "coordinates": [
      23.7225657,
      59.2309826
    ]
  }
},
{
  "type": "Feature",
  "id": "node/2810571457",
  "properties": {
    "access": "yes",
    "amenity": "toilets",
    "fee": "no",
    "operator": "RMK",
    "toilets:disposal": "pitlatrine",
    "id": "node/2810571457"
  },
  "geometry": {
    "type": "Point",
    "coordinates": [
      23.607928,
      59.2120002
    ]
  }
},
{
  "type": "Feature",
  "id": "node/2833356296",
  "properties": {
    "amenity": "toilets",
    "level": "0",
    "wheelchair": "yes",
    "id": "node/2833356296"
  },
  "geometry": {
    "type": "Point",
    "coordinates": [
      26.7399285,
      58.3483539
    ]
  }
},
{
  "type": "Feature",
  "id": "node/2947245697",
  "properties": {
    "access": "customers",
    "amenity": "toilets",
    "fee": "no",
    "toilets:disposal": "flush",
    "unisex": "yes",
    "id": "node/2947245697"
  },
  "geometry": {
    "type": "Point",
    "coordinates": [
      24.6384691,
      59.431426
    ]
  }
},
{
  "type": "Feature",
  "id": "node/2986875477",
  "properties": {
    "amenity": "toilets",
    "id": "node/2986875477"
  },
  "geometry": {
    "type": "Point",
    "coordinates": [
      25.2545864,
      58.6632729
    ]
  }
},
{
  "type": "Feature",
  "id": "node/2986880742",
  "properties": {
    "amenity": "toilets",
    "id": "node/2986880742"
  },
  "geometry": {
    "type": "Point",
    "coordinates": [
      25.2567646,
      58.6613646
    ]
  }
},
{
  "type": "Feature",
  "id": "node/2994498889",
  "properties": {
    "amenity": "toilets",
    "id": "node/2994498889"
  },
  "geometry": {
    "type": "Point",
    "coordinates": [
      26.4683039,
      58.0437412
    ]
  }
},
{
  "type": "Feature",
  "id": "node/2998229767",
  "properties": {
    "amenity": "toilets",
    "fee": "no",
    "id": "node/2998229767"
  },
  "geometry": {
    "type": "Point",
    "coordinates": [
      25.9628812,
      59.2652847
    ]
  }
},
{
  "type": "Feature",
  "id": "node/2999786686",
  "properties": {
    "amenity": "toilets",
    "id": "node/2999786686"
  },
  "geometry": {
    "type": "Point",
    "coordinates": [
      22.6881136,
      58.3699996
    ]
  }
},
{
  "type": "Feature",
  "id": "node/3217966401",
  "properties": {
    "access": "yes",
    "amenity": "toilets",
    "drinking_water": "yes",
    "fee": "no",
    "toilets:disposal": "flush",
    "toilets:position": "seated",
    "wheelchair": "yes",
    "id": "node/3217966401"
  },
  "geometry": {
    "type": "Point",
    "coordinates": [
      24.5506156,
      59.5583839
    ]
  }
},
{
  "type": "Feature",
  "id": "node/3376822706",
  "properties": {
    "amenity": "toilets",
    "fee": "no",
    "wheelchair": "no",
    "id": "node/3376822706"
  },
  "geometry": {
    "type": "Point",
    "coordinates": [
      26.207233,
      58.861404
    ]
  }
},
{
  "type": "Feature",
  "id": "node/3413939609",
  "properties": {
    "amenity": "toilets",
    "id": "node/3413939609"
  },
  "geometry": {
    "type": "Point",
    "coordinates": [
      23.5513188,
      58.5705758
    ]
  }
},
{
  "type": "Feature",
  "id": "node/3424571237",
  "properties": {
    "amenity": "toilets",
    "id": "node/3424571237"
  },
  "geometry": {
    "type": "Point",
    "coordinates": [
      24.6746675,
      59.2990524
    ]
  }
},
{
  "type": "Feature",
  "id": "node/3436607614",
  "properties": {
    "amenity": "toilets",
    "operator": "RMK",
    "id": "node/3436607614"
  },
  "geometry": {
    "type": "Point",
    "coordinates": [
      27.2948411,
      59.1708054
    ]
  }
},
{
  "type": "Feature",
  "id": "node/3503346592",
  "properties": {
    "amenity": "toilets",
    "operator": "RMK",
    "id": "node/3503346592"
  },
  "geometry": {
    "type": "Point",
    "coordinates": [
      25.2170824,
      58.6933606
    ]
  }
},
{
  "type": "Feature",
  "id": "node/3503349635",
  "properties": {
    "amenity": "toilets",
    "operator": "RMK",
    "id": "node/3503349635"
  },
  "geometry": {
    "type": "Point",
    "coordinates": [
      24.9819675,
      58.8062518
    ]
  }
},
{
  "type": "Feature",
  "id": "node/3515061338",
  "properties": {
    "amenity": "toilets",
    "operator": "RMK",
    "id": "node/3515061338"
  },
  "geometry": {
    "type": "Point",
    "coordinates": [
      25.010424,
      58.2247461
    ]
  }
},
{
  "type": "Feature",
  "id": "node/3515118829",
  "properties": {
    "amenity": "toilets",
    "operator": "RMK",
    "id": "node/3515118829"
  },
  "geometry": {
    "type": "Point",
    "coordinates": [
      25.1936335,
      58.4631608
    ]
  }
},
{
  "type": "Feature",
  "id": "node/3515118833",
  "properties": {
    "amenity": "toilets",
    "operator": "RMK",
    "id": "node/3515118833"
  },
  "geometry": {
    "type": "Point",
    "coordinates": [
      25.2049966,
      58.464344
    ]
  }
},
{
  "type": "Feature",
  "id": "node/3515172191",
  "properties": {
    "amenity": "toilets",
    "operator": "RMK",
    "id": "node/3515172191"
  },
  "geometry": {
    "type": "Point",
    "coordinates": [
      24.6812331,
      58.0929783
    ]
  }
},
{
  "type": "Feature",
  "id": "node/3515202166",
  "properties": {
    "amenity": "toilets",
    "operator": "RMK",
    "id": "node/3515202166"
  },
  "geometry": {
    "type": "Point",
    "coordinates": [
      25.2850806,
      58.6344877
    ]
  }
},
{
  "type": "Feature",
  "id": "node/3532526648",
  "properties": {
    "access": "yes",
    "amenity": "toilets",
    "fee": "no",
    "wheelchair": "no",
    "id": "node/3532526648"
  },
  "geometry": {
    "type": "Point",
    "coordinates": [
      26.1777999,
      58.7880413
    ]
  }
},
{
  "type": "Feature",
  "id": "node/3535001747",
  "properties": {
    "access": "yes",
    "amenity": "toilets",
    "fee": "no",
    "source": "survey, Garmin 60CSx +Garmin 62st",
    "wheelchair": "no",
    "id": "node/3535001747"
  },
  "geometry": {
    "type": "Point",
    "coordinates": [
      26.6925295,
      58.5724789
    ]
  }
},
{
  "type": "Feature",
  "id": "node/3535189513",
  "properties": {
    "access": "yes",
    "amenity": "toilets",
    "fee": "no",
    "id": "node/3535189513"
  },
  "geometry": {
    "type": "Point",
    "coordinates": [
      27.1044675,
      58.3817826
    ]
  }
},
{
  "type": "Feature",
  "id": "node/3535189529",
  "properties": {
    "access": "yes",
    "amenity": "toilets",
    "fee": "no",
    "source": "survey, Garmin 60CSx +Garmin 62st",
    "wheelchair": "no",
    "id": "node/3535189529"
  },
  "geometry": {
    "type": "Point",
    "coordinates": [
      27.0860459,
      58.4435581
    ]
  }
},
{
  "type": "Feature",
  "id": "node/3535189555",
  "properties": {
    "access": "yes",
    "amenity": "toilets",
    "fee": "no",
    "source": "survey, Garmin 60CSx +Garmin 62st",
    "wheelchair": "no",
    "id": "node/3535189555"
  },
  "geometry": {
    "type": "Point",
    "coordinates": [
      26.9227207,
      58.5662439
    ]
  }
},
{
  "type": "Feature",
  "id": "node/3537584616",
  "properties": {
    "access": "yes",
    "amenity": "toilets",
    "fee": "no",
    "source": "survey, Garmin 60CSx +Garmin 62st",
    "wheelchair": "no",
    "id": "node/3537584616"
  },
  "geometry": {
    "type": "Point",
    "coordinates": [
      27.0591183,
      58.2422057
    ]
  }
},
{
  "type": "Feature",
  "id": "node/3540704663",
  "properties": {
    "access": "yes",
    "amenity": "toilets",
    "fee": "no",
    "wheelchair": "no",
    "id": "node/3540704663"
  },
  "geometry": {
    "type": "Point",
    "coordinates": [
      26.8427554,
      58.6530268
    ]
  }
},
{
  "type": "Feature",
  "id": "node/3546565438",
  "properties": {
    "access": "yes",
    "amenity": "toilets",
    "fee": "no",
    "id": "node/3546565438"
  },
  "geometry": {
    "type": "Point",
    "coordinates": [
      27.0572803,
      58.1533531
    ]
  }
},
{
  "type": "Feature",
  "id": "node/3547082077",
  "properties": {
    "access": "yes",
    "amenity": "toilets",
    "fee": "no",
    "source": "survey, Garmin 60CSx +Garmin 62st",
    "wheelchair": "no",
    "id": "node/3547082077"
  },
  "geometry": {
    "type": "Point",
    "coordinates": [
      27.0677617,
      58.109893
    ]
  }
},
{
  "type": "Feature",
  "id": "node/3547788325",
  "properties": {
    "access": "yes",
    "amenity": "toilets",
    "fee": "no",
    "operator": "RMK",
    "id": "node/3547788325"
  },
  "geometry": {
    "type": "Point",
    "coordinates": [
      25.2728755,
      58.5304833
    ]
  }
},
{
  "type": "Feature",
  "id": "node/3549293449",
  "properties": {
    "access": "yes",
    "amenity": "toilets",
    "fee": "no",
    "source": "survey, Garmin 60CSx +Garmin 62st",
    "wheelchair": "no",
    "id": "node/3549293449"
  },
  "geometry": {
    "type": "Point",
    "coordinates": [
      27.190494,
      57.9120418
    ]
  }
},
{
  "type": "Feature",
  "id": "node/3549294937",
  "properties": {
    "access": "yes",
    "amenity": "toilets",
    "fee": "no",
    "id": "node/3549294937"
  },
  "geometry": {
    "type": "Point",
    "coordinates": [
      27.3094095,
      57.9315456
    ]
  }
},
{
  "type": "Feature",
  "id": "node/3549294958",
  "properties": {
    "access": "yes",
    "amenity": "toilets",
    "fee": "no",
    "source": "survey, Garmin 60CSx +Garmin 62st",
    "wheelchair": "no",
    "id": "node/3549294958"
  },
  "geometry": {
    "type": "Point",
    "coordinates": [
      27.1739382,
      57.932791
    ]
  }
},
{
  "type": "Feature",
  "id": "node/3549295463",
  "properties": {
    "access": "yes",
    "amenity": "toilets",
    "fee": "no",
    "id": "node/3549295463"
  },
  "geometry": {
    "type": "Point",
    "coordinates": [
      27.0766318,
      58.0284834
    ]
  }
},
{
  "type": "Feature",
  "id": "node/3551438499",
  "properties": {
    "access": "yes",
    "amenity": "toilets",
    "fee": "no",
    "operator": "RMK",
    "id": "node/3551438499"
  },
  "geometry": {
    "type": "Point",
    "coordinates": [
      27.3609859,
      57.7973462
    ]
  }
},
{
  "type": "Feature",
  "id": "node/3551438554",
  "properties": {
    "access": "yes",
    "amenity": "toilets",
    "fee": "no",
    "operator": "RMK",
    "id": "node/3551438554"
  },
  "geometry": {
    "type": "Point",
    "coordinates": [
      27.4632616,
      57.8396247
    ]
  }
},
{
  "type": "Feature",
  "id": "node/3551438862",
  "properties": {
    "access": "yes",
    "amenity": "toilets",
    "fee": "no",
    "operator": "RMK",
    "id": "node/3551438862"
  },
  "geometry": {
    "type": "Point",
    "coordinates": [
      27.6397686,
      57.8461659
    ]
  }
},
{
  "type": "Feature",
  "id": "node/3551439723",
  "properties": {
    "access": "yes",
    "amenity": "toilets",
    "fee": "no",
    "operator": "RMK",
    "id": "node/3551439723"
  },
  "geometry": {
    "type": "Point",
    "coordinates": [
      27.4065559,
      57.9429188
    ]
  }
},
{
  "type": "Feature",
  "id": "node/3551439926",
  "properties": {
    "access": "yes",
    "amenity": "toilets",
    "fee": "no",
    "operator": "RMK",
    "id": "node/3551439926"
  },
  "geometry": {
    "type": "Point",
    "coordinates": [
      27.6349454,
      57.9468312
    ]
  }
},
{
  "type": "Feature",
  "id": "node/3551492953",
  "properties": {
    "access": "yes",
    "amenity": "toilets",
    "fee": "no",
    "operator": "RMK",
    "id": "node/3551492953"
  },
  "geometry": {
    "type": "Point",
    "coordinates": [
      27.3312751,
      57.946347
    ]
  }
},
{
  "type": "Feature",
  "id": "node/3554655521",
  "properties": {
    "access": "yes",
    "amenity": "toilets",
    "fee": "no",
    "operator": "RMK",
    "id": "node/3554655521"
  },
  "geometry": {
    "type": "Point",
    "coordinates": [
      27.2548474,
      57.6854591
    ]
  }
},
{
  "type": "Feature",
  "id": "node/3554735691",
  "properties": {
    "access": "yes",
    "amenity": "toilets",
    "fee": "no",
    "source": "survey, Garmin 60CSx +Garmin 62st",
    "wheelchair": "no",
    "id": "node/3554735691"
  },
  "geometry": {
    "type": "Point",
    "coordinates": [
      27.0504141,
      57.7131126
    ]
  }
},
{
  "type": "Feature",
  "id": "node/3554735901",
  "properties": {
    "access": "yes",
    "amenity": "toilets",
    "fee": "no",
    "source": "survey, Garmin 60CSx +Garmin 62st",
    "wheelchair": "no",
    "id": "node/3554735901"
  },
  "geometry": {
    "type": "Point",
    "coordinates": [
      27.0832687,
      57.7164232
    ]
  }
},
{
  "type": "Feature",
  "id": "node/3554736059",
  "properties": {
    "access": "yes",
    "amenity": "toilets",
    "fee": "no",
    "source": "survey, Garmin 60CSx +Garmin 62st",
    "wheelchair": "no",
    "id": "node/3554736059"
  },
  "geometry": {
    "type": "Point",
    "coordinates": [
      27.1051342,
      57.7461196
    ]
  }
},
{
  "type": "Feature",
  "id": "node/3555540662",
  "properties": {
    "access": "yes",
    "amenity": "toilets",
    "fee": "no",
    "source": "maaamet",
    "wheelchair": "no",
    "id": "node/3555540662"
  },
  "geometry": {
    "type": "Point",
    "coordinates": [
      26.7661841,
      57.630606
    ]
  }
},
{
  "type": "Feature",
  "id": "node/3555540709",
  "properties": {
    "access": "yes",
    "amenity": "toilets",
    "fee": "no",
    "wheelchair": "no",
    "id": "node/3555540709"
  },
  "geometry": {
    "type": "Point",
    "coordinates": [
      26.8882953,
      57.6405676
    ]
  }
},
{
  "type": "Feature",
  "id": "node/3555540997",
  "properties": {
    "access": "yes",
    "amenity": "toilets",
    "fee": "no",
    "source": "survey, Garmin 60CSx +Garmin 62st",
    "wheelchair": "no",
    "id": "node/3555540997"
  },
  "geometry": {
    "type": "Point",
    "coordinates": [
      26.971321,
      57.7332623
    ]
  }
},
{
  "type": "Feature",
  "id": "node/3556592818",
  "properties": {
    "access": "yes",
    "amenity": "toilets",
    "fee": "no",
    "operator": "RMK",
    "id": "node/3556592818"
  },
  "geometry": {
    "type": "Point",
    "coordinates": [
      26.6644188,
      57.5718838
    ]
  }
},
{
  "type": "Feature",
  "id": "node/3556593124",
  "properties": {
    "access": "yes",
    "amenity": "toilets",
    "fee": "no",
    "operator": "RMK",
    "id": "node/3556593124"
  },
  "geometry": {
    "type": "Point",
    "coordinates": [
      26.8340441,
      57.5853585
    ]
  }
},
{
  "type": "Feature",
  "id": "node/3556740041",
  "properties": {
    "access": "yes",
    "amenity": "toilets",
    "fee": "no",
    "operator": "RMK",
    "id": "node/3556740041"
  },
  "geometry": {
    "type": "Point",
    "coordinates": [
      26.6167158,
      57.5095399
    ]
  }
},
{
  "type": "Feature",
  "id": "node/3556794639",
  "properties": {
    "access": "yes",
    "amenity": "toilets",
    "fee": "no",
    "operator": "RMK",
    "id": "node/3556794639"
  },
  "geometry": {
    "type": "Point",
    "coordinates": [
      26.3286903,
      57.5971
    ]
  }
},
{
  "type": "Feature",
  "id": "node/3556794705",
  "properties": {
    "access": "yes",
    "amenity": "toilets",
    "fee": "no",
    "operator": "RMK",
    "id": "node/3556794705"
  },
  "geometry": {
    "type": "Point",
    "coordinates": [
      26.3327553,
      57.5988314
    ]
  }
},
{
  "type": "Feature",
  "id": "node/3556794794",
  "properties": {
    "access": "yes",
    "amenity": "toilets",
    "fee": "no",
    "operator": "RMK",
    "id": "node/3556794794"
  },
  "geometry": {
    "type": "Point",
    "coordinates": [
      26.3806726,
      57.642916
    ]
  }
},
{
  "type": "Feature",
  "id": "node/3556846716",
  "properties": {
    "access": "yes",
    "amenity": "toilets",
    "fee": "no",
    "operator": "RMK",
    "id": "node/3556846716"
  },
  "geometry": {
    "type": "Point",
    "coordinates": [
      26.4201321,
      57.6622686
    ]
  }
},
{
  "type": "Feature",
  "id": "node/3556846764",
  "properties": {
    "access": "yes",
    "amenity": "toilets",
    "fee": "no",
    "operator": "RMK",
    "id": "node/3556846764"
  },
  "geometry": {
    "type": "Point",
    "coordinates": [
      26.5035972,
      57.7125596
    ]
  }
},
{
  "type": "Feature",
  "id": "node/3556846775",
  "properties": {
    "access": "yes",
    "amenity": "toilets",
    "fee": "no",
    "operator": "RMK",
    "id": "node/3556846775"
  },
  "geometry": {
    "type": "Point",
    "coordinates": [
      26.4998696,
      57.7192136
    ]
  }
},
{
  "type": "Feature",
  "id": "node/3585428413",
  "properties": {
    "access": "yes",
    "amenity": "toilets",
    "fee": "no",
    "operator": "RMK",
    "id": "node/3585428413"
  },
  "geometry": {
    "type": "Point",
    "coordinates": [
      26.0962399,
      59.5626048
    ]
  }
},
{
  "type": "Feature",
  "id": "node/3585431398",
  "properties": {
    "access": "yes",
    "amenity": "toilets",
    "fee": "no",
    "operator": "RMK",
    "wheelchair": "yes",
    "id": "node/3585431398"
  },
  "geometry": {
    "type": "Point",
    "coordinates": [
      26.0964999,
      59.5626959
    ]
  }
},
{
  "type": "Feature",
  "id": "node/3587832072",
  "properties": {
    "access": "yes",
    "amenity": "toilets",
    "fee": "no",
    "id": "node/3587832072"
  },
  "geometry": {
    "type": "Point",
    "coordinates": [
      25.9732122,
      59.5679782
    ]
  }
},
{
  "type": "Feature",
  "id": "node/3589336548",
  "properties": {
    "access": "yes",
    "amenity": "toilets",
    "fee": "no",
    "id": "node/3589336548"
  },
  "geometry": {
    "type": "Point",
    "coordinates": [
      25.7882984,
      59.5040572
    ]
  }
},
{
  "type": "Feature",
  "id": "node/3591682241",
  "properties": {
    "access": "yes",
    "amenity": "toilets",
    "drinking_water": "no",
    "fee": "no",
    "operator": "RMK",
    "toilets:disposal": "pitlatrine",
    "unisex": "yes",
    "id": "node/3591682241"
  },
  "geometry": {
    "type": "Point",
    "coordinates": [
      25.6698658,
      59.4853339
    ]
  }
},
{
  "type": "Feature",
  "id": "node/3599921003",
  "properties": {
    "access": "yes",
    "amenity": "toilets",
    "fee": "no",
    "operator": "RMK",
    "id": "node/3599921003"
  },
  "geometry": {
    "type": "Point",
    "coordinates": [
      25.6739963,
      59.4258761
    ]
  }
},
{
  "type": "Feature",
  "id": "node/3599921007",
  "properties": {
    "access": "yes",
    "amenity": "toilets",
    "fee": "no",
    "operator": "RMK",
    "id": "node/3599921007"
  },
  "geometry": {
    "type": "Point",
    "coordinates": [
      25.6819839,
      59.4284441
    ]
  }
},
{
  "type": "Feature",
  "id": "node/3601892811",
  "properties": {
    "access": "yes",
    "amenity": "toilets",
    "operator": "RMK",
    "unisex": "yes",
    "wheelchair": "no",
    "id": "node/3601892811"
  },
  "geometry": {
    "type": "Point",
    "coordinates": [
      25.6283299,
      59.2711414
    ]
  }
},
{
  "type": "Feature",
  "id": "node/3604957603",
  "properties": {
    "access": "yes",
    "amenity": "toilets",
    "fee": "no",
    "operator": "RMK",
    "id": "node/3604957603"
  },
  "geometry": {
    "type": "Point",
    "coordinates": [
      25.5092378,
      59.1994471
    ]
  }
},
{
  "type": "Feature",
  "id": "node/3609544879",
  "properties": {
    "access": "yes",
    "amenity": "toilets",
    "fee": "no",
    "operator": "RMK",
    "id": "node/3609544879"
  },
  "geometry": {
    "type": "Point",
    "coordinates": [
      25.2716517,
      58.5303056
    ]
  }
},
{
  "type": "Feature",
  "id": "node/3630603348",
  "properties": {
    "access": "yes",
    "amenity": "toilets",
    "fee": "no",
    "wheelchair": "no",
    "id": "node/3630603348"
  },
  "geometry": {
    "type": "Point",
    "coordinates": [
      24.9945844,
      58.7371873
    ]
  }
},
{
  "type": "Feature",
  "id": "node/3631939791",
  "properties": {
    "amenity": "toilets",
    "fee": "no",
    "wheelchair": "no",
    "id": "node/3631939791"
  },
  "geometry": {
    "type": "Point",
    "coordinates": [
      24.3908104,
      57.9391354
    ]
  }
},
{
  "type": "Feature",
  "id": "node/3632383152",
  "properties": {
    "access": "yes",
    "amenity": "toilets",
    "fee": "no",
    "operator": "RMK",
    "toilets:disposal": "pitlatrine",
    "id": "node/3632383152"
  },
  "geometry": {
    "type": "Point",
    "coordinates": [
      25.5100735,
      59.1887932
    ]
  }
},
{
  "type": "Feature",
  "id": "node/3632629277",
  "properties": {
    "access": "yes",
    "amenity": "toilets",
    "fee": "no",
    "id": "node/3632629277"
  },
  "geometry": {
    "type": "Point",
    "coordinates": [
      27.1492925,
      57.7864132
    ]
  }
},
{
  "type": "Feature",
  "id": "node/3641051003",
  "properties": {
    "access": "yes",
    "amenity": "toilets",
    "fee": "no",
    "id": "node/3641051003"
  },
  "geometry": {
    "type": "Point",
    "coordinates": [
      26.2388478,
      58.5449683
    ]
  }
},
{
  "type": "Feature",
  "id": "node/3654359807",
  "properties": {
    "access": "yes",
    "amenity": "toilets",
    "fee": "no",
    "operator": "Paide Muusika- ja Teatrimaja",
    "toilets:disposal": "flush",
    "unisex": "yes",
    "id": "node/3654359807"
  },
  "geometry": {
    "type": "Point",
    "coordinates": [
      25.5614047,
      58.8861765
    ]
  }
},
{
  "type": "Feature",
  "id": "node/3654938539",
  "properties": {
    "amenity": "toilets",
    "fee": "no",
    "name": "Maksimarket",
    "opening_hours": "Mo-Su 09:00-22:00",
    "toilets:disposal": "flush",
    "unisex": "yes",
    "wheelchair": "yes",
    "id": "node/3654938539"
  },
  "geometry": {
    "type": "Point",
    "coordinates": [
      25.5404742,
      58.8867163
    ]
  }
},
{
  "type": "Feature",
  "id": "node/3673453219",
  "properties": {
    "amenity": "toilets",
    "id": "node/3673453219"
  },
  "geometry": {
    "type": "Point",
    "coordinates": [
      25.5623127,
      58.5561212
    ]
  }
},
{
  "type": "Feature",
  "id": "node/3677721029",
  "properties": {
    "access": "yes",
    "amenity": "toilets",
    "fee": "no",
    "operator": "RMK",
    "id": "node/3677721029"
  },
  "geometry": {
    "type": "Point",
    "coordinates": [
      27.3476413,
      57.943248
    ]
  }
},
{
  "type": "Feature",
  "id": "node/3678937925",
  "properties": {
    "amenity": "toilets",
    "id": "node/3678937925"
  },
  "geometry": {
    "type": "Point",
    "coordinates": [
      27.5276262,
      59.4260806
    ]
  }
},
{
  "type": "Feature",
  "id": "node/3698629268",
  "properties": {
    "amenity": "toilets",
    "id": "node/3698629268"
  },
  "geometry": {
    "type": "Point",
    "coordinates": [
      24.7258797,
      58.9867341
    ]
  }
},
{
  "type": "Feature",
  "id": "node/3698629282",
  "properties": {
    "amenity": "toilets",
    "id": "node/3698629282"
  },
  "geometry": {
    "type": "Point",
    "coordinates": [
      24.7272098,
      58.9867697
    ]
  }
},
{
  "type": "Feature",
  "id": "node/3722756446",
  "properties": {
    "amenity": "toilets",
    "id": "node/3722756446"
  },
  "geometry": {
    "type": "Point",
    "coordinates": [
      22.2895666,
      58.5697275
    ]
  }
},
{
  "type": "Feature",
  "id": "node/3724679465",
  "properties": {
    "amenity": "toilets",
    "id": "node/3724679465"
  },
  "geometry": {
    "type": "Point",
    "coordinates": [
      21.8755482,
      58.2631446
    ]
  }
},
{
  "type": "Feature",
  "id": "node/3728217695",
  "properties": {
    "amenity": "toilets",
    "id": "node/3728217695"
  },
  "geometry": {
    "type": "Point",
    "coordinates": [
      23.5668019,
      59.0212302
    ]
  }
},
{
  "type": "Feature",
  "id": "node/3728243614",
  "properties": {
    "amenity": "toilets",
    "id": "node/3728243614"
  },
  "geometry": {
    "type": "Point",
    "coordinates": [
      23.5655174,
      59.0329031
    ]
  }
},
{
  "type": "Feature",
  "id": "node/3733593174",
  "properties": {
    "amenity": "toilets",
    "id": "node/3733593174"
  },
  "geometry": {
    "type": "Point",
    "coordinates": [
      22.0729764,
      58.4281136
    ]
  }
},
{
  "type": "Feature",
  "id": "node/3750886648",
  "properties": {
    "amenity": "toilets",
    "id": "node/3750886648"
  },
  "geometry": {
    "type": "Point",
    "coordinates": [
      26.9445568,
      58.847837
    ]
  }
},
{
  "type": "Feature",
  "id": "node/3770667812",
  "properties": {
    "access": "yes",
    "amenity": "toilets",
    "fee": "no",
    "operator": "RMK",
    "toilets:disposal": "pitlatrine",
    "id": "node/3770667812"
  },
  "geometry": {
    "type": "Point",
    "coordinates": [
      23.746631,
      59.2480931
    ]
  }
},
{
  "type": "Feature",
  "id": "node/3770667820",
  "properties": {
    "access": "yes",
    "amenity": "toilets",
    "fee": "no",
    "operator": "RMK",
    "toilets:disposal": "pitlatrine",
    "id": "node/3770667820"
  },
  "geometry": {
    "type": "Point",
    "coordinates": [
      23.8728182,
      59.2593484
    ]
  }
},
{
  "type": "Feature",
  "id": "node/3772147260",
  "properties": {
    "access": "yes",
    "amenity": "toilets",
    "fee": "no",
    "operator": "RMK",
    "toilets:disposal": "pitlatrine",
    "id": "node/3772147260"
  },
  "geometry": {
    "type": "Point",
    "coordinates": [
      24.1428186,
      59.2187577
    ]
  }
},
{
  "type": "Feature",
  "id": "node/3772147673",
  "properties": {
    "access": "yes",
    "amenity": "toilets",
    "changing_table": "no",
    "fee": "no",
    "operator": "RMK",
    "toilets:disposal": "pitlatrine",
    "unisex": "yes",
    "id": "node/3772147673"
  },
  "geometry": {
    "type": "Point",
    "coordinates": [
      24.3783395,
      59.2705952
    ]
  }
},
{
  "type": "Feature",
  "id": "node/3773485987",
  "properties": {
    "access": "yes",
    "amenity": "toilets",
    "fee": "no",
    "operator": "RMK",
    "toilets:disposal": "pitlatrine",
    "id": "node/3773485987"
  },
  "geometry": {
    "type": "Point",
    "coordinates": [
      24.6376346,
      59.2620844
    ]
  }
},
{
  "type": "Feature",
  "id": "node/3773623397",
  "properties": {
    "access": "yes",
    "amenity": "toilets",
    "fee": "no",
    "operator": "RMK",
    "toilets:disposal": "pitlatrine",
    "id": "node/3773623397"
  },
  "geometry": {
    "type": "Point",
    "coordinates": [
      24.6467917,
      59.2559037
    ]
  }
},
{
  "type": "Feature",
  "id": "node/3773694819",
  "properties": {
    "access": "yes",
    "amenity": "toilets",
    "changing_table": "no",
    "fee": "no",
    "operator": "RMK",
    "toilets:disposal": "pitlatrine",
    "unisex": "yes",
    "wheelchair": "no",
    "id": "node/3773694819"
  },
  "geometry": {
    "type": "Point",
    "coordinates": [
      25.0285925,
      59.2197191
    ]
  }
},
{
  "type": "Feature",
  "id": "node/3773695242",
  "properties": {
    "access": "yes",
    "amenity": "toilets",
    "fee": "no",
    "operator": "RMK",
    "toilets:disposal": "pitlatrine",
    "id": "node/3773695242"
  },
  "geometry": {
    "type": "Point",
    "coordinates": [
      25.2944964,
      59.2388895
    ]
  }
},
{
  "type": "Feature",
  "id": "node/3775307163",
  "properties": {
    "access": "yes",
    "amenity": "toilets",
    "fee": "no",
    "operator": "RMK",
    "toilets:disposal": "pitlatrine",
    "id": "node/3775307163"
  },
  "geometry": {
    "type": "Point",
    "coordinates": [
      25.4919394,
      59.2599224
    ]
  }
},
{
  "type": "Feature",
  "id": "node/3775334935",
  "properties": {
    "access": "yes",
    "amenity": "toilets",
    "fee": "no",
    "operator": "RMK",
    "toilets:disposal": "pitlatrine",
    "id": "node/3775334935"
  },
  "geometry": {
    "type": "Point",
    "coordinates": [
      23.7463902,
      59.2439682
    ]
  }
},
{
  "type": "Feature",
  "id": "node/3775334942",
  "properties": {
    "access": "yes",
    "amenity": "toilets",
    "fee": "no",
    "operator": "RMK",
    "toilets:disposal": "pitlatrine",
    "id": "node/3775334942"
  },
  "geometry": {
    "type": "Point",
    "coordinates": [
      24.9288228,
      59.2545965
    ]
  }
},
{
  "type": "Feature",
  "id": "node/3785189206",
  "properties": {
    "access": "yes",
    "amenity": "toilets",
    "fee": "yes",
    "toilets:disposal": "flush",
    "unisex": "yes",
    "id": "node/3785189206"
  },
  "geometry": {
    "type": "Point",
    "coordinates": [
      26.027528,
      57.7767293
    ]
  }
},
{
  "type": "Feature",
  "id": "node/3801069360",
  "properties": {
    "access": "yes",
    "amenity": "toilets",
    "fee": "no",
    "operator": "RMK",
    "toilets:disposal": "pitlatrine",
    "id": "node/3801069360"
  },
  "geometry": {
    "type": "Point",
    "coordinates": [
      24.1520995,
      59.0961771
    ]
  }
},
{
  "type": "Feature",
  "id": "node/3801329106",
  "properties": {
    "access": "yes",
    "amenity": "toilets",
    "fee": "no",
    "operator": "RMK",
    "toilets:disposal": "pitlatrine",
    "id": "node/3801329106"
  },
  "geometry": {
    "type": "Point",
    "coordinates": [
      23.7648222,
      59.1800642
    ]
  }
},
{
  "type": "Feature",
  "id": "node/3801329267",
  "properties": {
    "access": "yes",
    "amenity": "toilets",
    "fee": "no",
    "operator": "RMK",
    "toilets:disposal": "pitlatrine",
    "id": "node/3801329267"
  },
  "geometry": {
    "type": "Point",
    "coordinates": [
      23.8316615,
      59.1840652
    ]
  }
},
{
  "type": "Feature",
  "id": "node/3841506197",
  "properties": {
    "amenity": "toilets",
    "id": "node/3841506197"
  },
  "geometry": {
    "type": "Point",
    "coordinates": [
      25.8732208,
      59.5776847
    ]
  }
},
{
  "type": "Feature",
  "id": "node/3909790692",
  "properties": {
    "access": "yes",
    "amenity": "toilets",
    "fee": "yes",
    "toilets:disposal": "flush",
    "unisex": "yes",
    "wheelchair": "no",
    "id": "node/3909790692"
  },
  "geometry": {
    "type": "Point",
    "coordinates": [
      24.7910447,
      59.4374461
    ]
  }
},
{
  "type": "Feature",
  "id": "node/3953997740",
  "properties": {
    "amenity": "toilets",
    "id": "node/3953997740"
  },
  "geometry": {
    "type": "Point",
    "coordinates": [
      24.422024,
      59.313489
    ]
  }
},
{
  "type": "Feature",
  "id": "node/4097799629",
  "properties": {
    "access": "yes",
    "amenity": "toilets",
    "fee": "no",
    "operator": "RMK",
    "toilets:disposal": "pitlatrine",
    "id": "node/4097799629"
  },
  "geometry": {
    "type": "Point",
    "coordinates": [
      23.5757742,
      59.2110989
    ]
  }
},
{
  "type": "Feature",
  "id": "node/4097799637",
  "properties": {
    "access": "yes",
    "amenity": "toilets",
    "fee": "no",
    "operator": "RMK",
    "toilets:disposal": "pitlatrine",
    "id": "node/4097799637"
  },
  "geometry": {
    "type": "Point",
    "coordinates": [
      23.5744514,
      59.2133731
    ]
  }
},
{
  "type": "Feature",
  "id": "node/4097799657",
  "properties": {
    "access": "yes",
    "amenity": "toilets",
    "fee": "no",
    "operator": "RMK",
    "toilets:disposal": "pitlatrine",
    "id": "node/4097799657"
  },
  "geometry": {
    "type": "Point",
    "coordinates": [
      23.8725407,
      59.2588439
    ]
  }
},
{
  "type": "Feature",
  "id": "node/4136508224",
  "properties": {
    "access": "yes",
    "amenity": "toilets",
    "fee": "no",
    "operator": "RMK",
    "toilets:disposal": "pitlatrine",
    "id": "node/4136508224"
  },
  "geometry": {
    "type": "Point",
    "coordinates": [
      24.7679795,
      58.1213404
    ]
  }
},
{
  "type": "Feature",
  "id": "node/4147231582",
  "properties": {
    "access": "yes",
    "amenity": "toilets",
    "fee": "no",
    "operator": "RMK",
    "toilets:disposal": "pitlatrine",
    "id": "node/4147231582"
  },
  "geometry": {
    "type": "Point",
    "coordinates": [
      26.4726169,
      58.0300017
    ]
  }
},
{
  "type": "Feature",
  "id": "node/4147423839",
  "properties": {
    "access": "yes",
    "amenity": "toilets",
    "fee": "no",
    "operator": "RMK",
    "toilets:disposal": "pitlatrine",
    "id": "node/4147423839"
  },
  "geometry": {
    "type": "Point",
    "coordinates": [
      26.4497204,
      58.0306675
    ]
  }
},
{
  "type": "Feature",
  "id": "node/4147423851",
  "properties": {
    "access": "yes",
    "amenity": "toilets",
    "changing_table": "no",
    "fee": "no",
    "operator": "RMK",
    "toilets:disposal": "pitlatrine",
    "unisex": "yes",
    "wheelchair": "no",
    "id": "node/4147423851"
  },
  "geometry": {
    "type": "Point",
    "coordinates": [
      26.4532668,
      58.0355936
    ]
  }
},
{
  "type": "Feature",
  "id": "node/4149563844",
  "properties": {
    "access": "yes",
    "amenity": "toilets",
    "fee": "no",
    "operator": "RMK",
    "toilets:disposal": "pitlatrine",
    "id": "node/4149563844"
  },
  "geometry": {
    "type": "Point",
    "coordinates": [
      26.4436026,
      58.0169002
    ]
  }
},
{
  "type": "Feature",
  "id": "node/4177743876",
  "properties": {
    "access": "customers",
    "amenity": "toilets",
    "fee": "no",
    "unisex": "yes",
    "id": "node/4177743876"
  },
  "geometry": {
    "type": "Point",
    "coordinates": [
      24.6404645,
      59.4338554
    ]
  }
},
{
  "type": "Feature",
  "id": "node/4177779335",
  "properties": {
    "access": "customers",
    "amenity": "toilets",
    "fee": "no",
    "unisex": "yes",
    "id": "node/4177779335"
  },
  "geometry": {
    "type": "Point",
    "coordinates": [
      24.659065,
      59.4256469
    ]
  }
},
{
  "type": "Feature",
  "id": "node/4177821451",
  "properties": {
    "access": "customers",
    "amenity": "toilets",
    "fee": "no",
    "unisex": "yes",
    "id": "node/4177821451"
  },
  "geometry": {
    "type": "Point",
    "coordinates": [
      24.7419647,
      59.4332266
    ]
  }
},
{
  "type": "Feature",
  "id": "node/4228081597",
  "properties": {
    "amenity": "toilets",
    "opening_hours": "24/7",
    "id": "node/4228081597"
  },
  "geometry": {
    "type": "Point",
    "coordinates": [
      27.5293747,
      59.4260144
    ]
  }
},
{
  "type": "Feature",
  "id": "node/4250916751",
  "properties": {
    "access": "yes",
    "amenity": "toilets",
    "drinking_water": "no",
    "fee": "no",
    "operator": "RMK",
    "toilets:disposal": "pitlatrine",
    "unisex": "yes",
    "id": "node/4250916751"
  },
  "geometry": {
    "type": "Point",
    "coordinates": [
      23.7494599,
      58.7216425
    ]
  }
},
{
  "type": "Feature",
  "id": "node/4268142245",
  "properties": {
    "amenity": "toilets",
    "id": "node/4268142245"
  },
  "geometry": {
    "type": "Point",
    "coordinates": [
      24.1178269,
      58.2294387
    ]
  }
},
{
  "type": "Feature",
  "id": "node/4283864748",
  "properties": {
    "amenity": "toilets",
    "id": "node/4283864748"
  },
  "geometry": {
    "type": "Point",
    "coordinates": [
      26.8793249,
      57.7653652
    ]
  }
},
{
  "type": "Feature",
  "id": "node/4283941417",
  "properties": {
    "amenity": "toilets",
    "id": "node/4283941417"
  },
  "geometry": {
    "type": "Point",
    "coordinates": [
      26.913553,
      57.6448816
    ]
  }
},
{
  "type": "Feature",
  "id": "node/4289459357",
  "properties": {
    "access": "customers",
    "amenity": "toilets",
    "id": "node/4289459357"
  },
  "geometry": {
    "type": "Point",
    "coordinates": [
      25.9356831,
      59.5768737
    ]
  }
},
{
  "type": "Feature",
  "id": "node/4294381892",
  "properties": {
    "amenity": "toilets",
    "toilets:disposal": "pitlatrine",
    "id": "node/4294381892"
  },
  "geometry": {
    "type": "Point",
    "coordinates": [
      22.3897647,
      58.9332426
    ]
  }
},
{
  "type": "Feature",
  "id": "node/4294647396",
  "properties": {
    "amenity": "toilets",
    "id": "node/4294647396"
  },
  "geometry": {
    "type": "Point",
    "coordinates": [
      27.2755366,
      59.089873
    ]
  }
},
{
  "type": "Feature",
  "id": "node/4294664971",
  "properties": {
    "access": "yes",
    "amenity": "toilets",
    "fee": "no",
    "operator": "RMK",
    "toilets:disposal": "pitlatrine",
    "id": "node/4294664971"
  },
  "geometry": {
    "type": "Point",
    "coordinates": [
      27.2549761,
      59.0594054
    ]
  }
},
{
  "type": "Feature",
  "id": "node/4294664980",
  "properties": {
    "access": "yes",
    "amenity": "toilets",
    "fee": "no",
    "operator": "RMK",
    "toilets:disposal": "pitlatrine",
    "id": "node/4294664980"
  },
  "geometry": {
    "type": "Point",
    "coordinates": [
      27.2460496,
      59.0675281
    ]
  }
},
{
  "type": "Feature",
  "id": "node/4294664986",
  "properties": {
    "access": "yes",
    "amenity": "toilets",
    "fee": "no",
    "operator": "RMK",
    "toilets:disposal": "pitlatrine",
    "id": "node/4294664986"
  },
  "geometry": {
    "type": "Point",
    "coordinates": [
      27.263183,
      59.0815439
    ]
  }
},
{
  "type": "Feature",
  "id": "node/4296155189",
  "properties": {
    "amenity": "toilets",
    "id": "node/4296155189"
  },
  "geometry": {
    "type": "Point",
    "coordinates": [
      24.7503748,
      59.4418122
    ]
  }
},
{
  "type": "Feature",
  "id": "node/4296403391",
  "properties": {
    "amenity": "toilets",
    "id": "node/4296403391"
  },
  "geometry": {
    "type": "Point",
    "coordinates": [
      25.016262,
      59.4796924
    ]
  }
},
{
  "type": "Feature",
  "id": "node/4306364469",
  "properties": {
    "amenity": "toilets",
    "id": "node/4306364469"
  },
  "geometry": {
    "type": "Point",
    "coordinates": [
      24.294523,
      59.3933952
    ]
  }
},
{
  "type": "Feature",
  "id": "node/4327896491",
  "properties": {
    "amenity": "toilets",
    "operator": "telia",
    "id": "node/4327896491"
  },
  "geometry": {
    "type": "Point",
    "coordinates": [
      26.1597079,
      58.6099717
    ]
  }
},
{
  "type": "Feature",
  "id": "node/4339383302",
  "properties": {
    "amenity": "toilets",
    "id": "node/4339383302"
  },
  "geometry": {
    "type": "Point",
    "coordinates": [
      24.5911612,
      58.3039674
    ]
  }
},
{
  "type": "Feature",
  "id": "node/4348537616",
  "properties": {
    "amenity": "toilets",
    "id": "node/4348537616"
  },
  "geometry": {
    "type": "Point",
    "coordinates": [
      22.6951632,
      58.597299
    ]
  }
},
{
  "type": "Feature",
  "id": "node/4350349893",
  "properties": {
    "amenity": "toilets",
    "id": "node/4350349893"
  },
  "geometry": {
    "type": "Point",
    "coordinates": [
      24.5900451,
      58.3024519
    ]
  }
},
{
  "type": "Feature",
  "id": "node/4350349894",
  "properties": {
    "amenity": "toilets",
    "id": "node/4350349894"
  },
  "geometry": {
    "type": "Point",
    "coordinates": [
      24.5886825,
      58.3008423
    ]
  }
},
{
  "type": "Feature",
  "id": "node/4350349895",
  "properties": {
    "amenity": "toilets",
    "id": "node/4350349895"
  },
  "geometry": {
    "type": "Point",
    "coordinates": [
      24.5878838,
      58.3010283
    ]
  }
},
{
  "type": "Feature",
  "id": "node/4350349897",
  "properties": {
    "amenity": "toilets",
    "id": "node/4350349897"
  },
  "geometry": {
    "type": "Point",
    "coordinates": [
      24.5899056,
      58.3021897
    ]
  }
},
{
  "type": "Feature",
  "id": "node/4350349901",
  "properties": {
    "amenity": "toilets",
    "id": "node/4350349901"
  },
  "geometry": {
    "type": "Point",
    "coordinates": [
      24.5881734,
      58.3019248
    ]
  }
},
{
  "type": "Feature",
  "id": "node/4381941191",
  "properties": {
    "amenity": "toilets",
    "id": "node/4381941191"
  },
  "geometry": {
    "type": "Point",
    "coordinates": [
      21.9878461,
      58.3605486
    ]
  }
},
{
  "type": "Feature",
  "id": "node/4386035703",
  "properties": {
    "amenity": "toilets",
    "operator": "RMK",
    "id": "node/4386035703"
  },
  "geometry": {
    "type": "Point",
    "coordinates": [
      23.8339395,
      58.3859311
    ]
  }
},
{
  "type": "Feature",
  "id": "node/4392312131",
  "properties": {
    "amenity": "toilets",
    "id": "node/4392312131"
  },
  "geometry": {
    "type": "Point",
    "coordinates": [
      27.1787157,
      57.8664245
    ]
  }
},
{
  "type": "Feature",
  "id": "node/4393674908",
  "properties": {
    "access": "yes",
    "amenity": "toilets",
    "fee": "no",
    "operator": "RMK",
    "toilets:disposal": "pitlatrine",
    "id": "node/4393674908"
  },
  "geometry": {
    "type": "Point",
    "coordinates": [
      25.5915422,
      58.2712014
    ]
  }
},
{
  "type": "Feature",
  "id": "node/4398006900",
  "properties": {
    "access": "yes",
    "amenity": "toilets",
    "id": "node/4398006900"
  },
  "geometry": {
    "type": "Point",
    "coordinates": [
      22.9903377,
      58.4861908
    ]
  }
},
{
  "type": "Feature",
  "id": "node/4438714159",
  "properties": {
    "amenity": "toilets",
    "operator": "RMK",
    "id": "node/4438714159"
  },
  "geometry": {
    "type": "Point",
    "coordinates": [
      25.2921135,
      58.630477
    ]
  }
},
{
  "type": "Feature",
  "id": "node/4492280203",
  "properties": {
    "amenity": "toilets",
    "id": "node/4492280203"
  },
  "geometry": {
    "type": "Point",
    "coordinates": [
      24.7165679,
      59.4514629
    ]
  }
},
{
  "type": "Feature",
  "id": "node/4571798105",
  "properties": {
    "amenity": "toilets",
    "id": "node/4571798105"
  },
  "geometry": {
    "type": "Point",
    "coordinates": [
      25.1504673,
      58.7420453
    ]
  }
},
{
  "type": "Feature",
  "id": "node/4572622020",
  "properties": {
    "amenity": "toilets",
    "fee": "yes",
    "id": "node/4572622020"
  },
  "geometry": {
    "type": "Point",
    "coordinates": [
      24.7742514,
      59.4272498
    ]
  }
},
{
  "type": "Feature",
  "id": "node/4666521091",
  "properties": {
    "amenity": "toilets",
    "id": "node/4666521091"
  },
  "geometry": {
    "type": "Point",
    "coordinates": [
      22.5079568,
      58.2631506
    ]
  }
},
{
  "type": "Feature",
  "id": "node/4703621783",
  "properties": {
    "amenity": "toilets",
    "toilets:wheelchair": "no",
    "wheelchair": "no",
    "id": "node/4703621783"
  },
  "geometry": {
    "type": "Point",
    "coordinates": [
      24.251034,
      59.3990329
    ]
  }
},
{
  "type": "Feature",
  "id": "node/4703621786",
  "properties": {
    "amenity": "toilets",
    "toilets:wheelchair": "no",
    "wheelchair": "no",
    "id": "node/4703621786"
  },
  "geometry": {
    "type": "Point",
    "coordinates": [
      24.2550792,
      59.399798
    ]
  }
},
{
  "type": "Feature",
  "id": "node/4719826338",
  "properties": {
    "amenity": "toilets",
    "id": "node/4719826338"
  },
  "geometry": {
    "type": "Point",
    "coordinates": [
      24.5039121,
      58.3741031
    ]
  }
},
{
  "type": "Feature",
  "id": "node/4742043899",
  "properties": {
    "access": "yes",
    "amenity": "toilets",
    "fee": "no",
    "operator": "RMK",
    "toilets:disposal": "pitlatrine",
    "id": "node/4742043899"
  },
  "geometry": {
    "type": "Point",
    "coordinates": [
      24.1417553,
      59.3669107
    ]
  }
},
{
  "type": "Feature",
  "id": "node/4811382919",
  "properties": {
    "amenity": "toilets",
    "id": "node/4811382919"
  },
  "geometry": {
    "type": "Point",
    "coordinates": [
      24.8117461,
      59.4019433
    ]
  }
},
{
  "type": "Feature",
  "id": "node/4829547646",
  "properties": {
    "amenity": "toilets",
    "id": "node/4829547646"
  },
  "geometry": {
    "type": "Point",
    "coordinates": [
      26.664417,
      58.345773
    ]
  }
},
{
  "type": "Feature",
  "id": "node/4870174442",
  "properties": {
    "amenity": "toilets",
    "id": "node/4870174442"
  },
  "geometry": {
    "type": "Point",
    "coordinates": [
      26.1195121,
      59.3048743
    ]
  }
},
{
  "type": "Feature",
  "id": "node/4908552425",
  "properties": {
    "amenity": "toilets",
    "id": "node/4908552425"
  },
  "geometry": {
    "type": "Point",
    "coordinates": [
      25.7436315,
      58.488759
    ]
  }
},
{
  "type": "Feature",
  "id": "node/4924466470",
  "properties": {
    "amenity": "toilets",
    "fee": "no",
    "wheelchair": "yes",
    "id": "node/4924466470"
  },
  "geometry": {
    "type": "Point",
    "coordinates": [
      24.7348125,
      59.4410413
    ]
  }
},
{
  "type": "Feature",
  "id": "node/4929408423",
  "properties": {
    "amenity": "toilets",
    "id": "node/4929408423"
  },
  "geometry": {
    "type": "Point",
    "coordinates": [
      24.7444352,
      59.4422999
    ]
  }
},
{
  "type": "Feature",
  "id": "node/4933816222",
  "properties": {
    "amenity": "toilets",
    "id": "node/4933816222"
  },
  "geometry": {
    "type": "Point",
    "coordinates": [
      24.7489903,
      59.4381621
    ]
  }
},
{
  "type": "Feature",
  "id": "node/4963225047",
  "properties": {
    "amenity": "toilets",
    "id": "node/4963225047"
  },
  "geometry": {
    "type": "Point",
    "coordinates": [
      22.6893585,
      59.0364942
    ]
  }
},
{
  "type": "Feature",
  "id": "node/4963252482",
  "properties": {
    "amenity": "toilets",
    "id": "node/4963252482"
  },
  "geometry": {
    "type": "Point",
    "coordinates": [
      22.6868747,
      59.0394259
    ]
  }
},
{
  "type": "Feature",
  "id": "node/4970943951",
  "properties": {
    "amenity": "toilets",
    "id": "node/4970943951"
  },
  "geometry": {
    "type": "Point",
    "coordinates": [
      22.1157225,
      58.4741488
    ]
  }
},
{
  "type": "Feature",
  "id": "node/4991076941",
  "properties": {
    "amenity": "toilets",
    "id": "node/4991076941"
  },
  "geometry": {
    "type": "Point",
    "coordinates": [
      24.490701,
      58.375786
    ]
  }
},
{
  "type": "Feature",
  "id": "node/4994432990",
  "properties": {
    "amenity": "toilets",
    "fee": "no",
    "id": "node/4994432990"
  },
  "geometry": {
    "type": "Point",
    "coordinates": [
      27.3735974,
      57.6419858
    ]
  }
},
{
  "type": "Feature",
  "id": "node/4998004871",
  "properties": {
    "amenity": "toilets",
    "id": "node/4998004871"
  },
  "geometry": {
    "type": "Point",
    "coordinates": [
      27.8494916,
      59.1727665
    ]
  }
},
{
  "type": "Feature",
  "id": "node/5032027494",
  "properties": {
    "amenity": "toilets",
    "id": "node/5032027494"
  },
  "geometry": {
    "type": "Point",
    "coordinates": [
      22.0691369,
      58.4324268
    ]
  }
},
{
  "type": "Feature",
  "id": "node/5078268623",
  "properties": {
    "amenity": "toilets",
    "id": "node/5078268623"
  },
  "geometry": {
    "type": "Point",
    "coordinates": [
      24.7482269,
      59.4415394
    ]
  }
},
{
  "type": "Feature",
  "id": "node/5143808539",
  "properties": {
    "access": "yes",
    "amenity": "toilets",
    "fee": "no",
    "id": "node/5143808539"
  },
  "geometry": {
    "type": "Point",
    "coordinates": [
      24.7139434,
      58.0068453
    ]
  }
},
{
  "type": "Feature",
  "id": "node/5147507925",
  "properties": {
    "amenity": "toilets",
    "id": "node/5147507925"
  },
  "geometry": {
    "type": "Point",
    "coordinates": [
      24.6440962,
      59.4343229
    ]
  }
},
{
  "type": "Feature",
  "id": "node/5147635521",
  "properties": {
    "access": "customers",
    "amenity": "toilets",
    "fee": "no",
    "unisex": "yes",
    "wheelchair": "no",
    "id": "node/5147635521"
  },
  "geometry": {
    "type": "Point",
    "coordinates": [
      24.6312232,
      59.4381745
    ]
  }
},
{
  "type": "Feature",
  "id": "node/5153057521",
  "properties": {
    "amenity": "toilets",
    "fee": "no",
    "wheelchair": "limited",
    "id": "node/5153057521"
  },
  "geometry": {
    "type": "Point",
    "coordinates": [
      25.6382368,
      59.4710011
    ]
  }
},
{
  "type": "Feature",
  "id": "node/5169829111",
  "properties": {
    "amenity": "toilets",
    "id": "node/5169829111"
  },
  "geometry": {
    "type": "Point",
    "coordinates": [
      25.1534729,
      58.4567145
    ]
  }
},
{
  "type": "Feature",
  "id": "node/5197265222",
  "properties": {
    "amenity": "toilets",
    "fee": "yes",
    "portable": "no",
    "wheelchair": "no",
    "id": "node/5197265222"
  },
  "geometry": {
    "type": "Point",
    "coordinates": [
      24.7647121,
      59.4339394
    ]
  }
},
{
  "type": "Feature",
  "id": "node/5209950581",
  "properties": {
    "amenity": "toilets",
    "layer": "-1",
    "id": "node/5209950581"
  },
  "geometry": {
    "type": "Point",
    "coordinates": [
      24.79929,
      59.4167275
    ]
  }
},
{
  "type": "Feature",
  "id": "node/5210895235",
  "properties": {
    "amenity": "toilets",
    "operator": "RMK",
    "id": "node/5210895235"
  },
  "geometry": {
    "type": "Point",
    "coordinates": [
      26.0997361,
      59.56577
    ]
  }
},
{
  "type": "Feature",
  "id": "node/5211836289",
  "properties": {
    "amenity": "toilets",
    "operator": "RMK",
    "id": "node/5211836289"
  },
  "geometry": {
    "type": "Point",
    "coordinates": [
      26.1119356,
      59.5713539
    ]
  }
},
{
  "type": "Feature",
  "id": "node/5223610130",
  "properties": {
    "amenity": "toilets",
    "id": "node/5223610130"
  },
  "geometry": {
    "type": "Point",
    "coordinates": [
      27.0670436,
      58.2067984
    ]
  }
},
{
  "type": "Feature",
  "id": "node/5223714729",
  "properties": {
    "amenity": "toilets",
    "id": "node/5223714729"
  },
  "geometry": {
    "type": "Point",
    "coordinates": [
      27.2086011,
      57.9478261
    ]
  }
},
{
  "type": "Feature",
  "id": "node/5224832081",
  "properties": {
    "amenity": "toilets",
    "id": "node/5224832081"
  },
  "geometry": {
    "type": "Point",
    "coordinates": [
      25.9739223,
      59.5078046
    ]
  }
},
{
  "type": "Feature",
  "id": "node/5224871850",
  "properties": {
    "amenity": "toilets",
    "id": "node/5224871850"
  },
  "geometry": {
    "type": "Point",
    "coordinates": [
      25.9830288,
      59.5030694
    ]
  }
},
{
  "type": "Feature",
  "id": "node/5295265782",
  "properties": {
    "amenity": "toilets",
    "id": "node/5295265782"
  },
  "geometry": {
    "type": "Point",
    "coordinates": [
      26.1312815,
      58.2302849
    ]
  }
},
{
  "type": "Feature",
  "id": "node/5297430486",
  "properties": {
    "amenity": "toilets",
    "id": "node/5297430486"
  },
  "geometry": {
    "type": "Point",
    "coordinates": [
      26.2257515,
      58.1540589
    ]
  }
},
{
  "type": "Feature",
  "id": "node/5354373658",
  "properties": {
    "amenity": "toilets",
    "id": "node/5354373658"
  },
  "geometry": {
    "type": "Point",
    "coordinates": [
      25.1963862,
      58.3804717
    ]
  }
},
{
  "type": "Feature",
  "id": "node/5405830265",
  "properties": {
    "amenity": "toilets",
    "id": "node/5405830265"
  },
  "geometry": {
    "type": "Point",
    "coordinates": [
      26.0571078,
      58.202102
    ]
  }
},
{
  "type": "Feature",
  "id": "node/5485453922",
  "properties": {
    "amenity": "toilets",
    "opening_hours": "Mo-Su 09:00-22:00",
    "operator": "Rimi",
    "id": "node/5485453922"
  },
  "geometry": {
    "type": "Point",
    "coordinates": [
      24.7073563,
      59.4142316
    ]
  }
},
{
  "type": "Feature",
  "id": "node/5485453923",
  "properties": {
    "amenity": "toilets",
    "opening_hours": "Mo-Su 09:00-23:00",
    "id": "node/5485453923"
  },
  "geometry": {
    "type": "Point",
    "coordinates": [
      24.7233108,
      59.4271485
    ]
  }
},
{
  "type": "Feature",
  "id": "node/5485453924",
  "properties": {
    "amenity": "toilets",
    "opening_hours": "Mo-Su 09:00-23:00",
    "id": "node/5485453924"
  },
  "geometry": {
    "type": "Point",
    "coordinates": [
      24.7249189,
      59.4262985
    ]
  }
},
{
  "type": "Feature",
  "id": "node/5536100212",
  "properties": {
    "amenity": "toilets",
    "id": "node/5536100212"
  },
  "geometry": {
    "type": "Point",
    "coordinates": [
      24.6919785,
      58.6935879
    ]
  }
},
{
  "type": "Feature",
  "id": "node/5536256824",
  "properties": {
    "amenity": "toilets",
    "id": "node/5536256824"
  },
  "geometry": {
    "type": "Point",
    "coordinates": [
      25.4475526,
      58.9356621
    ]
  }
},
{
  "type": "Feature",
  "id": "node/5607291416",
  "properties": {
    "amenity": "toilets",
    "toilets:disposal": "pitlatrine",
    "unisex": "yes",
    "id": "node/5607291416"
  },
  "geometry": {
    "type": "Point",
    "coordinates": [
      23.674041,
      58.7452557
    ]
  }
},
{
  "type": "Feature",
  "id": "node/5643333753",
  "properties": {
    "access": "yes",
    "amenity": "toilets",
    "changing_table": "no",
    "drinking_water": "no",
    "fee": "no",
    "toilets:disposal": "pitlatrine",
    "toilets:position": "seated",
    "unisex": "yes",
    "id": "node/5643333753"
  },
  "geometry": {
    "type": "Point",
    "coordinates": [
      25.7771015,
      59.5677844
    ]
  }
},
{
  "type": "Feature",
  "id": "node/5648851018",
  "properties": {
    "amenity": "toilets",
    "id": "node/5648851018"
  },
  "geometry": {
    "type": "Point",
    "coordinates": [
      26.9550558,
      59.4347549
    ]
  }
},
{
  "type": "Feature",
  "id": "node/5675225905",
  "properties": {
    "access": "yes",
    "amenity": "toilets",
    "changing_table": "no",
    "fee": "no",
    "toilets:disposal": "flush",
    "unisex": "yes",
    "id": "node/5675225905"
  },
  "geometry": {
    "type": "Point",
    "coordinates": [
      25.5556689,
      58.8844594
    ]
  }
},
{
  "type": "Feature",
  "id": "node/5675225906",
  "properties": {
    "amenity": "toilets",
    "fee": "yes",
    "opening_hours": "24/7",
    "toilets:disposal": "flush",
    "toilets:wheelchair": "yes",
    "unisex": "yes",
    "id": "node/5675225906"
  },
  "geometry": {
    "type": "Point",
    "coordinates": [
      25.5692718,
      58.8874109
    ]
  }
},
{
  "type": "Feature",
  "id": "node/5676597776",
  "properties": {
    "access": "yes",
    "amenity": "toilets",
    "changing_table": "no",
    "fee": "no",
    "operator": "Maxima",
    "toilets:disposal": "flush",
    "unisex": "yes",
    "id": "node/5676597776"
  },
  "geometry": {
    "type": "Point",
    "coordinates": [
      25.5563345,
      58.8865312
    ]
  }
},
{
  "type": "Feature",
  "id": "node/5681140750",
  "properties": {
    "amenity": "toilets",
    "fee": "no",
    "id": "node/5681140750"
  },
  "geometry": {
    "type": "Point",
    "coordinates": [
      27.3110995,
      59.1005143
    ]
  }
},
{
  "type": "Feature",
  "id": "node/5712113057",
  "properties": {
    "amenity": "toilets",
    "id": "node/5712113057"
  },
  "geometry": {
    "type": "Point",
    "coordinates": [
      27.327079,
      58.2701344
    ]
  }
},
{
  "type": "Feature",
  "id": "node/5731811171",
  "properties": {
    "amenity": "toilets",
    "id": "node/5731811171"
  },
  "geometry": {
    "type": "Point",
    "coordinates": [
      24.1679705,
      58.6576484
    ]
  }
},
{
  "type": "Feature",
  "id": "node/5731811178",
  "properties": {
    "amenity": "toilets",
    "id": "node/5731811178"
  },
  "geometry": {
    "type": "Point",
    "coordinates": [
      24.1752455,
      58.646471
    ]
  }
},
{
  "type": "Feature",
  "id": "node/5731825181",
  "properties": {
    "amenity": "toilets",
    "id": "node/5731825181"
  },
  "geometry": {
    "type": "Point",
    "coordinates": [
      23.5804842,
      58.6904236
    ]
  }
},
{
  "type": "Feature",
  "id": "node/5734690045",
  "properties": {
    "amenity": "toilets",
    "id": "node/5734690045"
  },
  "geometry": {
    "type": "Point",
    "coordinates": [
      24.3405487,
      58.7864843
    ]
  }
},
{
  "type": "Feature",
  "id": "node/5739471282",
  "properties": {
    "amenity": "toilets",
    "id": "node/5739471282"
  },
  "geometry": {
    "type": "Point",
    "coordinates": [
      25.3871016,
      59.43691
    ]
  }
},
{
  "type": "Feature",
  "id": "node/5780230648",
  "properties": {
    "access": "yes",
    "amenity": "toilets",
    "drinking_water": "no",
    "fee": "no",
    "toilets:disposal": "pitlatrine",
    "toilets:handwashing": "no",
    "unisex": "yes",
    "wheelchair": "no",
    "id": "node/5780230648"
  },
  "geometry": {
    "type": "Point",
    "coordinates": [
      24.0599906,
      58.9606941
    ]
  }
},
{
  "type": "Feature",
  "id": "node/5793413798",
  "properties": {
    "amenity": "toilets",
    "female": "yes",
    "male": "yes",
    "toilets:disposal": "pitlatrine",
    "toilets:handwashing": "no",
    "id": "node/5793413798"
  },
  "geometry": {
    "type": "Point",
    "coordinates": [
      25.7087779,
      59.5782356
    ]
  }
},
{
  "type": "Feature",
  "id": "node/5822170353",
  "properties": {
    "amenity": "toilets",
    "id": "node/5822170353"
  },
  "geometry": {
    "type": "Point",
    "coordinates": [
      24.4971147,
      58.3753294
    ]
  }
},
{
  "type": "Feature",
  "id": "node/5830297383",
  "properties": {
    "amenity": "toilets",
    "operator": "RMK",
    "id": "node/5830297383"
  },
  "geometry": {
    "type": "Point",
    "coordinates": [
      22.1327058,
      58.9078339
    ]
  }
},
{
  "type": "Feature",
  "id": "node/5841532163",
  "properties": {
    "amenity": "toilets",
    "level": "0",
    "id": "node/5841532163"
  },
  "geometry": {
    "type": "Point",
    "coordinates": [
      25.5984903,
      58.3679989
    ]
  }
},
{
  "type": "Feature",
  "id": "node/5865099047",
  "properties": {
    "access": "customers",
    "amenity": "toilets",
    "gender_segregated": "yes",
    "wheelchair": "limited",
    "id": "node/5865099047"
  },
  "geometry": {
    "type": "Point",
    "coordinates": [
      24.4881655,
      58.3859292
    ]
  }
},
{
  "type": "Feature",
  "id": "node/5893179500",
  "properties": {
    "amenity": "toilets",
    "id": "node/5893179500"
  },
  "geometry": {
    "type": "Point",
    "coordinates": [
      25.586848,
      58.4388017
    ]
  }
},
{
  "type": "Feature",
  "id": "node/5912466386",
  "properties": {
    "access": "yes",
    "amenity": "toilets",
    "fee": "no",
    "toilets:disposal": "pitlatrine",
    "unisex": "yes",
    "wheelchair": "yes",
    "id": "node/5912466386"
  },
  "geometry": {
    "type": "Point",
    "coordinates": [
      23.6030966,
      59.2210077
    ]
  }
},
{
  "type": "Feature",
  "id": "node/5912476985",
  "properties": {
    "amenity": "toilets",
    "opening_hours": "24/7",
    "id": "node/5912476985"
  },
  "geometry": {
    "type": "Point",
    "coordinates": [
      23.6057991,
      59.2224211
    ]
  }
},
{
  "type": "Feature",
  "id": "node/5924130019",
  "properties": {
    "access": "yes",
    "amenity": "toilets",
    "drinking_water": "no",
    "fee": "no",
    "opening_hours": "24/7",
    "toilets:disposal": "chemical",
    "unisex": "yes",
    "id": "node/5924130019"
  },
  "geometry": {
    "type": "Point",
    "coordinates": [
      25.8413219,
      59.4600337
    ]
  }
},
{
  "type": "Feature",
  "id": "node/5937532637",
  "properties": {
    "access": "yes",
    "amenity": "toilets",
    "drinking_water": "no",
    "fee": "no",
    "opening_hours": "24/7",
    "toilets:disposal": "chemical",
    "unisex": "yes",
    "id": "node/5937532637"
  },
  "geometry": {
    "type": "Point",
    "coordinates": [
      25.7548982,
      59.4626356
    ]
  }
},
{
  "type": "Feature",
  "id": "node/5989397885",
  "properties": {
    "amenity": "toilets",
    "fee": "yes",
    "toilets:disposal": "flush",
    "unisex": "yes",
    "wheelchair": "yes",
    "id": "node/5989397885"
  },
  "geometry": {
    "type": "Point",
    "coordinates": [
      24.7533565,
      59.436056
    ]
  }
},
{
  "type": "Feature",
  "id": "node/5993689584",
  "properties": {
    "amenity": "toilets",
    "id": "node/5993689584"
  },
  "geometry": {
    "type": "Point",
    "coordinates": [
      26.5361804,
      58.3967395
    ]
  }
},
{
  "type": "Feature",
  "id": "node/6232818294",
  "properties": {
    "amenity": "toilets",
    "fee": "yes",
    "wheelchair": "yes",
    "id": "node/6232818294"
  },
  "geometry": {
    "type": "Point",
    "coordinates": [
      24.7437418,
      59.4332452
    ]
  }
},
{
  "type": "Feature",
  "id": "node/6418277803",
  "properties": {
    "amenity": "toilets",
    "id": "node/6418277803"
  },
  "geometry": {
    "type": "Point",
    "coordinates": [
      26.4122423,
      57.9728374
    ]
  }
},
{
  "type": "Feature",
  "id": "node/6550894581",
  "properties": {
    "amenity": "toilets",
    "toilets:disposal": "flush",
    "id": "node/6550894581"
  },
  "geometry": {
    "type": "Point",
    "coordinates": [
      24.3828847,
      57.8758192
    ]
  }
},
{
  "type": "Feature",
  "id": "node/6584734329",
  "properties": {
    "access": "yes",
    "amenity": "toilets",
    "changing_table": "no",
    "id": "node/6584734329"
  },
  "geometry": {
    "type": "Point",
    "coordinates": [
      23.4264804,
      58.904703
    ]
  }
},
{
  "type": "Feature",
  "id": "node/6594352447",
  "properties": {
    "amenity": "toilets",
    "id": "node/6594352447"
  },
  "geometry": {
    "type": "Point",
    "coordinates": [
      26.727393,
      58.379464
    ]
  }
},
{
  "type": "Feature",
  "id": "node/6606445082",
  "properties": {
    "amenity": "toilets",
    "fee": "yes",
    "id": "node/6606445082"
  },
  "geometry": {
    "type": "Point",
    "coordinates": [
      28.2026214,
      59.376994
    ]
  }
},
{
  "type": "Feature",
  "id": "node/6615858085",
  "properties": {
    "amenity": "toilets",
    "operator": "Lepispea Camping",
    "id": "node/6615858085"
  },
  "geometry": {
    "type": "Point",
    "coordinates": [
      25.9377935,
      59.5769109
    ]
  }
},
{
  "type": "Feature",
  "id": "node/6616142196",
  "properties": {
    "amenity": "toilets",
    "id": "node/6616142196"
  },
  "geometry": {
    "type": "Point",
    "coordinates": [
      22.5319393,
      58.5739743
    ]
  }
},
{
  "type": "Feature",
  "id": "node/6617407318",
  "properties": {
    "amenity": "toilets",
    "fee": "yes",
    "id": "node/6617407318"
  },
  "geometry": {
    "type": "Point",
    "coordinates": [
      22.4858496,
      58.2527945
    ]
  }
},
{
  "type": "Feature",
  "id": "node/6680599014",
  "properties": {
    "amenity": "toilets",
    "changing_table": "no",
    "unisex": "yes",
    "id": "node/6680599014"
  },
  "geometry": {
    "type": "Point",
    "coordinates": [
      23.5213579,
      58.9774815
    ]
  }
},
{
  "type": "Feature",
  "id": "node/6681177834",
  "properties": {
    "access": "yes",
    "amenity": "toilets",
    "changing_table": "no",
    "unisex": "yes",
    "id": "node/6681177834"
  },
  "geometry": {
    "type": "Point",
    "coordinates": [
      26.6636044,
      58.3964924
    ]
  }
},
{
  "type": "Feature",
  "id": "node/6694548498",
  "properties": {
    "amenity": "toilets",
    "id": "node/6694548498"
  },
  "geometry": {
    "type": "Point",
    "coordinates": [
      26.9679778,
      57.7332932
    ]
  }
},
{
  "type": "Feature",
  "id": "node/6747281220",
  "properties": {
    "amenity": "toilets",
    "changing_table": "no",
    "fee": "no",
    "toilets:disposal": "pitlatrine",
    "toilets:handwashing": "no",
    "unisex": "yes",
    "wheelchair": "no",
    "id": "node/6747281220"
  },
  "geometry": {
    "type": "Point",
    "coordinates": [
      25.0601498,
      59.1479576
    ]
  }
},
{
  "type": "Feature",
  "id": "node/6747308459",
  "properties": {
    "access": "yes",
    "amenity": "toilets",
    "changing_table": "no",
    "fee": "no",
    "operator": "RMK",
    "toilets:disposal": "pitlatrine",
    "toilets:handwashing": "no",
    "unisex": "yes",
    "wheelchair": "no",
    "id": "node/6747308459"
  },
  "geometry": {
    "type": "Point",
    "coordinates": [
      25.0999108,
      58.9439038
    ]
  }
},
{
  "type": "Feature",
  "id": "node/6747313584",
  "properties": {
    "amenity": "toilets",
    "changing_table": "no",
    "fee": "no",
    "operator": "RMK",
    "toilets:disposal": "pitlatrine",
    "toilets:handwashing": "no",
    "unisex": "yes",
    "wheelchair": "no",
    "id": "node/6747313584"
  },
  "geometry": {
    "type": "Point",
    "coordinates": [
      25.2744479,
      58.9943347
    ]
  }
},
{
  "type": "Feature",
  "id": "node/6747356346",
  "properties": {
    "access": "yes",
    "amenity": "toilets",
    "changing_table": "no",
    "fee": "no",
    "operator": "RMK",
    "toilets:disposal": "pitlatrine",
    "toilets:handwashing": "no",
    "unisex": "yes",
    "id": "node/6747356346"
  },
  "geometry": {
    "type": "Point",
    "coordinates": [
      25.387318,
      59.1105687
    ]
  }
},
{
  "type": "Feature",
  "id": "node/6747356347",
  "properties": {
    "access": "yes",
    "amenity": "toilets",
    "changing_table": "no",
    "fee": "no",
    "operator": "RMK",
    "toilets:disposal": "pitlatrine",
    "toilets:handwashing": "no",
    "unisex": "yes",
    "id": "node/6747356347"
  },
  "geometry": {
    "type": "Point",
    "coordinates": [
      25.3872455,
      59.1106471
    ]
  }
},
{
  "type": "Feature",
  "id": "node/6772955786",
  "properties": {
    "access": "yes",
    "amenity": "toilets",
    "changing_table": "no",
    "fee": "no",
    "opening_hours": "24/7",
    "operator": "RMK",
    "toilets:disposal": "pitlatrine",
    "toilets:handwashing": "no",
    "unisex": "yes",
    "wheelchair": "no",
    "id": "node/6772955786"
  },
  "geometry": {
    "type": "Point",
    "coordinates": [
      24.5110834,
      59.6047078
    ]
  }
},
{
  "type": "Feature",
  "id": "node/6772985129",
  "properties": {
    "access": "yes",
    "amenity": "toilets",
    "changing_table": "no",
    "fee": "no",
    "opening_hours": "24/7",
    "toilets:disposal": "pitlatrine",
    "toilets:handwashing": "no",
    "unisex": "yes",
    "wheelchair": "no",
    "id": "node/6772985129"
  },
  "geometry": {
    "type": "Point",
    "coordinates": [
      24.5107465,
      59.6000285
    ]
  }
},
{
  "type": "Feature",
  "id": "node/6773066884",
  "properties": {
    "access": "yes",
    "amenity": "toilets",
    "changing_table": "no",
    "fee": "no",
    "opening_hours": "24/7",
    "operator": "RMK",
    "toilets:disposal": "pitlatrine",
    "toilets:handwashing": "no",
    "unisex": "yes",
    "wheelchair": "no",
    "id": "node/6773066884"
  },
  "geometry": {
    "type": "Point",
    "coordinates": [
      24.5625026,
      59.5412483
    ]
  }
},
{
  "type": "Feature",
  "id": "node/6796596712",
  "properties": {
    "access": "customers",
    "amenity": "toilets",
    "id": "node/6796596712"
  },
  "geometry": {
    "type": "Point",
    "coordinates": [
      24.4192319,
      57.9931163
    ]
  }
},
{
  "type": "Feature",
  "id": "node/6807496153",
  "properties": {
    "amenity": "toilets",
    "id": "node/6807496153"
  },
  "geometry": {
    "type": "Point",
    "coordinates": [
      23.536507,
      58.9466444
    ]
  }
},
{
  "type": "Feature",
  "id": "node/6807544074",
  "properties": {
    "amenity": "toilets",
    "fee": "no",
    "opening_hours": "Mo-Su 9:00-21:00",
    "wheelchair": "yes",
    "id": "node/6807544074"
  },
  "geometry": {
    "type": "Point",
    "coordinates": [
      24.8369484,
      59.4793464
    ]
  }
},
{
  "type": "Feature",
  "id": "node/6807544228",
  "properties": {
    "amenity": "toilets",
    "fee": "0.20 €",
    "id": "node/6807544228"
  },
  "geometry": {
    "type": "Point",
    "coordinates": [
      22.4858424,
      58.2527892
    ]
  }
},
{
  "type": "Feature",
  "id": "node/6847828518",
  "properties": {
    "amenity": "toilets",
    "id": "node/6847828518"
  },
  "geometry": {
    "type": "Point",
    "coordinates": [
      25.700046,
      59.6670771
    ]
  }
},
{
  "type": "Feature",
  "id": "node/6977572236",
  "properties": {
    "amenity": "toilets",
    "id": "node/6977572236"
  },
  "geometry": {
    "type": "Point",
    "coordinates": [
      24.248951,
      58.7694398
    ]
  }
},
{
  "type": "Feature",
  "id": "node/7098064609",
  "properties": {
    "amenity": "toilets",
    "id": "node/7098064609"
  },
  "geometry": {
    "type": "Point",
    "coordinates": [
      26.6630924,
      57.5724383
    ]
  }
},
{
  "type": "Feature",
  "id": "node/7159489998",
  "properties": {
    "amenity": "toilets",
    "id": "node/7159489998"
  },
  "geometry": {
    "type": "Point",
    "coordinates": [
      24.5502345,
      58.3706481
    ]
  }
},
{
  "type": "Feature",
  "id": "node/7242982995",
  "properties": {
    "access": "yes",
    "amenity": "toilets",
    "id": "node/7242982995"
  },
  "geometry": {
    "type": "Point",
    "coordinates": [
      25.9697131,
      58.6540712
    ]
  }
},
{
  "type": "Feature",
  "id": "node/7485573912",
  "properties": {
    "amenity": "toilets",
    "id": "node/7485573912"
  },
  "geometry": {
    "type": "Point",
    "coordinates": [
      25.0162669,
      59.4797287
    ]
  }
},
{
  "type": "Feature",
  "id": "node/7485573913",
  "properties": {
    "amenity": "toilets",
    "id": "node/7485573913"
  },
  "geometry": {
    "type": "Point",
    "coordinates": [
      25.016264,
      59.4797078
    ]
  }
},
{
  "type": "Feature",
  "id": "node/7615589346",
  "properties": {
    "amenity": "toilets",
    "fee": "no",
    "id": "node/7615589346"
  },
  "geometry": {
    "type": "Point",
    "coordinates": [
      26.723292,
      58.3818789
    ]
  }
},
{
  "type": "Feature",
  "id": "node/7616220185",
  "properties": {
    "amenity": "toilets",
    "id": "node/7616220185"
  },
  "geometry": {
    "type": "Point",
    "coordinates": [
      26.7196093,
      58.3799172
    ]
  }
},
{
  "type": "Feature",
  "id": "node/7617359424",
  "properties": {
    "amenity": "toilets",
    "id": "node/7617359424"
  },
  "geometry": {
    "type": "Point",
    "coordinates": [
      26.2691808,
      58.4349813
    ]
  }
},
{
  "type": "Feature",
  "id": "node/7747301989",
  "properties": {
    "access": "yes",
    "amenity": "toilets",
    "fee": "no",
    "female": "yes",
    "name": "free toilet",
    "toilets:disposal": "flush",
    "id": "node/7747301989"
  },
  "geometry": {
    "type": "Point",
    "coordinates": [
      24.5000681,
      58.3736308
    ]
  }
},
{
  "type": "Feature",
  "id": "node/7747314656",
  "properties": {
    "amenity": "toilets",
    "source": "GPS;survey",
    "id": "node/7747314656"
  },
  "geometry": {
    "type": "Point",
    "coordinates": [
      24.4506825,
      58.0199861
    ]
  }
},
{
  "type": "Feature",
  "id": "node/7747314657",
  "properties": {
    "amenity": "toilets",
    "source": "GPS;survey",
    "id": "node/7747314657"
  },
  "geometry": {
    "type": "Point",
    "coordinates": [
      24.4507039,
      58.0186848
    ]
  }
},
{
  "type": "Feature",
  "id": "node/7762530617",
  "properties": {
    "amenity": "toilets",
    "id": "node/7762530617"
  },
  "geometry": {
    "type": "Point",
    "coordinates": [
      26.731407,
      58.3786482
    ]
  }
},
{
  "type": "Feature",
  "id": "node/7778258425",
  "properties": {
    "access": "private",
    "amenity": "toilets",
    "changing_table": "no",
    "unisex": "yes",
    "id": "node/7778258425"
  },
  "geometry": {
    "type": "Point",
    "coordinates": [
      24.5368513,
      58.8821339
    ]
  }
},
{
  "type": "Feature",
  "id": "node/7778258468",
  "properties": {
    "access": "private",
    "amenity": "toilets",
    "changing_table": "no",
    "unisex": "yes",
    "id": "node/7778258468"
  },
  "geometry": {
    "type": "Point",
    "coordinates": [
      24.5351686,
      58.8806954
    ]
  }
},
{
  "type": "Feature",
  "id": "node/7778258481",
  "properties": {
    "access": "private",
    "amenity": "toilets",
    "changing_table": "no",
    "toilets:handwashing": "no",
    "unisex": "yes",
    "wheelchair": "no",
    "id": "node/7778258481"
  },
  "geometry": {
    "type": "Point",
    "coordinates": [
      24.5354046,
      58.8819433
    ]
  }
},
{
  "type": "Feature",
  "id": "node/7794899108",
  "properties": {
    "amenity": "toilets",
    "id": "node/7794899108"
  },
  "geometry": {
    "type": "Point",
    "coordinates": [
      27.1669705,
      58.6680022
    ]
  }
},
{
  "type": "Feature",
  "id": "node/7812295732",
  "properties": {
    "amenity": "toilets",
    "id": "node/7812295732"
  },
  "geometry": {
    "type": "Point",
    "coordinates": [
      23.6839056,
      58.4349649
    ]
  }
},
{
  "type": "Feature",
  "id": "node/7837846086",
  "properties": {
    "access": "yes",
    "amenity": "toilets",
    "changing_table": "no",
    "operator": "RMK",
    "toilets:disposal": "pitlatrine",
    "toilets:handwashing": "no",
    "unisex": "no",
    "wheelchair": "no",
    "id": "node/7837846086"
  },
  "geometry": {
    "type": "Point",
    "coordinates": [
      27.1055478,
      58.3828307
    ]
  }
},
{
  "type": "Feature",
  "id": "node/7837846097",
  "properties": {
    "access": "yes",
    "amenity": "toilets",
    "changing_table": "no",
    "toilets:disposal": "pitlatrine",
    "toilets:handwashing": "no",
    "unisex": "yes",
    "wheelchair": "no",
    "id": "node/7837846097"
  },
  "geometry": {
    "type": "Point",
    "coordinates": [
      27.115141,
      58.3845384
    ]
  }
},
{
  "type": "Feature",
  "id": "node/7845843660",
  "properties": {
    "amenity": "toilets",
    "fee": "yes",
    "name": "Public toilet",
    "wheelchair": "no",
    "id": "node/7845843660"
  },
  "geometry": {
    "type": "Point",
    "coordinates": [
      24.7544728,
      59.431747
    ]
  }
},
{
  "type": "Feature",
  "id": "node/7852154443",
  "properties": {
    "amenity": "toilets",
    "id": "node/7852154443"
  },
  "geometry": {
    "type": "Point",
    "coordinates": [
      24.2179075,
      59.3303125
    ]
  }
},
{
  "type": "Feature",
  "id": "node/7858989146",
  "properties": {
    "access": "yes",
    "amenity": "toilets",
    "changing_table": "no",
    "fee": "no",
    "wheelchair": "no",
    "id": "node/7858989146"
  },
  "geometry": {
    "type": "Point",
    "coordinates": [
      25.1786566,
      59.4490105
    ]
  }
},
{
  "type": "Feature",
  "id": "node/7864153421",
  "properties": {
    "access": "yes",
    "amenity": "toilets",
    "changing_table": "no",
    "unisex": "yes",
    "id": "node/7864153421"
  },
  "geometry": {
    "type": "Point",
    "coordinates": [
      25.5630815,
      58.3034702
    ]
  }
},
{
  "type": "Feature",
  "id": "node/7968669465",
  "properties": {
    "amenity": "toilets",
    "fee": "no",
    "id": "node/7968669465"
  },
  "geometry": {
    "type": "Point",
    "coordinates": [
      24.7943737,
      59.4244257
    ]
  }
},
{
  "type": "Feature",
  "id": "node/8078777494",
  "properties": {
    "amenity": "toilets",
    "id": "node/8078777494"
  },
  "geometry": {
    "type": "Point",
    "coordinates": [
      25.5582513,
      57.9828839
    ]
  }
},
{
  "type": "Feature",
  "id": "node/8230427233",
  "properties": {
    "amenity": "toilets",
    "id": "node/8230427233"
  },
  "geometry": {
    "type": "Point",
    "coordinates": [
      27.0780413,
      58.5261044
    ]
  }
},
{
  "type": "Feature",
  "id": "node/8244757617",
  "properties": {
    "amenity": "toilets",
    "toilets:disposal": "pitlatrine",
    "id": "node/8244757617"
  },
  "geometry": {
    "type": "Point",
    "coordinates": [
      26.6964079,
      58.5286301
    ]
  }
},
{
  "type": "Feature",
  "id": "node/8401691447",
  "properties": {
    "amenity": "toilets",
    "unisex": "yes",
    "id": "node/8401691447"
  },
  "geometry": {
    "type": "Point",
    "coordinates": [
      23.9974877,
      58.3601395
    ]
  }
},
{
  "type": "Feature",
  "id": "node/8411884701",
  "properties": {
    "amenity": "toilets",
    "id": "node/8411884701"
  },
  "geometry": {
    "type": "Point",
    "coordinates": [
      24.7247332,
      59.4261829
    ]
  }
},
{
  "type": "Feature",
  "id": "node/8540714085",
  "properties": {
    "amenity": "toilets",
    "id": "node/8540714085"
  },
  "geometry": {
    "type": "Point",
    "coordinates": [
      24.7471544,
      58.943523
    ]
  }
},
{
  "type": "Feature",
  "id": "node/8587012020",
  "properties": {
    "amenity": "toilets",
    "unisex": "yes",
    "id": "node/8587012020"
  },
  "geometry": {
    "type": "Point",
    "coordinates": [
      24.8834466,
      59.4517791
    ]
  }
},
{
  "type": "Feature",
  "id": "node/8635772366",
  "properties": {
    "access": "yes",
    "amenity": "toilets",
    "changing_table": "no",
    "toilets:disposal": "chemical",
    "unisex": "yes",
    "wheelchair": "no",
    "id": "node/8635772366"
  },
  "geometry": {
    "type": "Point",
    "coordinates": [
      27.3564924,
      57.6389924
    ]
  }
},
{
  "type": "Feature",
  "id": "node/8640303720",
  "properties": {
    "amenity": "toilets",
    "id": "node/8640303720"
  },
  "geometry": {
    "type": "Point",
    "coordinates": [
      24.2586502,
      59.401112
    ]
  }
},
{
  "type": "Feature",
  "id": "node/8690581689",
  "properties": {
    "amenity": "toilets",
    "id": "node/8690581689"
  },
  "geometry": {
    "type": "Point",
    "coordinates": [
      24.8028522,
      59.5607651
    ]
  }
},
{
  "type": "Feature",
  "id": "node/8691387226",
  "properties": {
    "amenity": "toilets",
    "id": "node/8691387226"
  },
  "geometry": {
    "type": "Point",
    "coordinates": [
      24.7532931,
      59.4400509
    ]
  }
},
{
  "type": "Feature",
  "id": "node/8746087112",
  "properties": {
    "access": "private",
    "amenity": "toilets",
    "unisex": "yes",
    "id": "node/8746087112"
  },
  "geometry": {
    "type": "Point",
    "coordinates": [
      26.7644089,
      58.3653343
    ]
  }
},
{
  "type": "Feature",
  "id": "node/8746827597",
  "properties": {
    "amenity": "toilets",
    "id": "node/8746827597"
  },
  "geometry": {
    "type": "Point",
    "coordinates": [
      27.1447279,
      59.335518
    ]
  }
},
{
  "type": "Feature",
  "id": "node/8750932789",
  "properties": {
    "amenity": "toilets",
    "unisex": "yes",
    "id": "node/8750932789"
  },
  "geometry": {
    "type": "Point",
    "coordinates": [
      27.3358427,
      57.945044
    ]
  }
},
{
  "type": "Feature",
  "id": "node/8752493669",
  "properties": {
    "amenity": "toilets",
    "fee": "no",
    "wheelchair": "no",
    "id": "node/8752493669"
  },
  "geometry": {
    "type": "Point",
    "coordinates": [
      24.9946079,
      59.4509295
    ]
  }
},
{
  "type": "Feature",
  "id": "node/8880941873",
  "properties": {
    "amenity": "toilets",
    "fee": "no",
    "toilets:disposal": "chemical",
    "unisex": "yes",
    "wheelchair": "no",
    "id": "node/8880941873"
  },
  "geometry": {
    "type": "Point",
    "coordinates": [
      26.8763351,
      57.850643
    ]
  }
},
{
  "type": "Feature",
  "id": "node/8889763805",
  "properties": {
    "access": "yes",
    "amenity": "toilets",
    "toilets:disposal": "chemical",
    "unisex": "yes",
    "wheelchair": "no",
    "id": "node/8889763805"
  },
  "geometry": {
    "type": "Point",
    "coordinates": [
      27.0293117,
      57.793279
    ]
  }
},
{
  "type": "Feature",
  "id": "node/8892184571",
  "properties": {
    "amenity": "toilets",
    "id": "node/8892184571"
  },
  "geometry": {
    "type": "Point",
    "coordinates": [
      24.2474154,
      59.3456692
    ]
  }
},
{
  "type": "Feature",
  "id": "node/8894098943",
  "properties": {
    "amenity": "toilets",
    "atm": "yes",
    "name": "WC",
    "unisex": "yes",
    "id": "node/8894098943"
  },
  "geometry": {
    "type": "Point",
    "coordinates": [
      22.7469922,
      58.9966333
    ]
  }
},
{
  "type": "Feature",
  "id": "node/8895269146",
  "properties": {
    "access": "yes",
    "amenity": "toilets",
    "id": "node/8895269146"
  },
  "geometry": {
    "type": "Point",
    "coordinates": [
      24.7857761,
      58.0619363
    ]
  }
},
{
  "type": "Feature",
  "id": "node/8895430876",
  "properties": {
    "access": "yes",
    "amenity": "toilets",
    "id": "node/8895430876"
  },
  "geometry": {
    "type": "Point",
    "coordinates": [
      24.5890143,
      58.3050639
    ]
  }
},
{
  "type": "Feature",
  "id": "node/8895456119",
  "properties": {
    "access": "yes",
    "amenity": "toilets",
    "unisex": "yes",
    "id": "node/8895456119"
  },
  "geometry": {
    "type": "Point",
    "coordinates": [
      24.9819909,
      58.4887589
    ]
  }
},
{
  "type": "Feature",
  "id": "node/8901896502",
  "properties": {
    "access": "yes",
    "amenity": "toilets",
    "fee": "no",
    "toilets:disposal": "chemical",
    "unisex": "yes",
    "id": "node/8901896502"
  },
  "geometry": {
    "type": "Point",
    "coordinates": [
      27.0128447,
      57.8939328
    ]
  }
},
{
  "type": "Feature",
  "id": "node/8908076307",
  "properties": {
    "access": "yes",
    "amenity": "toilets",
    "fee": "yes",
    "unisex": "yes",
    "id": "node/8908076307"
  },
  "geometry": {
    "type": "Point",
    "coordinates": [
      26.9950954,
      57.8488505
    ]
  }
},
{
  "type": "Feature",
  "id": "node/8910336315",
  "properties": {
    "access": "yes",
    "amenity": "toilets",
    "unisex": "yes",
    "id": "node/8910336315"
  },
  "geometry": {
    "type": "Point",
    "coordinates": [
      26.9183005,
      57.7295396
    ]
  }
},
{
  "type": "Feature",
  "id": "node/8927129363",
  "properties": {
    "amenity": "toilets",
    "changing_table": "no",
    "fee": "no",
    "wheelchair": "no",
    "id": "node/8927129363"
  },
  "geometry": {
    "type": "Point",
    "coordinates": [
      24.6762892,
      59.4601679
    ]
  }
},
{
  "type": "Feature",
  "id": "node/8933320410",
  "properties": {
    "amenity": "toilets",
    "id": "node/8933320410"
  },
  "geometry": {
    "type": "Point",
    "coordinates": [
      26.8444968,
      58.6483412
    ]
  }
},
{
  "type": "Feature",
  "id": "node/8942477108",
  "properties": {
    "amenity": "toilets",
    "id": "node/8942477108"
  },
  "geometry": {
    "type": "Point",
    "coordinates": [
      26.849623,
      58.6446348
    ]
  }
},
{
  "type": "Feature",
  "id": "node/8946937820",
  "properties": {
    "amenity": "toilets",
    "fee": "no",
    "wheelchair": "yes",
    "id": "node/8946937820"
  },
  "geometry": {
    "type": "Point",
    "coordinates": [
      24.7971028,
      59.4453293
    ]
  }
},
{
  "type": "Feature",
  "id": "node/9026695420",
  "properties": {
    "amenity": "toilets",
    "fee": "yes",
    "id": "node/9026695420"
  },
  "geometry": {
    "type": "Point",
    "coordinates": [
      24.7994157,
      59.4419261
    ]
  }
},
{
  "type": "Feature",
  "id": "node/9037608511",
  "properties": {
    "amenity": "toilets",
    "fee": "no",
    "female": "yes",
    "level": "1",
    "male": "yes",
    "toilets:disposal": "flush",
    "toilets:handwashing": "yes",
    "wheelchair": "yes",
    "id": "node/9037608511"
  },
  "geometry": {
    "type": "Point",
    "coordinates": [
      24.8013072,
      59.4164498
    ]
  }
},
{
  "type": "Feature",
  "id": "node/9044967804",
  "properties": {
    "access": "yes",
    "amenity": "toilets",
    "id": "node/9044967804"
  },
  "geometry": {
    "type": "Point",
    "coordinates": [
      24.8571425,
      59.444612
    ]
  }
},
{
  "type": "Feature",
  "id": "node/9046035735",
  "properties": {
    "amenity": "toilets",
    "id": "node/9046035735"
  },
  "geometry": {
    "type": "Point",
    "coordinates": [
      24.8462309,
      59.4455796
    ]
  }
},
{
  "type": "Feature",
  "id": "node/9046035736",
  "properties": {
    "amenity": "toilets",
    "id": "node/9046035736"
  },
  "geometry": {
    "type": "Point",
    "coordinates": [
      24.8471577,
      59.4463055
    ]
  }
},
{
  "type": "Feature",
  "id": "node/9046035737",
  "properties": {
    "amenity": "toilets",
    "id": "node/9046035737"
  },
  "geometry": {
    "type": "Point",
    "coordinates": [
      24.8480562,
      59.4471324
    ]
  }
},
{
  "type": "Feature",
  "id": "node/9063647879",
  "properties": {
    "amenity": "toilets",
    "id": "node/9063647879"
  },
  "geometry": {
    "type": "Point",
    "coordinates": [
      25.3203306,
      59.1050075
    ]
  }
},
{
  "type": "Feature",
  "id": "node/9099606666",
  "properties": {
    "access": "yes",
    "amenity": "toilets",
    "fee": "no",
    "opening_hours": "07:00-23:00",
    "wheelchair": "designated",
    "id": "node/9099606666"
  },
  "geometry": {
    "type": "Point",
    "coordinates": [
      24.7358736,
      59.4349689
    ]
  }
},
{
  "type": "Feature",
  "id": "node/9105228509",
  "properties": {
    "access": "yes",
    "amenity": "toilets",
    "toilets:disposal": "pitlatrine",
    "unisex": "yes",
    "wheelchair": "yes",
    "id": "node/9105228509"
  },
  "geometry": {
    "type": "Point",
    "coordinates": [
      23.746953,
      58.3604187
    ]
  }
},
{
  "type": "Feature",
  "id": "node/9105264284",
  "properties": {
    "amenity": "toilets",
    "toilets:disposal": "pitlatrine",
    "unisex": "yes",
    "wheelchair": "no",
    "id": "node/9105264284"
  },
  "geometry": {
    "type": "Point",
    "coordinates": [
      23.237749,
      58.6709271
    ]
  }
},
{
  "type": "Feature",
  "id": "node/9105385105",
  "properties": {
    "amenity": "toilets",
    "toilets:disposal": "pitlatrine",
    "id": "node/9105385105"
  },
  "geometry": {
    "type": "Point",
    "coordinates": [
      24.2475439,
      59.3985063
    ]
  }
},
{
  "type": "Feature",
  "id": "node/9105415907",
  "properties": {
    "access": "yes",
    "amenity": "toilets",
    "fee": "no",
    "toilets:disposal": "pitlatrine",
    "unisex": "yes",
    "wheelchair": "no",
    "id": "node/9105415907"
  },
  "geometry": {
    "type": "Point",
    "coordinates": [
      23.6016454,
      59.2209303
    ]
  }
},
{
  "type": "Feature",
  "id": "node/9105415912",
  "properties": {
    "access": "yes",
    "amenity": "toilets",
    "fee": "no",
    "toilets:disposal": "pitlatrine",
    "unisex": "yes",
    "id": "node/9105415912"
  },
  "geometry": {
    "type": "Point",
    "coordinates": [
      23.6048216,
      59.2221209
    ]
  }
},
{
  "type": "Feature",
  "id": "node/9139338666",
  "properties": {
    "access": "yes",
    "amenity": "toilets",
    "toilets:disposal": "pitlatrine",
    "toilets:handwashing": "no",
    "unisex": "yes",
    "wheelchair": "no",
    "id": "node/9139338666"
  },
  "geometry": {
    "type": "Point",
    "coordinates": [
      23.0619442,
      58.8425642
    ]
  }
},
{
  "type": "Feature",
  "id": "node/9139373209",
  "properties": {
    "access": "yes",
    "amenity": "toilets",
    "toilets:disposal": "pitlatrine",
    "toilets:handwashing": "no",
    "unisex": "yes",
    "id": "node/9139373209"
  },
  "geometry": {
    "type": "Point",
    "coordinates": [
      22.6960078,
      58.5968125
    ]
  }
},
{
  "type": "Feature",
  "id": "node/9183227311",
  "properties": {
    "amenity": "toilets",
    "id": "node/9183227311"
  },
  "geometry": {
    "type": "Point",
    "coordinates": [
      24.7425643,
      59.414136
    ]
  }
},
{
  "type": "Feature",
  "id": "node/9216712118",
  "properties": {
    "amenity": "toilets",
    "toilets:disposal": "pitlatrine",
    "id": "node/9216712118"
  },
  "geometry": {
    "type": "Point",
    "coordinates": [
      25.2170343,
      58.6935117
    ]
  }
},
{
  "type": "Feature",
  "id": "node/9332002462",
  "properties": {
    "amenity": "toilets",
    "id": "node/9332002462"
  },
  "geometry": {
    "type": "Point",
    "coordinates": [
      26.4210529,
      58.3035273
    ]
  }
},
{
  "type": "Feature",
  "id": "node/9350414417",
  "properties": {
    "amenity": "toilets",
    "id": "node/9350414417"
  },
  "geometry": {
    "type": "Point",
    "coordinates": [
      24.6551304,
      59.4138788
    ]
  }
},
{
  "type": "Feature",
  "id": "node/9402717586",
  "properties": {
    "amenity": "toilets",
    "changing_table": "no",
    "unisex": "yes",
    "id": "node/9402717586"
  },
  "geometry": {
    "type": "Point",
    "coordinates": [
      25.0656644,
      59.3822692
    ]
  }
},
{
  "type": "Feature",
  "id": "node/9434733417",
  "properties": {
    "amenity": "toilets",
    "level": "0",
    "id": "node/9434733417"
  },
  "geometry": {
    "type": "Point",
    "coordinates": [
      24.6519014,
      59.4267837
    ]
  }
},
{
  "type": "Feature",
  "id": "node/9434733418",
  "properties": {
    "amenity": "toilets",
    "level": "0",
    "id": "node/9434733418"
  },
  "geometry": {
    "type": "Point",
    "coordinates": [
      24.6496269,
      59.4258792
    ]
  }
},
{
  "type": "Feature",
  "id": "node/9439593017",
  "properties": {
    "amenity": "toilets",
    "level": "1",
    "id": "node/9439593017"
  },
  "geometry": {
    "type": "Point",
    "coordinates": [
      24.6518713,
      59.4268864
    ]
  }
},
{
  "type": "Feature",
  "id": "node/9439593018",
  "properties": {
    "amenity": "toilets",
    "level": "1",
    "id": "node/9439593018"
  },
  "geometry": {
    "type": "Point",
    "coordinates": [
      24.6536938,
      59.4267288
    ]
  }
}
]
}
